{
 "type": "FeatureCollection",
 "features": [
  {
   "type": "Feature",
   "geometry": {
    "type": "Polygon",
    "coordinates": [
     [
      [
       194307.827,
       546943.243
      ],
      [
       194319.257,
       546945.987
      ],
      [
       194310.573,
       546982.157
      ],
      [
       194299.143,
       546979.413
      ],
      [
       194307.827,
       546943.243
      ]
     ]
    ]
   },
   "properties": {
    "label": "타워 외형선",
    "kind": "타워 외형선",
    "height_m": 127.9
   }
  },
  {
   "type": "Feature",
   "geometry": {
    "type": "Polygon",
    "coordinates": [
     [
      [
       194336.555,
       546948.563
      ],
      [
       194308.953,
       546983.892
      ],
      [
       194253.845,
       546940.837
      ],
      [
       194281.447,
       546905.508
      ],
      [
       194336.555,
       546948.563
      ]
     ]
    ]
   },
   "properties": {
    "label": "저층부 외형선",
    "kind": "저층부 외형선",
    "height_m": 29.5
   }
  },
  {
   "type": "Feature",
   "geometry": {
    "type": "Polygon",
    "coordinates": [
     [
      [
       194278.054,
       546892.492
      ],
      [
       194230.971,
       546952.842
      ],
      [
       194327.743,
       547028.342
      ],
      [
       194374.827,
       546967.992
      ],
      [
       194278.054,
       546892.492
      ]
     ]
    ]
   },
   "properties": {
    "label": "화랑 대지",
    "kind": "대지",
    "area_m2": 9395
   }
  }
 ],
 "crs": {
  "type": "name",
  "properties": {
   "name": "urn:ogc:def:crs:EPSG::5186"
  }
 }
}