{
 "type": "FeatureCollection",
 "features": [
  {
   "type": "Feature",
   "geometry": {
    "type": "Polygon",
    "coordinates": [
     [
      [
       126.93562561,
       37.52194797
      ],
      [
       126.93577071,
       37.52197901
      ],
      [
       126.93566758,
       37.5222847
      ],
      [
       126.93552248,
       37.52225365
      ],
      [
       126.93562561,
       37.52194797
      ]
     ]
    ]
   },
   "properties": {
    "label": "타워 외형선",
    "kind": "타워 외형선",
    "height_m": 119.05
   }
  },
  {
   "type": "Feature",
   "geometry": {
    "type": "Polygon",
    "coordinates": [
     [
      [
       126.93593355,
       37.52200688
      ],
      [
       126.9356213,
       37.52232519
      ],
      [
       126.9349979,
       37.52193726
      ],
      [
       126.93531014,
       37.52161896
      ],
      [
       126.93593355,
       37.52200688
      ]
     ]
    ]
   },
   "properties": {
    "label": "저층부 외형선",
    "kind": "저층부 외형선",
    "height_m": 29.5
   }
  },
  {
   "type": "Feature",
   "geometry": {
    "type": "Polygon",
    "coordinates": [
     [
      [
       126.93527217,
       37.52150157
      ],
      [
       126.93473908,
       37.52204503
      ],
      [
       126.93583321,
       37.52272589
      ],
      [
       126.93636631,
       37.52218242
      ],
      [
       126.93527217,
       37.52150157
      ]
     ]
    ]
   },
   "properties": {
    "label": "화랑 대지",
    "kind": "대지",
    "area_m2": 9395
   }
  }
 ]
}