{
 "type": "FeatureCollection",
 "features": [
  {
   "type": "Feature",
   "geometry": {
    "type": "Polygon",
    "coordinates": [
     [
      [
       194313.567,
       546996.6
      ],
      [
       194300.833,
       546996.6
      ],
      [
       194300.833,
       546964.4
      ],
      [
       194313.567,
       546964.4
      ],
      [
       194313.567,
       546996.6
      ]
     ]
    ]
   },
   "properties": {
    "label": "타워1 외형선",
    "kind": "타워1 외형선",
    "height_m": 162.4
   }
  },
  {
   "type": "Feature",
   "geometry": {
    "type": "Polygon",
    "coordinates": [
     [
      [
       194333.567,
       546986.6
      ],
      [
       194320.833,
       546986.6
      ],
      [
       194320.833,
       546954.4
      ],
      [
       194333.567,
       546954.4
      ],
      [
       194333.567,
       546986.6
      ]
     ]
    ]
   },
   "properties": {
    "label": "타워2 외형선",
    "kind": "타워2 외형선",
    "height_m": 162.4
   }
  },
  {
   "type": "Feature",
   "geometry": {
    "type": "Polygon",
    "coordinates": [
     [
      [
       194353.246,
       546968.384
      ],
      [
       194318.521,
       547012.893
      ],
      [
       194257.154,
       546965.016
      ],
      [
       194291.879,
       546920.507
      ],
      [
       194353.246,
       546968.384
      ]
     ]
    ]
   },
   "properties": {
    "label": "저층부 외형선",
    "kind": "저층부 외형선",
    "height_m": 9.9
   }
  },
  {
   "type": "Feature",
   "geometry": {
    "type": "Polygon",
    "coordinates": [
     [
      [
       194278.054,
       546892.492
      ],
      [
       194230.971,
       546952.842
      ],
      [
       194327.743,
       547028.342
      ],
      [
       194374.827,
       546967.992
      ],
      [
       194278.054,
       546892.492
      ]
     ]
    ]
   },
   "properties": {
    "label": "화랑 대지",
    "kind": "대지",
    "area_m2": 9395
   }
  }
 ],
 "crs": {
  "type": "name",
  "properties": {
   "name": "urn:ogc:def:crs:EPSG::5186"
  }
 }
}