{
 "type": "FeatureCollection",
 "features": [
  {
   "type": "Feature",
   "geometry": {
    "type": "Polygon",
    "coordinates": [
     [
      [
       126.93567309,
       37.52243981
      ],
      [
       126.93552904,
       37.52243973
      ],
      [
       126.93552929,
       37.5221496
      ],
      [
       126.93567334,
       37.52214968
      ],
      [
       126.93567309,
       37.52243981
      ]
     ]
    ]
   },
   "properties": {
    "label": "타워1 외형선",
    "kind": "타워1 외형선",
    "height_m": 162.4
   }
  },
  {
   "type": "Feature",
   "geometry": {
    "type": "Polygon",
    "coordinates": [
     [
      [
       126.93589942,
       37.52234983
      ],
      [
       126.93575537,
       37.52234975
      ],
      [
       126.93575561,
       37.52205963
      ],
      [
       126.93589967,
       37.52205971
      ],
      [
       126.93589942,
       37.52234983
      ]
     ]
    ]
   },
   "properties": {
    "label": "타워2 외형선",
    "kind": "타워2 외형선",
    "height_m": 162.4
   }
  },
  {
   "type": "Feature",
   "geometry": {
    "type": "Polygon",
    "coordinates": [
     [
      [
       126.93612217,
       37.52218582
      ],
      [
       126.93572901,
       37.52258664
      ],
      [
       126.93503518,
       37.52215488
      ],
      [
       126.93542834,
       37.52175407
      ],
      [
       126.93612217,
       37.52218582
      ]
     ]
    ]
   },
   "properties": {
    "label": "저층부 외형선",
    "kind": "저층부 외형선",
    "height_m": 9.9
   }
  },
  {
   "type": "Feature",
   "geometry": {
    "type": "Polygon",
    "coordinates": [
     [
      [
       126.93527217,
       37.52150157
      ],
      [
       126.93473908,
       37.52204503
      ],
      [
       126.93583321,
       37.52272589
      ],
      [
       126.93636631,
       37.52218242
      ],
      [
       126.93527217,
       37.52150157
      ]
     ]
    ]
   },
   "properties": {
    "label": "화랑 대지",
    "kind": "대지",
    "area_m2": 9395
   }
  }
 ]
}