{
 "type": "FeatureCollection",
 "features": [
  {
   "type": "Feature",
   "geometry": {
    "type": "Polygon",
    "coordinates": [
     [
      [
       126.93575573,
       37.52204024
      ],
      [
       126.93593594,
       37.52205924
      ],
      [
       126.93585389,
       37.522553
      ],
      [
       126.93567368,
       37.522534
      ],
      [
       126.93575573,
       37.52204024
      ]
     ]
    ]
   },
   "properties": {
    "label": "타워1 외형선",
    "kind": "타워1 외형선",
    "height_m": 185.5
   }
  },
  {
   "type": "Feature",
   "geometry": {
    "type": "Polygon",
    "coordinates": [
     [
      [
       126.93527217,
       37.52150157
      ],
      [
       126.93473908,
       37.52204503
      ],
      [
       126.93583321,
       37.52272589
      ],
      [
       126.93636631,
       37.52218242
      ],
      [
       126.93527217,
       37.52150157
      ]
     ]
    ]
   },
   "properties": {
    "label": "화랑 대지",
    "kind": "대지",
    "area_m2": 9395
   }
  }
 ]
}