{
 "type": "FeatureCollection",
 "features": [
  {
   "type": "Feature",
   "geometry": {
    "type": "Polygon",
    "coordinates": [
     [
      [
       126.93561049,
       37.52202686
      ],
      [
       126.93575282,
       37.52204187
      ],
      [
       126.93570521,
       37.52232835
      ],
      [
       126.93556288,
       37.52231334
      ],
      [
       126.93561049,
       37.52202686
      ]
     ]
    ]
   },
   "properties": {
    "label": "타워1 외형선",
    "kind": "타워1 외형선",
    "height_m": 139.3
   }
  },
  {
   "type": "Feature",
   "geometry": {
    "type": "Polygon",
    "coordinates": [
     [
      [
       126.93623528,
       37.5222039
      ],
      [
       126.93584212,
       37.52260472
      ],
      [
       126.93514828,
       37.52217297
      ],
      [
       126.93554145,
       37.52177215
      ],
      [
       126.93623528,
       37.5222039
      ]
     ]
    ]
   },
   "properties": {
    "label": "저층부 외형선",
    "kind": "저층부 외형선",
    "height_m": 23.1
   }
  },
  {
   "type": "Feature",
   "geometry": {
    "type": "Polygon",
    "coordinates": [
     [
      [
       126.93527217,
       37.52150157
      ],
      [
       126.93473908,
       37.52204503
      ],
      [
       126.93583321,
       37.52272589
      ],
      [
       126.93636631,
       37.52218242
      ],
      [
       126.93527217,
       37.52150157
      ]
     ]
    ]
   },
   "properties": {
    "label": "화랑 대지",
    "kind": "대지",
    "area_m2": 9395
   }
  }
 ]
}