{
 "type": "FeatureCollection",
 "features": [
  {
   "type": "Feature",
   "geometry": {
    "type": "Polygon",
    "coordinates": [
     [
      [
       126.93565464,
       37.52189051
      ],
      [
       126.93578788,
       37.52191218
      ],
      [
       126.9356929,
       37.52228272
      ],
      [
       126.93555966,
       37.52226105
      ],
      [
       126.93565464,
       37.52189051
      ]
     ]
    ]
   },
   "properties": {
    "label": "타워1 외형선",
    "kind": "타워1 외형선",
    "height_m": 185.5
   }
  },
  {
   "type": "Feature",
   "geometry": {
    "type": "Polygon",
    "coordinates": [
     [
      [
       126.93616758,
       37.52210989
      ],
      [
       126.93581838,
       37.52246589
      ],
      [
       126.93503524,
       37.52197856
      ],
      [
       126.93538444,
       37.52162256
      ],
      [
       126.93616758,
       37.52210989
      ]
     ]
    ]
   },
   "properties": {
    "label": "저층부 외형선",
    "kind": "저층부 외형선",
    "height_m": 16.5
   }
  },
  {
   "type": "Feature",
   "geometry": {
    "type": "Polygon",
    "coordinates": [
     [
      [
       126.93527217,
       37.52150157
      ],
      [
       126.93473908,
       37.52204503
      ],
      [
       126.93583321,
       37.52272589
      ],
      [
       126.93636631,
       37.52218242
      ],
      [
       126.93527217,
       37.52150157
      ]
     ]
    ]
   },
   "properties": {
    "label": "화랑 대지",
    "kind": "대지",
    "area_m2": 9395
   }
  }
 ]
}