{
 "type": "FeatureCollection",
 "features": [
  {
   "type": "Feature",
   "geometry": {
    "type": "Polygon",
    "coordinates": [
     [
      [
       126.93574016,
       37.52198271
      ],
      [
       126.93591335,
       37.52200219
      ],
      [
       126.93586523,
       37.52227355
      ],
      [
       126.93569204,
       37.52225407
      ],
      [
       126.93574016,
       37.52198271
      ]
     ]
    ]
   },
   "properties": {
    "label": "타워1 외형선",
    "kind": "타워1 외형선",
    "height_m": 185.5
   }
  },
  {
   "type": "Feature",
   "geometry": {
    "type": "Polygon",
    "coordinates": [
     [
      [
       126.93573987,
       37.52232509
      ],
      [
       126.93591305,
       37.52234457
      ],
      [
       126.93586494,
       37.52261593
      ],
      [
       126.93569175,
       37.52259645
      ],
      [
       126.93573987,
       37.52232509
      ]
     ]
    ]
   },
   "properties": {
    "label": "타워2 외형선",
    "kind": "타워2 외형선",
    "height_m": 185.5
   }
  },
  {
   "type": "Feature",
   "geometry": {
    "type": "Polygon",
    "coordinates": [
     [
      [
       126.93527217,
       37.52150157
      ],
      [
       126.93473908,
       37.52204503
      ],
      [
       126.93583321,
       37.52272589
      ],
      [
       126.93636631,
       37.52218242
      ],
      [
       126.93527217,
       37.52150157
      ]
     ]
    ]
   },
   "properties": {
    "label": "화랑 대지",
    "kind": "대지",
    "area_m2": 9395
   }
  }
 ]
}