{
 "type": "FeatureCollection",
 "features": [
  {
   "type": "Feature",
   "geometry": {
    "type": "Polygon",
    "coordinates": [
     [
      [
       126.93578158,
       37.52225181
      ],
      [
       126.93563807,
       37.52225173
      ],
      [
       126.93563832,
       37.5219629
      ],
      [
       126.93578183,
       37.52196298
      ],
      [
       126.93578158,
       37.52225181
      ]
     ]
    ]
   },
   "properties": {
    "label": "타워1 외형선",
    "kind": "타워1 외형선",
    "height_m": 178.9
   }
  },
  {
   "type": "Feature",
   "geometry": {
    "type": "Polygon",
    "coordinates": [
     [
      [
       126.93600775,
       37.52234203
      ],
      [
       126.93586424,
       37.52234195
      ],
      [
       126.93586449,
       37.52205313
      ],
      [
       126.936008,
       37.52205321
      ],
      [
       126.93600775,
       37.52234203
      ]
     ]
    ]
   },
   "properties": {
    "label": "타워2 외형선",
    "kind": "타워2 외형선",
    "height_m": 178.9
   }
  },
  {
   "type": "Feature",
   "geometry": {
    "type": "Polygon",
    "coordinates": [
     [
      [
       126.93623957,
       37.52218222
      ],
      [
       126.93592438,
       37.52250355
      ],
      [
       126.93537027,
       37.52215873
      ],
      [
       126.93568547,
       37.5218374
      ],
      [
       126.93623957,
       37.52218222
      ]
     ]
    ]
   },
   "properties": {
    "label": "저층부 외형선",
    "kind": "저층부 외형선",
    "height_m": 13.2
   }
  },
  {
   "type": "Feature",
   "geometry": {
    "type": "Polygon",
    "coordinates": [
     [
      [
       126.93527217,
       37.52150157
      ],
      [
       126.93473908,
       37.52204503
      ],
      [
       126.93583321,
       37.52272589
      ],
      [
       126.93636631,
       37.52218242
      ],
      [
       126.93527217,
       37.52150157
      ]
     ]
    ]
   },
   "properties": {
    "label": "화랑 대지",
    "kind": "대지",
    "area_m2": 9395
   }
  }
 ]
}