{
 "type": "FeatureCollection",
 "features": [
  {
   "type": "Feature",
   "geometry": {
    "type": "Polygon",
    "coordinates": [
     [
      [
       0.0,
       4862.2246696035245
      ],
      [
       3000.0,
       4862.2246696035245
      ],
      [
       5700.0,
       4862.2246696035245
      ],
      [
       5700.0,
       7184.185022026432
      ],
      [
       10200.0,
       7184.185022026432
      ],
      [
       10200.0,
       4862.2246696035245
      ],
      [
       12700.0,
       4862.2246696035245
      ],
      [
       12700.0,
       7184.185022026432
      ],
      [
       17700.0,
       7184.185022026432
      ],
      [
       17700.0,
       0.0
      ],
      [
       12700.0,
       0.0
      ],
      [
       10200.0,
       0.0
      ],
      [
       5700.0,
       0.0
      ],
      [
       3000.0,
       0.0
      ],
      [
       0.0,
       0.0
      ],
      [
       0.0,
       4862.2246696035245
      ]
     ]
    ]
   },
   "properties": {
    "code": "102A",
    "row": "N",
    "family": "판상4베이+서재",
    "exclusive_m2": 102.0,
    "frame_m2": 108.12,
    "sheet": "A-105"
   }
  },
  {
   "type": "Feature",
   "geometry": {
    "type": "Polygon",
    "coordinates": [
     [
      [
       17700.0,
       4862.2246696035245
      ],
      [
       20700.0,
       4862.2246696035245
      ],
      [
       23400.0,
       4862.2246696035245
      ],
      [
       23400.0,
       7184.185022026432
      ],
      [
       27900.0,
       7184.185022026432
      ],
      [
       27900.0,
       4862.2246696035245
      ],
      [
       30400.0,
       4862.2246696035245
      ],
      [
       30400.0,
       7184.185022026432
      ],
      [
       35400.0,
       7184.185022026432
      ],
      [
       35400.0,
       0.0
      ],
      [
       30400.0,
       0.0
      ],
      [
       27900.0,
       0.0
      ],
      [
       23400.0,
       0.0
      ],
      [
       20700.0,
       0.0
      ],
      [
       17700.0,
       0.0
      ],
      [
       17700.0,
       4862.2246696035245
      ]
     ]
    ]
   },
   "properties": {
    "code": "102A",
    "row": "N",
    "family": "판상4베이+서재",
    "exclusive_m2": 102.0,
    "frame_m2": 108.12,
    "sheet": "A-105"
   }
  },
  {
   "type": "Feature",
   "geometry": {
    "type": "Polygon",
    "coordinates": [
     [
      [
       0.0,
       13617.775330396475
      ],
      [
       3000.0,
       13617.775330396475
      ],
      [
       5700.0,
       13617.775330396475
      ],
      [
       5700.0,
       11295.814977973569
      ],
      [
       10200.0,
       11295.814977973569
      ],
      [
       10200.0,
       13617.775330396475
      ],
      [
       12700.0,
       13617.775330396475
      ],
      [
       12700.0,
       11295.814977973569
      ],
      [
       17700.0,
       11295.814977973569
      ],
      [
       17700.0,
       18480.0
      ],
      [
       12700.0,
       18480.0
      ],
      [
       10200.0,
       18480.0
      ],
      [
       5700.0,
       18480.0
      ],
      [
       3000.0,
       18480.0
      ],
      [
       0.0,
       18480.0
      ],
      [
       0.0,
       13617.775330396475
      ]
     ]
    ]
   },
   "properties": {
    "code": "102A",
    "row": "S",
    "family": "판상4베이+서재",
    "exclusive_m2": 102.0,
    "frame_m2": 108.12,
    "sheet": "A-105"
   }
  },
  {
   "type": "Feature",
   "geometry": {
    "type": "Polygon",
    "coordinates": [
     [
      [
       17700.0,
       13617.775330396475
      ],
      [
       20700.0,
       13617.775330396475
      ],
      [
       23400.0,
       13617.775330396475
      ],
      [
       23400.0,
       11295.814977973569
      ],
      [
       27900.0,
       11295.814977973569
      ],
      [
       27900.0,
       13617.775330396475
      ],
      [
       30400.0,
       13617.775330396475
      ],
      [
       30400.0,
       11295.814977973569
      ],
      [
       35400.0,
       11295.814977973569
      ],
      [
       35400.0,
       18480.0
      ],
      [
       30400.0,
       18480.0
      ],
      [
       27900.0,
       18480.0
      ],
      [
       23400.0,
       18480.0
      ],
      [
       20700.0,
       18480.0
      ],
      [
       17700.0,
       18480.0
      ],
      [
       17700.0,
       13617.775330396475
      ]
     ]
    ]
   },
   "properties": {
    "code": "102A",
    "row": "S",
    "family": "판상4베이+서재",
    "exclusive_m2": 102.0,
    "frame_m2": 108.12,
    "sheet": "A-105"
   }
  },
  {
   "type": "Feature",
   "geometry": {
    "type": "Polygon",
    "coordinates": [
     [
      [
       36970.0,
       0.0
      ],
      [
       36970.0,
       18480.0
      ],
      [
       0.0,
       18480.0
      ],
      [
       0.0,
       0.0
      ],
      [
       36970.0,
       0.0
      ]
     ]
    ]
   },
   "properties": {
    "line": "기준층 판",
    "area_m2": 683.3
   }
  },
  {
   "type": "Feature",
   "geometry": {
    "type": "Polygon",
    "coordinates": [
     [
      [
       36970.0,
       18480.0
      ],
      [
       36970.0,
       0.0
      ],
      [
       35400.0,
       0.0
      ],
      [
       35400.0,
       7184.185022026432
      ],
      [
       30400.0,
       7184.185022026432
      ],
      [
       30400.0,
       4862.2246696035245
      ],
      [
       27900.0,
       4862.2246696035245
      ],
      [
       27900.0,
       7184.185022026432
      ],
      [
       23400.0,
       7184.185022026432
      ],
      [
       23400.0,
       4862.2246696035245
      ],
      [
       20700.0,
       4862.2246696035245
      ],
      [
       17700.0,
       4862.2246696035245
      ],
      [
       17700.0,
       7184.185022026432
      ],
      [
       12700.0,
       7184.185022026432
      ],
      [
       12700.0,
       4862.2246696035245
      ],
      [
       10200.0,
       4862.2246696035245
      ],
      [
       10200.0,
       7184.185022026432
      ],
      [
       5700.0,
       7184.185022026432
      ],
      [
       5700.0,
       4862.2246696035245
      ],
      [
       3000.0,
       4862.2246696035245
      ],
      [
       0.0,
       4862.2246696035245
      ],
      [
       0.0,
       13617.775330396475
      ],
      [
       3000.0,
       13617.775330396475
      ],
      [
       5700.0,
       13617.775330396475
      ],
      [
       5700.0,
       11295.814977973569
      ],
      [
       10200.0,
       11295.814977973569
      ],
      [
       10200.0,
       13617.775330396475
      ],
      [
       12700.0,
       13617.775330396475
      ],
      [
       12700.0,
       11295.814977973569
      ],
      [
       17700.0,
       11295.814977973569
      ],
      [
       17700.0,
       13617.775330396475
      ],
      [
       20700.0,
       13617.775330396475
      ],
      [
       23400.0,
       13617.775330396475
      ],
      [
       23400.0,
       11295.814977973569
      ],
      [
       27900.0,
       11295.814977973569
      ],
      [
       27900.0,
       13617.775330396475
      ],
      [
       30400.0,
       13617.775330396475
      ],
      [
       30400.0,
       11295.814977973569
      ],
      [
       35400.0,
       11295.814977973569
      ],
      [
       35400.0,
       18480.0
      ],
      [
       36970.0,
       18480.0
      ]
     ]
    ]
   },
   "properties": {
    "line": "코어·복도(잔여)",
    "area_m2": 250.7
   }
  }
 ]
}