{
 "type": "FeatureCollection",
 "features": [
  {
   "type": "Feature",
   "geometry": {
    "type": "Polygon",
    "coordinates": [
     [
      [
       194328.21287630204,
       546945.9779127317
      ],
      [
       194327.43641916674,
       546948.8756902106
      ],
      [
       194326.73760774496,
       546951.4836899416
      ],
      [
       194324.49476627295,
       546950.8827223803
      ],
      [
       194323.33008056998,
       546955.2293885987
      ],
      [
       194325.57292204202,
       546955.8303561598
      ],
      [
       194324.92587442926,
       546958.2451707255
      ],
      [
       194322.68303295723,
       546957.6442031644
      ],
      [
       194321.3889377317,
       546962.4738322959
      ],
      [
       194328.32832758533,
       546964.3332362031
      ],
      [
       194329.62242281085,
       546959.5036070716
      ],
      [
       194330.2694704236,
       546957.0887925059
      ],
      [
       194331.43415612655,
       546952.7421262875
      ],
      [
       194332.13296754833,
       546950.1341265566
      ],
      [
       194332.90942468363,
       546947.2363490778
      ],
      [
       194328.21287630204,
       546945.9779127317
      ]
     ]
    ]
   },
   "properties": {
    "code": "102A",
    "row": "N",
    "family": "판상4베이+서재",
    "exclusive_m2": 102.0,
    "frame_m2": 108.12,
    "sheet": "A-105"
   }
  },
  {
   "type": "Feature",
   "geometry": {
    "type": "Polygon",
    "coordinates": [
     [
      [
       194323.63177920374,
       546963.074799857
      ],
      [
       194322.85532206844,
       546965.9725773359
      ],
      [
       194322.15651064666,
       546968.5805770669
      ],
      [
       194319.91366917462,
       546967.9796095056
      ],
      [
       194318.74898347165,
       546972.326275724
      ],
      [
       194320.9918249437,
       546972.9272432851
      ],
      [
       194320.34477733093,
       546975.3420578509
      ],
      [
       194318.10193585893,
       546974.7410902897
      ],
      [
       194316.8078406334,
       546979.5707194211
      ],
      [
       194323.747230487,
       546981.4301233283
      ],
      [
       194325.04132571252,
       546976.600494197
      ],
      [
       194325.68837332528,
       546974.1856796312
      ],
      [
       194326.85305902825,
       546969.839013413
      ],
      [
       194327.55187045003,
       546967.231013682
      ],
      [
       194328.32832758533,
       546964.3332362031
      ],
      [
       194323.63177920374,
       546963.074799857
      ]
     ]
    ]
   },
   "properties": {
    "code": "102A",
    "row": "N",
    "family": "판상4베이+서재",
    "exclusive_m2": 102.0,
    "frame_m2": 108.12,
    "sheet": "A-105"
   }
  },
  {
   "type": "Feature",
   "geometry": {
    "type": "Polygon",
    "coordinates": [
     [
      [
       194319.7556637954,
       546943.7118094703
      ],
      [
       194318.9792066601,
       546946.6095869492
      ],
      [
       194318.28039523834,
       546949.2175866802
      ],
      [
       194320.52323671035,
       546949.8185542413
      ],
      [
       194319.35855100738,
       546954.1652204597
      ],
      [
       194317.11570953537,
       546953.5642528984
      ],
      [
       194316.4686619226,
       546955.9790674642
      ],
      [
       194318.71150339465,
       546956.5800350254
      ],
      [
       194317.41740816913,
       546961.4096641568
      ],
      [
       194310.4780183155,
       546959.5502602495
      ],
      [
       194311.77211354102,
       546954.7206311182
      ],
      [
       194312.41916115378,
       546952.3058165524
      ],
      [
       194313.58384685672,
       546947.9591503341
      ],
      [
       194314.2826582785,
       546945.3511506032
      ],
      [
       194315.0591154138,
       546942.4533731242
      ],
      [
       194319.7556637954,
       546943.7118094703
      ]
     ]
    ]
   },
   "properties": {
    "code": "102A",
    "row": "S",
    "family": "판상4베이+서재",
    "exclusive_m2": 102.0,
    "frame_m2": 108.12,
    "sheet": "A-105"
   }
  },
  {
   "type": "Feature",
   "geometry": {
    "type": "Polygon",
    "coordinates": [
     [
      [
       194315.1745666971,
       546960.8086965956
      ],
      [
       194314.3981095618,
       546963.7064740745
      ],
      [
       194313.69929814,
       546966.3144738055
      ],
      [
       194315.94213961205,
       546966.9154413666
      ],
      [
       194314.77745390908,
       546971.262107585
      ],
      [
       194312.53461243704,
       546970.6611400237
      ],
      [
       194311.88756482428,
       546973.0759545895
      ],
      [
       194314.13040629632,
       546973.6769221507
      ],
      [
       194312.8363110708,
       546978.5065512821
      ],
      [
       194305.89692121718,
       546976.6471473749
      ],
      [
       194307.1910164427,
       546971.8175182434
      ],
      [
       194307.83806405545,
       546969.4027036778
      ],
      [
       194309.00274975842,
       546965.0560374594
      ],
      [
       194309.7015611802,
       546962.4480377284
      ],
      [
       194310.4780183155,
       546959.5502602495
      ],
      [
       194315.1745666971,
       546960.8086965956
      ]
     ]
    ]
   },
   "properties": {
    "code": "102A",
    "row": "S",
    "family": "판상4베이+서재",
    "exclusive_m2": 102.0,
    "frame_m2": 108.12,
    "sheet": "A-105"
   }
  },
  {
   "type": "Feature",
   "geometry": {
    "type": "Polygon",
    "coordinates": [
     [
      [
       194323.3408845862,
       546982.9466268757
      ],
      [
       194305.4905753164,
       546978.1636509221
      ],
      [
       194315.0591154138,
       546942.4533731242
      ],
      [
       194332.90942468363,
       546947.2363490778
      ],
      [
       194323.3408845862,
       546982.9466268757
      ]
     ]
    ]
   },
   "properties": {
    "line": "기준층 판",
    "area_m2": 683.3
   }
  },
  {
   "type": "Feature",
   "geometry": {
    "type": "Polygon",
    "coordinates": [
     [
      [
       194305.4905753164,
       546978.1636509221
      ],
      [
       194323.3408845862,
       546982.9466268757
      ],
      [
       194323.747230487,
       546981.4301233283
      ],
      [
       194316.8078406334,
       546979.5707194211
      ],
      [
       194318.10193585893,
       546974.7410902897
      ],
      [
       194320.34477733093,
       546975.3420578509
      ],
      [
       194320.9918249437,
       546972.9272432851
      ],
      [
       194318.74898347165,
       546972.326275724
      ],
      [
       194319.91366917462,
       546967.9796095056
      ],
      [
       194322.15651064666,
       546968.5805770669
      ],
      [
       194322.85532206844,
       546965.9725773359
      ],
      [
       194323.63177920374,
       546963.074799857
      ],
      [
       194321.3889377317,
       546962.4738322959
      ],
      [
       194322.68303295723,
       546957.6442031644
      ],
      [
       194324.92587442926,
       546958.2451707255
      ],
      [
       194325.57292204202,
       546955.8303561598
      ],
      [
       194323.33008056998,
       546955.2293885987
      ],
      [
       194324.49476627295,
       546950.8827223803
      ],
      [
       194326.73760774496,
       546951.4836899416
      ],
      [
       194327.43641916674,
       546948.8756902106
      ],
      [
       194328.21287630204,
       546945.9779127317
      ],
      [
       194319.7556637954,
       546943.7118094703
      ],
      [
       194318.9792066601,
       546946.6095869492
      ],
      [
       194318.28039523834,
       546949.2175866802
      ],
      [
       194320.52323671035,
       546949.8185542413
      ],
      [
       194319.35855100738,
       546954.1652204597
      ],
      [
       194317.11570953537,
       546953.5642528984
      ],
      [
       194316.4686619226,
       546955.9790674642
      ],
      [
       194318.71150339465,
       546956.5800350254
      ],
      [
       194317.41740816913,
       546961.4096641568
      ],
      [
       194315.1745666971,
       546960.8086965956
      ],
      [
       194314.3981095618,
       546963.7064740745
      ],
      [
       194313.69929814,
       546966.3144738055
      ],
      [
       194315.94213961205,
       546966.9154413666
      ],
      [
       194314.77745390908,
       546971.262107585
      ],
      [
       194312.53461243704,
       546970.6611400237
      ],
      [
       194311.88756482428,
       546973.0759545895
      ],
      [
       194314.13040629632,
       546973.6769221507
      ],
      [
       194312.8363110708,
       546978.5065512821
      ],
      [
       194305.89692121718,
       546976.6471473749
      ],
      [
       194305.4905753164,
       546978.1636509221
      ]
     ]
    ]
   },
   "properties": {
    "line": "코어·복도(잔여)",
    "area_m2": 250.7
   }
  }
 ],
 "crs": {
  "type": "name",
  "properties": {
   "name": "urn:ogc:def:crs:EPSG::5186"
  }
 }
}