{
 "type": "FeatureCollection",
 "features": [
  {
   "type": "Feature",
   "geometry": {
    "type": "Polygon",
    "coordinates": [
     [
      [
       126.93271425,
       37.52278067
      ],
      [
       126.93285472,
       37.52264169
      ],
      [
       126.93270076,
       37.52254297
      ],
      [
       126.93256028,
       37.52268195
      ],
      [
       126.93271425,
       37.52278067
      ]
     ]
    ]
   },
   "properties": {
    "label": "대교 101-A",
    "group": "대교 신축안",
    "height_m": 145.6
   }
  },
  {
   "type": "Feature",
   "geometry": {
    "type": "Polygon",
    "coordinates": [
     [
      [
       126.93280341,
       37.52260879
      ],
      [
       126.9328943,
       37.52251886
      ],
      [
       126.93279166,
       37.52245304
      ],
      [
       126.93270076,
       37.52254297
      ],
      [
       126.93280341,
       37.52260879
      ]
     ]
    ]
   },
   "properties": {
    "label": "대교 101-B",
    "group": "대교 신축안",
    "height_m": 130.85
   }
  },
  {
   "type": "Feature",
   "geometry": {
    "type": "Polygon",
    "coordinates": [
     [
      [
       126.93291631,
       37.52268118
      ],
      [
       126.9330072,
       37.52259126
      ],
      [
       126.9328943,
       37.52251886
      ],
      [
       126.93280341,
       37.52260879
      ],
      [
       126.93291631,
       37.52268118
      ]
     ]
    ]
   },
   "properties": {
    "label": "대교 101-C",
    "group": "대교 신축안",
    "height_m": 104.3
   }
  },
  {
   "type": "Feature",
   "geometry": {
    "type": "Polygon",
    "coordinates": [
     [
      [
       126.93363915,
       37.52255182
      ],
      [
       126.93377136,
       37.52242101
      ],
      [
       126.93361739,
       37.52232229
      ],
      [
       126.93348518,
       37.5224531
      ],
      [
       126.93363915,
       37.52255182
      ]
     ]
    ]
   },
   "properties": {
    "label": "대교 102-A",
    "group": "대교 신축안",
    "height_m": 145.6
   }
  },
  {
   "type": "Feature",
   "geometry": {
    "type": "Polygon",
    "coordinates": [
     [
      [
       126.93377136,
       37.52242101
      ],
      [
       126.93385399,
       37.52233927
      ],
      [
       126.93373082,
       37.52226029
      ],
      [
       126.93364818,
       37.52234204
      ],
      [
       126.93377136,
       37.52242101
      ]
     ]
    ]
   },
   "properties": {
    "label": "대교 102-B",
    "group": "대교 신축안",
    "height_m": 139.7
   }
  },
  {
   "type": "Feature",
   "geometry": {
    "type": "Polygon",
    "coordinates": [
     [
      [
       126.93349345,
       37.52244492
      ],
      [
       126.9335926,
       37.52234682
      ],
      [
       126.93348996,
       37.52228101
      ],
      [
       126.9333908,
       37.52237911
      ],
      [
       126.93349345,
       37.52244492
      ]
     ]
    ]
   },
   "properties": {
    "label": "대교 102-C",
    "group": "대교 신축안",
    "height_m": 104.3
   }
  },
  {
   "type": "Feature",
   "geometry": {
    "type": "Polygon",
    "coordinates": [
     [
      [
       126.9337201,
       37.52183573
      ],
      [
       126.93384404,
       37.5217131
      ],
      [
       126.93366956,
       37.52160122
      ],
      [
       126.9335456,
       37.52172384
      ],
      [
       126.9337201,
       37.52183573
      ]
     ]
    ]
   },
   "properties": {
    "label": "대교 103-A",
    "group": "대교 신축안",
    "height_m": 127.9
   }
  },
  {
   "type": "Feature",
   "geometry": {
    "type": "Polygon",
    "coordinates": [
     [
      [
       126.93378246,
       37.52167361
      ],
      [
       126.93387335,
       37.52158369
      ],
      [
       126.93376045,
       37.52151129
      ],
      [
       126.93366956,
       37.52160122
      ],
      [
       126.93378246,
       37.52167361
      ]
     ]
    ]
   },
   "properties": {
    "label": "대교 103-B",
    "group": "대교 신축안",
    "height_m": 127.9
   }
  },
  {
   "type": "Feature",
   "geometry": {
    "type": "Polygon",
    "coordinates": [
     [
      [
       126.93389537,
       37.52174601
      ],
      [
       126.93398626,
       37.52165608
      ],
      [
       126.93387335,
       37.52158369
      ],
      [
       126.93378246,
       37.52167361
      ],
      [
       126.93389537,
       37.52174601
      ]
     ]
    ]
   },
   "properties": {
    "label": "대교 103-C",
    "group": "대교 신축안",
    "height_m": 104.3
   }
  },
  {
   "type": "Feature",
   "geometry": {
    "type": "Polygon",
    "coordinates": [
     [
      [
       126.93448198,
       37.52171793
      ],
      [
       126.93461419,
       37.52158713
      ],
      [
       126.93446022,
       37.52148841
      ],
      [
       126.93432802,
       37.52161922
      ],
      [
       126.93448198,
       37.52171793
      ]
     ]
    ]
   },
   "properties": {
    "label": "대교 104-A",
    "group": "대교 신축안",
    "height_m": 130.85
   }
  },
  {
   "type": "Feature",
   "geometry": {
    "type": "Polygon",
    "coordinates": [
     [
      [
       126.93461419,
       37.52158713
      ],
      [
       126.93469681,
       37.52150537
      ],
      [
       126.93457365,
       37.5214264
      ],
      [
       126.93449102,
       37.52150815
      ],
      [
       126.93461419,
       37.52158713
      ]
     ]
    ]
   },
   "properties": {
    "label": "대교 104-B",
    "group": "대교 신축안",
    "height_m": 130.85
   }
  },
  {
   "type": "Feature",
   "geometry": {
    "type": "Polygon",
    "coordinates": [
     [
      [
       126.93432802,
       37.52161922
      ],
      [
       126.93442717,
       37.52152111
      ],
      [
       126.93432453,
       37.52145529
      ],
      [
       126.93422537,
       37.5215534
      ],
      [
       126.93432802,
       37.52161922
      ]
     ]
    ]
   },
   "properties": {
    "label": "대교 104-C",
    "group": "대교 신축안",
    "height_m": 104.3
   }
  },
  {
   "type": "Feature",
   "geometry": {
    "type": "Polygon",
    "coordinates": [
     [
      [
       126.9334906,
       37.52318415
      ],
      [
       126.93504407,
       37.52164718
      ],
      [
       126.93484904,
       37.52152213
      ],
      [
       126.93329558,
       37.52305911
      ],
      [
       126.9334906,
       37.52318415
      ]
     ]
    ]
   },
   "properties": {
    "label": "대교 P-N1",
    "group": "대교 신축안",
    "height_m": 4.5
   }
  },
  {
   "type": "Feature",
   "geometry": {
    "type": "Polygon",
    "coordinates": [
     [
      [
       126.93328932,
       37.52308203
      ],
      [
       126.93375206,
       37.52262422
      ],
      [
       126.9335673,
       37.52250576
      ],
      [
       126.93310455,
       37.52296357
      ],
      [
       126.93328932,
       37.52308203
      ]
     ]
    ]
   },
   "properties": {
    "label": "대교 P-N2",
    "group": "대교 신축안",
    "height_m": 4.5
   }
  },
  {
   "type": "Feature",
   "geometry": {
    "type": "Polygon",
    "coordinates": [
     [
      [
       126.93366297,
       37.52224373
      ],
      [
       126.93419181,
       37.5217205
      ],
      [
       126.933966,
       37.52157571
      ],
      [
       126.93343715,
       37.52209893
      ],
      [
       126.93366297,
       37.52224373
      ]
     ]
    ]
   },
   "properties": {
    "label": "대교 P-C1",
    "group": "대교 신축안",
    "height_m": 4.5
   }
  },
  {
   "type": "Feature",
   "geometry": {
    "type": "Polygon",
    "coordinates": [
     [
      [
       126.93414274,
       37.52163515
      ],
      [
       126.93449805,
       37.52128361
      ],
      [
       126.93430304,
       37.52115856
      ],
      [
       126.93394773,
       37.52151011
      ],
      [
       126.93414274,
       37.52163515
      ]
     ]
    ]
   },
   "properties": {
    "label": "대교 P-E1",
    "group": "대교 신축안",
    "height_m": 9.0
   }
  },
  {
   "type": "Feature",
   "geometry": {
    "type": "Polygon",
    "coordinates": [
     [
      [
       126.93272888,
       37.52272268
      ],
      [
       126.93430714,
       37.5211612
      ],
      [
       126.93412854,
       37.52104668
      ],
      [
       126.93255028,
       37.52260816
      ],
      [
       126.93272888,
       37.52272268
      ]
     ]
    ]
   },
   "properties": {
    "label": "대교 P-S1",
    "group": "대교 신축안",
    "height_m": 4.5
   }
  },
  {
   "type": "Feature",
   "geometry": {
    "type": "Polygon",
    "coordinates": [
     [
      [
       126.9350092,
       37.52209882
      ],
      [
       126.93539868,
       37.52170466
      ],
      [
       126.93541304,
       37.52170873
      ],
      [
       126.9354384,
       37.52168351
      ],
      [
       126.9353596,
       37.52163121
      ],
      [
       126.93535417,
       37.52163706
      ],
      [
       126.93531346,
       37.52161289
      ],
      [
       126.9348831,
       37.52205163
      ],
      [
       126.93492449,
       37.52207706
      ],
      [
       126.9349195,
       37.52208219
      ],
      [
       126.9349983,
       37.52213062
      ],
      [
       126.93502264,
       37.52210549
      ],
      [
       126.9350092,
       37.52209882
      ]
     ]
    ]
   },
   "properties": {
    "label": "화랑 기존 3동(10F)",
    "group": "화랑 기존",
    "height_m": 30.0
   }
  },
  {
   "type": "Feature",
   "geometry": {
    "type": "Polygon",
    "coordinates": [
     [
      [
       126.93540231,
       37.52234529
      ],
      [
       126.93579225,
       37.52194726
      ],
      [
       126.93580593,
       37.52195087
      ],
      [
       126.93583039,
       37.52192791
      ],
      [
       126.9357534,
       37.52187579
      ],
      [
       126.93574774,
       37.52188101
      ],
      [
       126.93570963,
       37.52185711
      ],
      [
       126.93527724,
       37.52229548
      ],
      [
       126.93531613,
       37.52231983
      ],
      [
       126.93531047,
       37.5223255
      ],
      [
       126.93539063,
       37.52237573
      ],
      [
       126.93541599,
       37.52235214
      ],
      [
       126.93540231,
       37.52234529
      ]
     ]
    ]
   },
   "properties": {
    "label": "화랑 기존 2동(10F)",
    "group": "화랑 기존",
    "height_m": 30.0
   }
  },
  {
   "type": "Feature",
   "geometry": {
    "type": "Polygon",
    "coordinates": [
     [
      [
       126.93579033,
       37.5226003
      ],
      [
       126.9361635,
       37.52222073
      ],
      [
       126.93617029,
       37.5222238
      ],
      [
       126.93618478,
       37.52221065
      ],
      [
       126.93616025,
       37.52219352
      ],
      [
       126.93615278,
       37.5222009
      ],
      [
       126.93605781,
       37.52214049
      ],
      [
       126.93567172,
       37.52253825
      ],
      [
       126.93576466,
       37.52259551
      ],
      [
       126.93575764,
       37.52260344
      ],
      [
       126.93578613,
       37.52261958
      ],
      [
       126.9358013,
       37.52260499
      ],
      [
       126.93579033,
       37.5226003
      ]
     ]
    ]
   },
   "properties": {
    "label": "화랑 기존 1동(10F)",
    "group": "화랑 기존",
    "height_m": 30.0
   }
  },
  {
   "type": "Feature",
   "geometry": {
    "type": "Polygon",
    "coordinates": [
     [
      [
       126.93560811,
       37.52195433
      ],
      [
       126.9359115,
       37.52201926
      ],
      [
       126.93577545,
       37.52242254
      ],
      [
       126.93547206,
       37.52235761
      ],
      [
       126.93560811,
       37.52195433
      ]
     ]
    ]
   },
   "properties": {
    "label": "화랑 신축(트랙B)",
    "group": "화랑 신축안(트랙B)",
    "height_m": 107.25
   }
  }
 ]
}