{
 "type": "FeatureCollection",
 "features": [
  {
   "type": "Feature",
   "geometry": {
    "type": "Polygon",
    "coordinates": [
     [
      [
       194052.035,
       547034.615
      ],
      [
       194064.442,
       547019.181
      ],
      [
       194050.824,
       547008.234
      ],
      [
       194038.417,
       547023.668
      ],
      [
       194052.035,
       547034.615
      ]
     ]
    ]
   },
   "properties": {
    "label": "대교 101-A",
    "group": "대교 신축안",
    "height_m": 145.6
   }
  },
  {
   "type": "Feature",
   "geometry": {
    "type": "Polygon",
    "coordinates": [
     [
      [
       194059.903,
       547015.532
      ],
      [
       194067.931,
       547005.546
      ],
      [
       194058.852,
       546998.247
      ],
      [
       194050.824,
       547008.234
      ],
      [
       194059.903,
       547015.532
      ]
     ]
    ]
   },
   "properties": {
    "label": "대교 101-B",
    "group": "대교 신축안",
    "height_m": 130.85
   }
  },
  {
   "type": "Feature",
   "geometry": {
    "type": "Polygon",
    "coordinates": [
     [
      [
       194069.889,
       547023.56
      ],
      [
       194077.917,
       547013.574
      ],
      [
       194067.931,
       547005.546
      ],
      [
       194059.903,
       547015.532
      ],
      [
       194069.889,
       547023.56
      ]
     ]
    ]
   },
   "properties": {
    "label": "대교 101-C",
    "group": "대교 신축안",
    "height_m": 104.3
   }
  },
  {
   "type": "Feature",
   "geometry": {
    "type": "Polygon",
    "coordinates": [
     [
      [
       194133.777,
       547009.157
      ],
      [
       194145.454,
       546994.631
      ],
      [
       194131.836,
       546983.684
      ],
      [
       194120.159,
       546998.21
      ],
      [
       194133.777,
       547009.157
      ]
     ]
    ]
   },
   "properties": {
    "label": "대교 102-A",
    "group": "대교 신축안",
    "height_m": 145.6
   }
  },
  {
   "type": "Feature",
   "geometry": {
    "type": "Polygon",
    "coordinates": [
     [
      [
       194145.454,
       546994.631
      ],
      [
       194152.752,
       546985.553
      ],
      [
       194141.858,
       546976.795
      ],
      [
       194134.559,
       546985.874
      ],
      [
       194145.454,
       546994.631
      ]
     ]
    ]
   },
   "properties": {
    "label": "대교 102-B",
    "group": "대교 신축안",
    "height_m": 139.7
   }
  },
  {
   "type": "Feature",
   "geometry": {
    "type": "Polygon",
    "coordinates": [
     [
      [
       194120.889,
       546997.302
      ],
      [
       194129.646,
       546986.408
      ],
      [
       194120.568,
       546979.11
      ],
      [
       194111.81,
       546990.004
      ],
      [
       194120.889,
       546997.302
      ]
     ]
    ]
   },
   "properties": {
    "label": "대교 102-C",
    "group": "대교 신축안",
    "height_m": 104.3
   }
  },
  {
   "type": "Feature",
   "geometry": {
    "type": "Polygon",
    "coordinates": [
     [
      [
       194140.877,
       546929.675
      ],
      [
       194151.824,
       546916.057
      ],
      [
       194136.391,
       546903.65
      ],
      [
       194125.443,
       546917.268
      ],
      [
       194140.877,
       546929.675
      ]
     ]
    ]
   },
   "properties": {
    "label": "대교 103-A",
    "group": "대교 신축안",
    "height_m": 127.9
   }
  },
  {
   "type": "Feature",
   "geometry": {
    "type": "Polygon",
    "coordinates": [
     [
      [
       194146.377,
       546911.678
      ],
      [
       194154.405,
       546901.692
      ],
      [
       194144.419,
       546893.664
      ],
      [
       194136.391,
       546903.65
      ],
      [
       194146.377,
       546911.678
      ]
     ]
    ]
   },
   "properties": {
    "label": "대교 103-B",
    "group": "대교 신축안",
    "height_m": 127.9
   }
  },
  {
   "type": "Feature",
   "geometry": {
    "type": "Polygon",
    "coordinates": [
     [
      [
       194156.364,
       546919.706
      ],
      [
       194164.392,
       546909.72
      ],
      [
       194154.405,
       546901.692
      ],
      [
       194146.377,
       546911.678
      ],
      [
       194156.364,
       546919.706
      ]
     ]
    ]
   },
   "properties": {
    "label": "대교 103-C",
    "group": "대교 신축안",
    "height_m": 104.3
   }
  },
  {
   "type": "Feature",
   "geometry": {
    "type": "Polygon",
    "coordinates": [
     [
      [
       194208.218,
       546916.554
      ],
      [
       194219.895,
       546902.028
      ],
      [
       194206.277,
       546891.081
      ],
      [
       194194.6,
       546905.607
      ],
      [
       194208.218,
       546916.554
      ]
     ]
    ]
   },
   "properties": {
    "label": "대교 104-A",
    "group": "대교 신축안",
    "height_m": 130.85
   }
  },
  {
   "type": "Feature",
   "geometry": {
    "type": "Polygon",
    "coordinates": [
     [
      [
       194219.895,
       546902.028
      ],
      [
       194227.193,
       546892.949
      ],
      [
       194216.299,
       546884.192
      ],
      [
       194209.001,
       546893.27
      ],
      [
       194219.895,
       546902.028
      ]
     ]
    ]
   },
   "properties": {
    "label": "대교 104-B",
    "group": "대교 신축안",
    "height_m": 130.85
   }
  },
  {
   "type": "Feature",
   "geometry": {
    "type": "Polygon",
    "coordinates": [
     [
      [
       194194.6,
       546905.607
      ],
      [
       194203.358,
       546894.712
      ],
      [
       194194.279,
       546887.414
      ],
      [
       194185.521,
       546898.309
      ],
      [
       194194.6,
       546905.607
      ]
     ]
    ]
   },
   "properties": {
    "label": "대교 104-C",
    "group": "대교 신축안",
    "height_m": 104.3
   }
  },
  {
   "type": "Feature",
   "geometry": {
    "type": "Polygon",
    "coordinates": [
     [
      [
       194120.695,
       547079.347
      ],
      [
       194257.901,
       546908.667
      ],
      [
       194240.651,
       546894.8
      ],
      [
       194103.446,
       547065.481
      ],
      [
       194120.695,
       547079.347
      ]
     ]
    ]
   },
   "properties": {
    "label": "대교 P-N1",
    "group": "대교 신축안",
    "height_m": 4.5
   }
  },
  {
   "type": "Feature",
   "geometry": {
    "type": "Polygon",
    "coordinates": [
     [
      [
       194102.894,
       547068.026
      ],
      [
       194143.764,
       547017.185
      ],
      [
       194127.422,
       547004.049
      ],
      [
       194086.552,
       547054.89
      ],
      [
       194102.894,
       547068.026
      ]
     ]
    ]
   },
   "properties": {
    "label": "대교 P-N2",
    "group": "대교 신축안",
    "height_m": 4.5
   }
  },
  {
   "type": "Feature",
   "geometry": {
    "type": "Polygon",
    "coordinates": [
     [
      [
       194135.859,
       546974.961
      ],
      [
       194182.567,
       546916.857
      ],
      [
       194162.594,
       546900.801
      ],
      [
       194115.885,
       546958.905
      ],
      [
       194135.859,
       546974.961
      ]
     ]
    ]
   },
   "properties": {
    "label": "대교 P-C1",
    "group": "대교 신축안",
    "height_m": 4.5
   }
  },
  {
   "type": "Feature",
   "geometry": {
    "type": "Polygon",
    "coordinates": [
     [
      [
       194178.223,
       546907.387
      ],
      [
       194209.605,
       546868.349
      ],
      [
       194192.356,
       546854.482
      ],
      [
       194160.974,
       546893.521
      ],
      [
       194178.223,
       546907.387
      ]
     ]
    ]
   },
   "properties": {
    "label": "대교 P-E1",
    "group": "대교 신축안",
    "height_m": 9.0
   }
  },
  {
   "type": "Feature",
   "geometry": {
    "type": "Polygon",
    "coordinates": [
     [
      [
       194053.324,
       547028.178
      ],
      [
       194192.719,
       546854.774
      ],
      [
       194176.922,
       546842.075
      ],
      [
       194037.527,
       547015.479
      ],
      [
       194053.324,
       547028.178
      ]
     ]
    ]
   },
   "properties": {
    "label": "대교 P-S1",
    "group": "대교 신축안",
    "height_m": 4.5
   }
  },
  {
   "type": "Feature",
   "geometry": {
    "type": "Polygon",
    "coordinates": [
     [
      [
       194254.853,
       546958.795
      ],
      [
       194289.253,
       546915.025
      ],
      [
       194290.523,
       546915.475
      ],
      [
       194292.763,
       546912.675
      ],
      [
       194285.793,
       546906.875
      ],
      [
       194285.313,
       546907.525
      ],
      [
       194281.713,
       546904.845
      ],
      [
       194243.703,
       546953.565
      ],
      [
       194247.363,
       546956.385
      ],
      [
       194246.923,
       546956.955
      ],
      [
       194253.892,
       546962.325
      ],
      [
       194256.042,
       546959.535
      ],
      [
       194254.853,
       546958.795
      ]
     ]
    ]
   },
   "properties": {
    "label": "화랑 기존 3동(10F)",
    "group": "화랑 기존",
    "height_m": 30.0
   }
  },
  {
   "type": "Feature",
   "geometry": {
    "type": "Polygon",
    "coordinates": [
     [
      [
       194289.623,
       546986.126
      ],
      [
       194324.063,
       546941.926
      ],
      [
       194325.273,
       546942.326
      ],
      [
       194327.433,
       546939.776
      ],
      [
       194320.623,
       546933.996
      ],
      [
       194320.123,
       546934.576
      ],
      [
       194316.753,
       546931.926
      ],
      [
       194278.563,
       546980.606
      ],
      [
       194282.003,
       546983.306
      ],
      [
       194281.503,
       546983.936
      ],
      [
       194288.593,
       546989.506
      ],
      [
       194290.833,
       546986.886
      ],
      [
       194289.623,
       546986.126
      ]
     ]
    ]
   },
   "properties": {
    "label": "화랑 기존 2동(10F)",
    "group": "화랑 기존",
    "height_m": 30.0
   }
  },
  {
   "type": "Feature",
   "geometry": {
    "type": "Polygon",
    "coordinates": [
     [
      [
       194323.943,
       547014.406
      ],
      [
       194356.902,
       546972.256
      ],
      [
       194357.502,
       546972.596
      ],
      [
       194358.782,
       546971.136
      ],
      [
       194356.613,
       546969.236
      ],
      [
       194355.953,
       546970.056
      ],
      [
       194347.553,
       546963.356
      ],
      [
       194313.453,
       547007.526
      ],
      [
       194321.673,
       547013.876
      ],
      [
       194321.053,
       547014.756
      ],
      [
       194323.573,
       547016.546
      ],
      [
       194324.913,
       547014.926
      ],
      [
       194323.943,
       547014.406
      ]
     ]
    ]
   },
   "properties": {
    "label": "화랑 기존 1동(10F)",
    "group": "화랑 기존",
    "height_m": 30.0
   }
  },
  {
   "type": "Feature",
   "geometry": {
    "type": "Polygon",
    "coordinates": [
     [
      [
       194307.786,
       546942.722
      ],
      [
       194334.61,
       546949.91
      ],
      [
       194322.614,
       546994.678
      ],
      [
       194295.79,
       546987.49
      ],
      [
       194307.786,
       546942.722
      ]
     ]
    ]
   },
   "properties": {
    "label": "화랑 신축(트랙B)",
    "group": "화랑 신축안(트랙B)",
    "height_m": 107.25
   }
  }
 ],
 "crs": {
  "type": "name",
  "properties": {
   "name": "urn:ogc:def:crs:EPSG::5186"
  }
 }
}