{
 "type": "FeatureCollection",
 "features": [
  {
   "type": "Feature",
   "geometry": {
    "type": "Point",
    "coordinates": [
     126.93569832,
     37.52297531
    ]
   },
   "properties": {
    "pid": "체육관동(정보화센타) 1층-11",
    "school": "여의도중학교",
    "jibun": "40-1",
    "kind": "교사동 창면",
    "dong": "체육관동(정보화센타)",
    "facade": "체육관동(정보화센타)",
    "floor": 1,
    "source": "도면기준",
    "z_m": 2.05,
    "normal_az": 230.3,
    "s1_total_h": 1.5,
    "s1_cont_h": 1.5,
    "s1_pass_a": false,
    "s1_pass_b": false,
    "s2_total_h": 2.0,
    "s2_cont_h": 2.0,
    "s2_pass_a": true,
    "s2_pass_b": true,
    "d_total_h": 0.5,
    "d_cont_h": 0.5,
    "change_cd": "new_ok",
    "변화": "신규 충족"
   }
  },
  {
   "type": "Feature",
   "geometry": {
    "type": "Point",
    "coordinates": [
     126.93569832,
     37.52297531
    ]
   },
   "properties": {
    "pid": "체육관동(정보화센타) 2층-11",
    "school": "여의도중학교",
    "jibun": "40-1",
    "kind": "교사동 창면",
    "dong": "체육관동(정보화센타)",
    "facade": "체육관동(정보화센타)",
    "floor": 2,
    "source": "도면기준",
    "z_m": 5.95,
    "normal_az": 230.3,
    "s1_total_h": 2.83,
    "s1_cont_h": 1.83,
    "s1_pass_a": false,
    "s1_pass_b": false,
    "s2_total_h": 2.0,
    "s2_cont_h": 2.0,
    "s2_pass_a": true,
    "s2_pass_b": true,
    "d_total_h": -0.83,
    "d_cont_h": 0.17,
    "change_cd": "new_ok",
    "변화": "신규 충족"
   }
  },
  {
   "type": "Feature",
   "geometry": {
    "type": "Point",
    "coordinates": [
     126.93530501,
     37.52271688
    ]
   },
   "properties": {
    "pid": "A동(3층) A동 남서면 1층-1",
    "school": "여의도여자고등학교",
    "jibun": "40-2",
    "kind": "교사동 창면",
    "dong": "A동(3층)",
    "facade": "A동 남서면",
    "floor": 1,
    "source": "도면기준",
    "z_m": 2.3,
    "normal_az": 232.1,
    "s1_total_h": 3.0,
    "s1_cont_h": 1.33,
    "s1_pass_a": false,
    "s1_pass_b": false,
    "s2_total_h": 3.0,
    "s2_cont_h": 2.5,
    "s2_pass_a": true,
    "s2_pass_b": true,
    "d_total_h": 0.0,
    "d_cont_h": 1.17,
    "change_cd": "new_ok",
    "변화": "신규 충족"
   }
  },
  {
   "type": "Feature",
   "geometry": {
    "type": "Point",
    "coordinates": [
     126.93530501,
     37.52271688
    ]
   },
   "properties": {
    "pid": "A동(3층) A동 남서면 2층-1",
    "school": "여의도여자고등학교",
    "jibun": "40-2",
    "kind": "교사동 창면",
    "dong": "A동(3층)",
    "facade": "A동 남서면",
    "floor": 2,
    "source": "도면기준",
    "z_m": 6.3,
    "normal_az": 232.1,
    "s1_total_h": 3.5,
    "s1_cont_h": 1.5,
    "s1_pass_a": false,
    "s1_pass_b": false,
    "s2_total_h": 3.0,
    "s2_cont_h": 2.5,
    "s2_pass_a": true,
    "s2_pass_b": true,
    "d_total_h": -0.5,
    "d_cont_h": 1.0,
    "change_cd": "new_ok",
    "변화": "신규 충족"
   }
  },
  {
   "type": "Feature",
   "geometry": {
    "type": "Point",
    "coordinates": [
     126.93533633,
     37.52268491
    ]
   },
   "properties": {
    "pid": "A동(3층) A동 남서면 1층-2",
    "school": "여의도여자고등학교",
    "jibun": "40-2",
    "kind": "교사동 창면",
    "dong": "A동(3층)",
    "facade": "A동 남서면",
    "floor": 1,
    "source": "도면기준",
    "z_m": 2.3,
    "normal_az": 232.1,
    "s1_total_h": 3.0,
    "s1_cont_h": 1.33,
    "s1_pass_a": false,
    "s1_pass_b": false,
    "s2_total_h": 3.17,
    "s2_cont_h": 2.67,
    "s2_pass_a": true,
    "s2_pass_b": true,
    "d_total_h": 0.17,
    "d_cont_h": 1.34,
    "change_cd": "new_ok",
    "변화": "신규 충족"
   }
  },
  {
   "type": "Feature",
   "geometry": {
    "type": "Point",
    "coordinates": [
     126.93533633,
     37.52268491
    ]
   },
   "properties": {
    "pid": "A동(3층) A동 남서면 2층-2",
    "school": "여의도여자고등학교",
    "jibun": "40-2",
    "kind": "교사동 창면",
    "dong": "A동(3층)",
    "facade": "A동 남서면",
    "floor": 2,
    "source": "도면기준",
    "z_m": 6.3,
    "normal_az": 232.1,
    "s1_total_h": 3.17,
    "s1_cont_h": 1.5,
    "s1_pass_a": false,
    "s1_pass_b": false,
    "s2_total_h": 3.17,
    "s2_cont_h": 2.67,
    "s2_pass_a": true,
    "s2_pass_b": true,
    "d_total_h": 0.0,
    "d_cont_h": 1.17,
    "change_cd": "new_ok",
    "변화": "신규 충족"
   }
  },
  {
   "type": "Feature",
   "geometry": {
    "type": "Point",
    "coordinates": [
     126.93536763,
     37.52265295
    ]
   },
   "properties": {
    "pid": "A동(3층) A동 남서면 1층-3",
    "school": "여의도여자고등학교",
    "jibun": "40-2",
    "kind": "교사동 창면",
    "dong": "A동(3층)",
    "facade": "A동 남서면",
    "floor": 1,
    "source": "도면기준",
    "z_m": 2.3,
    "normal_az": 232.1,
    "s1_total_h": 2.67,
    "s1_cont_h": 1.33,
    "s1_pass_a": false,
    "s1_pass_b": false,
    "s2_total_h": 3.0,
    "s2_cont_h": 2.67,
    "s2_pass_a": true,
    "s2_pass_b": true,
    "d_total_h": 0.33,
    "d_cont_h": 1.34,
    "change_cd": "new_ok",
    "변화": "신규 충족"
   }
  },
  {
   "type": "Feature",
   "geometry": {
    "type": "Point",
    "coordinates": [
     126.93536763,
     37.52265295
    ]
   },
   "properties": {
    "pid": "A동(3층) A동 남서면 2층-3",
    "school": "여의도여자고등학교",
    "jibun": "40-2",
    "kind": "교사동 창면",
    "dong": "A동(3층)",
    "facade": "A동 남서면",
    "floor": 2,
    "source": "도면기준",
    "z_m": 6.3,
    "normal_az": 232.1,
    "s1_total_h": 2.83,
    "s1_cont_h": 1.5,
    "s1_pass_a": false,
    "s1_pass_b": false,
    "s2_total_h": 3.0,
    "s2_cont_h": 2.67,
    "s2_pass_a": true,
    "s2_pass_b": true,
    "d_total_h": 0.17,
    "d_cont_h": 1.17,
    "change_cd": "new_ok",
    "변화": "신규 충족"
   }
  },
  {
   "type": "Feature",
   "geometry": {
    "type": "Point",
    "coordinates": [
     126.93539895,
     37.52262098
    ]
   },
   "properties": {
    "pid": "A동(3층) A동 남서면 1층-4",
    "school": "여의도여자고등학교",
    "jibun": "40-2",
    "kind": "교사동 창면",
    "dong": "A동(3층)",
    "facade": "A동 남서면",
    "floor": 1,
    "source": "도면기준",
    "z_m": 2.3,
    "normal_az": 232.1,
    "s1_total_h": 2.17,
    "s1_cont_h": 1.33,
    "s1_pass_a": false,
    "s1_pass_b": false,
    "s2_total_h": 2.67,
    "s2_cont_h": 2.5,
    "s2_pass_a": true,
    "s2_pass_b": true,
    "d_total_h": 0.5,
    "d_cont_h": 1.17,
    "change_cd": "new_ok",
    "변화": "신규 충족"
   }
  },
  {
   "type": "Feature",
   "geometry": {
    "type": "Point",
    "coordinates": [
     126.93539895,
     37.52262098
    ]
   },
   "properties": {
    "pid": "A동(3층) A동 남서면 2층-4",
    "school": "여의도여자고등학교",
    "jibun": "40-2",
    "kind": "교사동 창면",
    "dong": "A동(3층)",
    "facade": "A동 남서면",
    "floor": 2,
    "source": "도면기준",
    "z_m": 6.3,
    "normal_az": 232.1,
    "s1_total_h": 2.33,
    "s1_cont_h": 1.5,
    "s1_pass_a": false,
    "s1_pass_b": false,
    "s2_total_h": 2.67,
    "s2_cont_h": 2.5,
    "s2_pass_a": true,
    "s2_pass_b": true,
    "d_total_h": 0.34,
    "d_cont_h": 1.0,
    "change_cd": "new_ok",
    "변화": "신규 충족"
   }
  },
  {
   "type": "Feature",
   "geometry": {
    "type": "Point",
    "coordinates": [
     126.93543026,
     37.52258901
    ]
   },
   "properties": {
    "pid": "A동(3층) A동 남서면 1층-5",
    "school": "여의도여자고등학교",
    "jibun": "40-2",
    "kind": "교사동 창면",
    "dong": "A동(3층)",
    "facade": "A동 남서면",
    "floor": 1,
    "source": "도면기준",
    "z_m": 2.3,
    "normal_az": 232.1,
    "s1_total_h": 1.67,
    "s1_cont_h": 1.33,
    "s1_pass_a": false,
    "s1_pass_b": false,
    "s2_total_h": 2.33,
    "s2_cont_h": 2.33,
    "s2_pass_a": true,
    "s2_pass_b": true,
    "d_total_h": 0.66,
    "d_cont_h": 1.0,
    "change_cd": "new_ok",
    "변화": "신규 충족"
   }
  },
  {
   "type": "Feature",
   "geometry": {
    "type": "Point",
    "coordinates": [
     126.93543026,
     37.52258901
    ]
   },
   "properties": {
    "pid": "A동(3층) A동 남서면 2층-5",
    "school": "여의도여자고등학교",
    "jibun": "40-2",
    "kind": "교사동 창면",
    "dong": "A동(3층)",
    "facade": "A동 남서면",
    "floor": 2,
    "source": "도면기준",
    "z_m": 6.3,
    "normal_az": 232.1,
    "s1_total_h": 1.83,
    "s1_cont_h": 1.5,
    "s1_pass_a": false,
    "s1_pass_b": false,
    "s2_total_h": 2.33,
    "s2_cont_h": 2.33,
    "s2_pass_a": true,
    "s2_pass_b": true,
    "d_total_h": 0.5,
    "d_cont_h": 0.83,
    "change_cd": "new_ok",
    "변화": "신규 충족"
   }
  },
  {
   "type": "Feature",
   "geometry": {
    "type": "Point",
    "coordinates": [
     126.93563679,
     37.52268063
    ]
   },
   "properties": {
    "pid": "A동(3층) A동 남동면 1층-5",
    "school": "여의도여자고등학교",
    "jibun": "40-2",
    "kind": "교사동 창면",
    "dong": "A동(3층)",
    "facade": "A동 남동면",
    "floor": 1,
    "source": "도면기준",
    "z_m": 2.3,
    "normal_az": 142.1,
    "s1_total_h": 1.5,
    "s1_cont_h": 1.5,
    "s1_pass_a": false,
    "s1_pass_b": false,
    "s2_total_h": 3.5,
    "s2_cont_h": 2.67,
    "s2_pass_a": true,
    "s2_pass_b": true,
    "d_total_h": 2.0,
    "d_cont_h": 1.17,
    "change_cd": "new_ok",
    "변화": "신규 충족"
   }
  },
  {
   "type": "Feature",
   "geometry": {
    "type": "Point",
    "coordinates": [
     126.93567694,
     37.52270557
    ]
   },
   "properties": {
    "pid": "A동(3층) A동 남동면 1층-6",
    "school": "여의도여자고등학교",
    "jibun": "40-2",
    "kind": "교사동 창면",
    "dong": "A동(3층)",
    "facade": "A동 남동면",
    "floor": 1,
    "source": "도면기준",
    "z_m": 2.3,
    "normal_az": 142.1,
    "s1_total_h": 1.83,
    "s1_cont_h": 1.0,
    "s1_pass_a": false,
    "s1_pass_b": false,
    "s2_total_h": 3.67,
    "s2_cont_h": 3.17,
    "s2_pass_a": true,
    "s2_pass_b": true,
    "d_total_h": 1.84,
    "d_cont_h": 2.17,
    "change_cd": "new_ok",
    "변화": "신규 충족"
   }
  },
  {
   "type": "Feature",
   "geometry": {
    "type": "Point",
    "coordinates": [
     126.93567694,
     37.52270557
    ]
   },
   "properties": {
    "pid": "A동(3층) A동 남동면 2층-6",
    "school": "여의도여자고등학교",
    "jibun": "40-2",
    "kind": "교사동 창면",
    "dong": "A동(3층)",
    "facade": "A동 남동면",
    "floor": 2,
    "source": "도면기준",
    "z_m": 6.3,
    "normal_az": 142.1,
    "s1_total_h": 2.33,
    "s1_cont_h": 1.5,
    "s1_pass_a": false,
    "s1_pass_b": false,
    "s2_total_h": 3.67,
    "s2_cont_h": 3.17,
    "s2_pass_a": true,
    "s2_pass_b": true,
    "d_total_h": 1.34,
    "d_cont_h": 1.67,
    "change_cd": "new_ok",
    "변화": "신규 충족"
   }
  },
  {
   "type": "Feature",
   "geometry": {
    "type": "Point",
    "coordinates": [
     126.93571707,
     37.5227305
    ]
   },
   "properties": {
    "pid": "A동(3층) A동 남동면 1층-7",
    "school": "여의도여자고등학교",
    "jibun": "40-2",
    "kind": "교사동 창면",
    "dong": "A동(3층)",
    "facade": "A동 남동면",
    "floor": 1,
    "source": "도면기준",
    "z_m": 2.3,
    "normal_az": 142.1,
    "s1_total_h": 2.33,
    "s1_cont_h": 1.67,
    "s1_pass_a": false,
    "s1_pass_b": false,
    "s2_total_h": 3.67,
    "s2_cont_h": 3.33,
    "s2_pass_a": true,
    "s2_pass_b": true,
    "d_total_h": 1.34,
    "d_cont_h": 1.66,
    "change_cd": "new_ok",
    "변화": "신규 충족"
   }
  },
  {
   "type": "Feature",
   "geometry": {
    "type": "Point",
    "coordinates": [
     126.93571707,
     37.5227305
    ]
   },
   "properties": {
    "pid": "A동(3층) A동 남동면 2층-7",
    "school": "여의도여자고등학교",
    "jibun": "40-2",
    "kind": "교사동 창면",
    "dong": "A동(3층)",
    "facade": "A동 남동면",
    "floor": 2,
    "source": "도면기준",
    "z_m": 6.3,
    "normal_az": 142.1,
    "s1_total_h": 2.83,
    "s1_cont_h": 1.83,
    "s1_pass_a": false,
    "s1_pass_b": false,
    "s2_total_h": 3.67,
    "s2_cont_h": 3.33,
    "s2_pass_a": true,
    "s2_pass_b": true,
    "d_total_h": 0.84,
    "d_cont_h": 1.5,
    "change_cd": "new_ok",
    "변화": "신규 충족"
   }
  },
  {
   "type": "Feature",
   "geometry": {
    "type": "Point",
    "coordinates": [
     126.93568898,
     37.52271305
    ]
   },
   "properties": {
    "pid": "A동(3층) A동 남동면 3층-5",
    "school": "여의도여자고등학교",
    "jibun": "40-2",
    "kind": "교사동 창면",
    "dong": "A동(3층)",
    "facade": "A동 남동면",
    "floor": 3,
    "source": "도면기준",
    "z_m": 10.3,
    "normal_az": 142.1,
    "s1_total_h": 3.17,
    "s1_cont_h": 1.83,
    "s1_pass_a": false,
    "s1_pass_b": false,
    "s2_total_h": 3.67,
    "s2_cont_h": 3.17,
    "s2_pass_a": true,
    "s2_pass_b": true,
    "d_total_h": 0.5,
    "d_cont_h": 1.34,
    "change_cd": "new_ok",
    "변화": "신규 충족"
   }
  },
  {
   "type": "Feature",
   "geometry": {
    "type": "Point",
    "coordinates": [
     126.93542478,
     37.52298815
    ]
   },
   "properties": {
    "pid": "여의도여자고등학교 ②(5층) 4층-1",
    "school": "여의도여자고등학교",
    "jibun": "40-2",
    "kind": "교사동 창면",
    "dong": "여의도여자고등학교 ②(5층)",
    "facade": "남향외벽",
    "floor": 4,
    "source": "일반식",
    "z_m": 11.7,
    "normal_az": 141.8,
    "s1_total_h": 1.83,
    "s1_cont_h": 1.5,
    "s1_pass_a": false,
    "s1_pass_b": false,
    "s2_total_h": 2.0,
    "s2_cont_h": 2.0,
    "s2_pass_a": true,
    "s2_pass_b": false,
    "d_total_h": 0.17,
    "d_cont_h": 0.5,
    "change_cd": "new_ok",
    "변화": "신규 충족"
   }
  },
  {
   "type": "Feature",
   "geometry": {
    "type": "Point",
    "coordinates": [
     126.93456688,
     37.52241696
    ]
   },
   "properties": {
    "pid": "여의도여자고등학교 운동장-2",
    "school": "여의도여자고등학교",
    "jibun": "40-2",
    "kind": "운동장 지반",
    "dong": "여의도여자고등학교 운동장",
    "facade": "지반",
    "floor": 0,
    "source": "옥외지반 근사",
    "z_m": 0.0,
    "normal_az": 180.0,
    "s1_total_h": 3.0,
    "s1_cont_h": 1.83,
    "s1_pass_a": false,
    "s1_pass_b": false,
    "s2_total_h": 4.5,
    "s2_cont_h": 3.5,
    "s2_pass_a": true,
    "s2_pass_b": true,
    "d_total_h": 1.5,
    "d_cont_h": 1.67,
    "change_cd": "new_ok",
    "변화": "신규 충족"
   }
  },
  {
   "type": "Feature",
   "geometry": {
    "type": "Point",
    "coordinates": [
     126.93465738,
     37.52241701
    ]
   },
   "properties": {
    "pid": "여의도여자고등학교 운동장-3",
    "school": "여의도여자고등학교",
    "jibun": "40-2",
    "kind": "운동장 지반",
    "dong": "여의도여자고등학교 운동장",
    "facade": "지반",
    "floor": 0,
    "source": "옥외지반 근사",
    "z_m": 0.0,
    "normal_az": 180.0,
    "s1_total_h": 3.33,
    "s1_cont_h": 1.67,
    "s1_pass_a": false,
    "s1_pass_b": false,
    "s2_total_h": 4.67,
    "s2_cont_h": 3.67,
    "s2_pass_a": true,
    "s2_pass_b": true,
    "d_total_h": 1.34,
    "d_cont_h": 2.0,
    "change_cd": "new_ok",
    "변화": "신규 충족"
   }
  },
  {
   "type": "Feature",
   "geometry": {
    "type": "Point",
    "coordinates": [
     126.93474788,
     37.52241706
    ]
   },
   "properties": {
    "pid": "여의도여자고등학교 운동장-4",
    "school": "여의도여자고등학교",
    "jibun": "40-2",
    "kind": "운동장 지반",
    "dong": "여의도여자고등학교 운동장",
    "facade": "지반",
    "floor": 0,
    "source": "옥외지반 근사",
    "z_m": 0.0,
    "normal_az": 180.0,
    "s1_total_h": 3.67,
    "s1_cont_h": 1.33,
    "s1_pass_a": false,
    "s1_pass_b": false,
    "s2_total_h": 5.0,
    "s2_cont_h": 4.0,
    "s2_pass_a": true,
    "s2_pass_b": true,
    "d_total_h": 1.33,
    "d_cont_h": 2.67,
    "change_cd": "new_ok",
    "변화": "신규 충족"
   }
  },
  {
   "type": "Feature",
   "geometry": {
    "type": "Point",
    "coordinates": [
     126.93438582,
     37.52248894
    ]
   },
   "properties": {
    "pid": "여의도여자고등학교 운동장-6",
    "school": "여의도여자고등학교",
    "jibun": "40-2",
    "kind": "운동장 지반",
    "dong": "여의도여자고등학교 운동장",
    "facade": "지반",
    "floor": 0,
    "source": "옥외지반 근사",
    "z_m": 0.0,
    "normal_az": 180.0,
    "s1_total_h": 2.67,
    "s1_cont_h": 1.83,
    "s1_pass_a": false,
    "s1_pass_b": false,
    "s2_total_h": 3.83,
    "s2_cont_h": 3.0,
    "s2_pass_a": true,
    "s2_pass_b": true,
    "d_total_h": 1.16,
    "d_cont_h": 1.17,
    "change_cd": "new_ok",
    "변화": "신규 충족"
   }
  },
  {
   "type": "Feature",
   "geometry": {
    "type": "Point",
    "coordinates": [
     126.93447632,
     37.52248899
    ]
   },
   "properties": {
    "pid": "여의도여자고등학교 운동장-7",
    "school": "여의도여자고등학교",
    "jibun": "40-2",
    "kind": "운동장 지반",
    "dong": "여의도여자고등학교 운동장",
    "facade": "지반",
    "floor": 0,
    "source": "옥외지반 근사",
    "z_m": 0.0,
    "normal_az": 180.0,
    "s1_total_h": 3.17,
    "s1_cont_h": 1.83,
    "s1_pass_a": false,
    "s1_pass_b": false,
    "s2_total_h": 4.33,
    "s2_cont_h": 3.33,
    "s2_pass_a": true,
    "s2_pass_b": true,
    "d_total_h": 1.16,
    "d_cont_h": 1.5,
    "change_cd": "new_ok",
    "변화": "신규 충족"
   }
  },
  {
   "type": "Feature",
   "geometry": {
    "type": "Point",
    "coordinates": [
     126.93456682,
     37.52248904
    ]
   },
   "properties": {
    "pid": "여의도여자고등학교 운동장-8",
    "school": "여의도여자고등학교",
    "jibun": "40-2",
    "kind": "운동장 지반",
    "dong": "여의도여자고등학교 운동장",
    "facade": "지반",
    "floor": 0,
    "source": "옥외지반 근사",
    "z_m": 0.0,
    "normal_az": 180.0,
    "s1_total_h": 3.0,
    "s1_cont_h": 1.5,
    "s1_pass_a": false,
    "s1_pass_b": false,
    "s2_total_h": 4.17,
    "s2_cont_h": 3.33,
    "s2_pass_a": true,
    "s2_pass_b": true,
    "d_total_h": 1.17,
    "d_cont_h": 1.83,
    "change_cd": "new_ok",
    "변화": "신규 충족"
   }
  },
  {
   "type": "Feature",
   "geometry": {
    "type": "Point",
    "coordinates": [
     126.93465731,
     37.52248909
    ]
   },
   "properties": {
    "pid": "여의도여자고등학교 운동장-9",
    "school": "여의도여자고등학교",
    "jibun": "40-2",
    "kind": "운동장 지반",
    "dong": "여의도여자고등학교 운동장",
    "facade": "지반",
    "floor": 0,
    "source": "옥외지반 근사",
    "z_m": 0.0,
    "normal_az": 180.0,
    "s1_total_h": 3.33,
    "s1_cont_h": 1.33,
    "s1_pass_a": false,
    "s1_pass_b": false,
    "s2_total_h": 4.5,
    "s2_cont_h": 3.67,
    "s2_pass_a": true,
    "s2_pass_b": true,
    "d_total_h": 1.17,
    "d_cont_h": 2.34,
    "change_cd": "new_ok",
    "변화": "신규 충족"
   }
  },
  {
   "type": "Feature",
   "geometry": {
    "type": "Point",
    "coordinates": [
     126.93474781,
     37.52248914
    ]
   },
   "properties": {
    "pid": "여의도여자고등학교 운동장-10",
    "school": "여의도여자고등학교",
    "jibun": "40-2",
    "kind": "운동장 지반",
    "dong": "여의도여자고등학교 운동장",
    "facade": "지반",
    "floor": 0,
    "source": "옥외지반 근사",
    "z_m": 0.0,
    "normal_az": 180.0,
    "s1_total_h": 3.67,
    "s1_cont_h": 1.5,
    "s1_pass_a": false,
    "s1_pass_b": false,
    "s2_total_h": 4.83,
    "s2_cont_h": 3.83,
    "s2_pass_a": true,
    "s2_pass_b": true,
    "d_total_h": 1.16,
    "d_cont_h": 2.33,
    "change_cd": "new_ok",
    "변화": "신규 충족"
   }
  },
  {
   "type": "Feature",
   "geometry": {
    "type": "Point",
    "coordinates": [
     126.93483831,
     37.52248919
    ]
   },
   "properties": {
    "pid": "여의도여자고등학교 운동장-11",
    "school": "여의도여자고등학교",
    "jibun": "40-2",
    "kind": "운동장 지반",
    "dong": "여의도여자고등학교 운동장",
    "facade": "지반",
    "floor": 0,
    "source": "옥외지반 근사",
    "z_m": 0.0,
    "normal_az": 180.0,
    "s1_total_h": 3.33,
    "s1_cont_h": 1.83,
    "s1_pass_a": false,
    "s1_pass_b": false,
    "s2_total_h": 4.83,
    "s2_cont_h": 4.0,
    "s2_pass_a": true,
    "s2_pass_b": true,
    "d_total_h": 1.5,
    "d_cont_h": 2.17,
    "change_cd": "new_ok",
    "변화": "신규 충족"
   }
  },
  {
   "type": "Feature",
   "geometry": {
    "type": "Point",
    "coordinates": [
     126.9353813,
     37.52248949
    ]
   },
   "properties": {
    "pid": "여의도여자고등학교 운동장-12",
    "school": "여의도여자고등학교",
    "jibun": "40-2",
    "kind": "운동장 지반",
    "dong": "여의도여자고등학교 운동장",
    "facade": "지반",
    "floor": 0,
    "source": "옥외지반 근사",
    "z_m": 0.0,
    "normal_az": 180.0,
    "s1_total_h": 2.0,
    "s1_cont_h": 1.33,
    "s1_pass_a": false,
    "s1_pass_b": false,
    "s2_total_h": 3.17,
    "s2_cont_h": 3.17,
    "s2_pass_a": true,
    "s2_pass_b": true,
    "d_total_h": 1.17,
    "d_cont_h": 1.84,
    "change_cd": "new_ok",
    "변화": "신규 충족"
   }
  },
  {
   "type": "Feature",
   "geometry": {
    "type": "Point",
    "coordinates": [
     126.93420476,
     37.52256092
    ]
   },
   "properties": {
    "pid": "여의도여자고등학교 운동장-14",
    "school": "여의도여자고등학교",
    "jibun": "40-2",
    "kind": "운동장 지반",
    "dong": "여의도여자고등학교 운동장",
    "facade": "지반",
    "floor": 0,
    "source": "옥외지반 근사",
    "z_m": 0.0,
    "normal_az": 180.0,
    "s1_total_h": 2.33,
    "s1_cont_h": 1.83,
    "s1_pass_a": false,
    "s1_pass_b": false,
    "s2_total_h": 3.17,
    "s2_cont_h": 2.67,
    "s2_pass_a": true,
    "s2_pass_b": true,
    "d_total_h": 0.84,
    "d_cont_h": 0.84,
    "change_cd": "new_ok",
    "변화": "신규 충족"
   }
  },
  {
   "type": "Feature",
   "geometry": {
    "type": "Point",
    "coordinates": [
     126.93429526,
     37.52256097
    ]
   },
   "properties": {
    "pid": "여의도여자고등학교 운동장-15",
    "school": "여의도여자고등학교",
    "jibun": "40-2",
    "kind": "운동장 지반",
    "dong": "여의도여자고등학교 운동장",
    "facade": "지반",
    "floor": 0,
    "source": "옥외지반 근사",
    "z_m": 0.0,
    "normal_az": 180.0,
    "s1_total_h": 2.67,
    "s1_cont_h": 1.83,
    "s1_pass_a": false,
    "s1_pass_b": false,
    "s2_total_h": 3.67,
    "s2_cont_h": 2.83,
    "s2_pass_a": true,
    "s2_pass_b": true,
    "d_total_h": 1.0,
    "d_cont_h": 1.0,
    "change_cd": "new_ok",
    "변화": "신규 충족"
   }
  },
  {
   "type": "Feature",
   "geometry": {
    "type": "Point",
    "coordinates": [
     126.93438575,
     37.52256102
    ]
   },
   "properties": {
    "pid": "여의도여자고등학교 운동장-16",
    "school": "여의도여자고등학교",
    "jibun": "40-2",
    "kind": "운동장 지반",
    "dong": "여의도여자고등학교 운동장",
    "facade": "지반",
    "floor": 0,
    "source": "옥외지반 근사",
    "z_m": 0.0,
    "normal_az": 180.0,
    "s1_total_h": 3.0,
    "s1_cont_h": 1.83,
    "s1_pass_a": false,
    "s1_pass_b": false,
    "s2_total_h": 4.0,
    "s2_cont_h": 3.17,
    "s2_pass_a": true,
    "s2_pass_b": true,
    "d_total_h": 1.0,
    "d_cont_h": 1.34,
    "change_cd": "new_ok",
    "변화": "신규 충족"
   }
  },
  {
   "type": "Feature",
   "geometry": {
    "type": "Point",
    "coordinates": [
     126.93447625,
     37.52256107
    ]
   },
   "properties": {
    "pid": "여의도여자고등학교 운동장-17",
    "school": "여의도여자고등학교",
    "jibun": "40-2",
    "kind": "운동장 지반",
    "dong": "여의도여자고등학교 운동장",
    "facade": "지반",
    "floor": 0,
    "source": "옥외지반 근사",
    "z_m": 0.0,
    "normal_az": 180.0,
    "s1_total_h": 3.0,
    "s1_cont_h": 1.5,
    "s1_pass_a": false,
    "s1_pass_b": false,
    "s2_total_h": 4.0,
    "s2_cont_h": 3.17,
    "s2_pass_a": true,
    "s2_pass_b": true,
    "d_total_h": 1.0,
    "d_cont_h": 1.67,
    "change_cd": "new_ok",
    "변화": "신규 충족"
   }
  },
  {
   "type": "Feature",
   "geometry": {
    "type": "Point",
    "coordinates": [
     126.93456675,
     37.52256112
    ]
   },
   "properties": {
    "pid": "여의도여자고등학교 운동장-18",
    "school": "여의도여자고등학교",
    "jibun": "40-2",
    "kind": "운동장 지반",
    "dong": "여의도여자고등학교 운동장",
    "facade": "지반",
    "floor": 0,
    "source": "옥외지반 근사",
    "z_m": 0.0,
    "normal_az": 180.0,
    "s1_total_h": 3.33,
    "s1_cont_h": 1.5,
    "s1_pass_a": false,
    "s1_pass_b": false,
    "s2_total_h": 4.17,
    "s2_cont_h": 3.5,
    "s2_pass_a": true,
    "s2_pass_b": true,
    "d_total_h": 0.84,
    "d_cont_h": 2.0,
    "change_cd": "new_ok",
    "변화": "신규 충족"
   }
  },
  {
   "type": "Feature",
   "geometry": {
    "type": "Point",
    "coordinates": [
     126.93465725,
     37.52256117
    ]
   },
   "properties": {
    "pid": "여의도여자고등학교 운동장-19",
    "school": "여의도여자고등학교",
    "jibun": "40-2",
    "kind": "운동장 지반",
    "dong": "여의도여자고등학교 운동장",
    "facade": "지반",
    "floor": 0,
    "source": "옥외지반 근사",
    "z_m": 0.0,
    "normal_az": 180.0,
    "s1_total_h": 3.33,
    "s1_cont_h": 1.33,
    "s1_pass_a": false,
    "s1_pass_b": false,
    "s2_total_h": 4.5,
    "s2_cont_h": 3.67,
    "s2_pass_a": true,
    "s2_pass_b": true,
    "d_total_h": 1.17,
    "d_cont_h": 2.34,
    "change_cd": "new_ok",
    "변화": "신규 충족"
   }
  },
  {
   "type": "Feature",
   "geometry": {
    "type": "Point",
    "coordinates": [
     126.93474775,
     37.52256122
    ]
   },
   "properties": {
    "pid": "여의도여자고등학교 운동장-20",
    "school": "여의도여자고등학교",
    "jibun": "40-2",
    "kind": "운동장 지반",
    "dong": "여의도여자고등학교 운동장",
    "facade": "지반",
    "floor": 0,
    "source": "옥외지반 근사",
    "z_m": 0.0,
    "normal_az": 180.0,
    "s1_total_h": 3.67,
    "s1_cont_h": 1.67,
    "s1_pass_a": false,
    "s1_pass_b": false,
    "s2_total_h": 4.67,
    "s2_cont_h": 3.83,
    "s2_pass_a": true,
    "s2_pass_b": true,
    "d_total_h": 1.0,
    "d_cont_h": 2.16,
    "change_cd": "new_ok",
    "변화": "신규 충족"
   }
  },
  {
   "type": "Feature",
   "geometry": {
    "type": "Point",
    "coordinates": [
     126.93483825,
     37.52256127
    ]
   },
   "properties": {
    "pid": "여의도여자고등학교 운동장-21",
    "school": "여의도여자고등학교",
    "jibun": "40-2",
    "kind": "운동장 지반",
    "dong": "여의도여자고등학교 운동장",
    "facade": "지반",
    "floor": 0,
    "source": "옥외지반 근사",
    "z_m": 0.0,
    "normal_az": 180.0,
    "s1_total_h": 3.5,
    "s1_cont_h": 1.83,
    "s1_pass_a": false,
    "s1_pass_b": false,
    "s2_total_h": 4.5,
    "s2_cont_h": 3.67,
    "s2_pass_a": true,
    "s2_pass_b": true,
    "d_total_h": 1.0,
    "d_cont_h": 1.84,
    "change_cd": "new_ok",
    "변화": "신규 충족"
   }
  },
  {
   "type": "Feature",
   "geometry": {
    "type": "Point",
    "coordinates": [
     126.93520024,
     37.52256147
    ]
   },
   "properties": {
    "pid": "여의도여자고등학교 운동장-25",
    "school": "여의도여자고등학교",
    "jibun": "40-2",
    "kind": "운동장 지반",
    "dong": "여의도여자고등학교 운동장",
    "facade": "지반",
    "floor": 0,
    "source": "옥외지반 근사",
    "z_m": 0.0,
    "normal_az": 180.0,
    "s1_total_h": 3.5,
    "s1_cont_h": 1.67,
    "s1_pass_a": false,
    "s1_pass_b": false,
    "s2_total_h": 3.67,
    "s2_cont_h": 3.33,
    "s2_pass_a": true,
    "s2_pass_b": true,
    "d_total_h": 0.17,
    "d_cont_h": 1.66,
    "change_cd": "new_ok",
    "변화": "신규 충족"
   }
  },
  {
   "type": "Feature",
   "geometry": {
    "type": "Point",
    "coordinates": [
     126.93420469,
     37.522633
    ]
   },
   "properties": {
    "pid": "여의도여자고등학교 운동장-30",
    "school": "여의도여자고등학교",
    "jibun": "40-2",
    "kind": "운동장 지반",
    "dong": "여의도여자고등학교 운동장",
    "facade": "지반",
    "floor": 0,
    "source": "옥외지반 근사",
    "z_m": 0.0,
    "normal_az": 180.0,
    "s1_total_h": 2.83,
    "s1_cont_h": 1.67,
    "s1_pass_a": false,
    "s1_pass_b": false,
    "s2_total_h": 3.67,
    "s2_cont_h": 2.67,
    "s2_pass_a": true,
    "s2_pass_b": true,
    "d_total_h": 0.84,
    "d_cont_h": 1.0,
    "change_cd": "new_ok",
    "변화": "신규 충족"
   }
  },
  {
   "type": "Feature",
   "geometry": {
    "type": "Point",
    "coordinates": [
     126.93447619,
     37.52263315
    ]
   },
   "properties": {
    "pid": "여의도여자고등학교 운동장-31",
    "school": "여의도여자고등학교",
    "jibun": "40-2",
    "kind": "운동장 지반",
    "dong": "여의도여자고등학교 운동장",
    "facade": "지반",
    "floor": 0,
    "source": "옥외지반 근사",
    "z_m": 0.0,
    "normal_az": 180.0,
    "s1_total_h": 3.17,
    "s1_cont_h": 1.5,
    "s1_pass_a": false,
    "s1_pass_b": false,
    "s2_total_h": 3.83,
    "s2_cont_h": 3.17,
    "s2_pass_a": true,
    "s2_pass_b": true,
    "d_total_h": 0.66,
    "d_cont_h": 1.67,
    "change_cd": "new_ok",
    "변화": "신규 충족"
   }
  },
  {
   "type": "Feature",
   "geometry": {
    "type": "Point",
    "coordinates": [
     126.93456669,
     37.5226332
    ]
   },
   "properties": {
    "pid": "여의도여자고등학교 운동장-32",
    "school": "여의도여자고등학교",
    "jibun": "40-2",
    "kind": "운동장 지반",
    "dong": "여의도여자고등학교 운동장",
    "facade": "지반",
    "floor": 0,
    "source": "옥외지반 근사",
    "z_m": 0.0,
    "normal_az": 180.0,
    "s1_total_h": 3.67,
    "s1_cont_h": 1.5,
    "s1_pass_a": false,
    "s1_pass_b": false,
    "s2_total_h": 4.33,
    "s2_cont_h": 3.5,
    "s2_pass_a": true,
    "s2_pass_b": true,
    "d_total_h": 0.66,
    "d_cont_h": 2.0,
    "change_cd": "new_ok",
    "변화": "신규 충족"
   }
  },
  {
   "type": "Feature",
   "geometry": {
    "type": "Point",
    "coordinates": [
     126.93465719,
     37.52263325
    ]
   },
   "properties": {
    "pid": "여의도여자고등학교 운동장-33",
    "school": "여의도여자고등학교",
    "jibun": "40-2",
    "kind": "운동장 지반",
    "dong": "여의도여자고등학교 운동장",
    "facade": "지반",
    "floor": 0,
    "source": "옥외지반 근사",
    "z_m": 0.0,
    "normal_az": 180.0,
    "s1_total_h": 3.67,
    "s1_cont_h": 1.5,
    "s1_pass_a": false,
    "s1_pass_b": false,
    "s2_total_h": 4.0,
    "s2_cont_h": 3.33,
    "s2_pass_a": true,
    "s2_pass_b": true,
    "d_total_h": 0.33,
    "d_cont_h": 1.83,
    "change_cd": "new_ok",
    "변화": "신규 충족"
   }
  },
  {
   "type": "Feature",
   "geometry": {
    "type": "Point",
    "coordinates": [
     126.93565268,
     37.5226338
    ]
   },
   "properties": {
    "pid": "여의도여자고등학교 운동장-41",
    "school": "여의도여자고등학교",
    "jibun": "40-2",
    "kind": "운동장 지반",
    "dong": "여의도여자고등학교 운동장",
    "facade": "지반",
    "floor": 0,
    "source": "옥외지반 근사",
    "z_m": 0.0,
    "normal_az": 180.0,
    "s1_total_h": 1.0,
    "s1_cont_h": 1.0,
    "s1_pass_a": false,
    "s1_pass_b": false,
    "s2_total_h": 3.0,
    "s2_cont_h": 2.5,
    "s2_pass_a": true,
    "s2_pass_b": true,
    "d_total_h": 2.0,
    "d_cont_h": 1.5,
    "change_cd": "new_ok",
    "변화": "신규 충족"
   }
  },
  {
   "type": "Feature",
   "geometry": {
    "type": "Point",
    "coordinates": [
     126.93411413,
     37.52270503
    ]
   },
   "properties": {
    "pid": "여의도여자고등학교 운동장-42",
    "school": "여의도여자고등학교",
    "jibun": "40-2",
    "kind": "운동장 지반",
    "dong": "여의도여자고등학교 운동장",
    "facade": "지반",
    "floor": 0,
    "source": "옥외지반 근사",
    "z_m": 0.0,
    "normal_az": 180.0,
    "s1_total_h": 2.67,
    "s1_cont_h": 1.5,
    "s1_pass_a": false,
    "s1_pass_b": false,
    "s2_total_h": 3.5,
    "s2_cont_h": 2.5,
    "s2_pass_a": true,
    "s2_pass_b": true,
    "d_total_h": 0.83,
    "d_cont_h": 1.0,
    "change_cd": "new_ok",
    "변화": "신규 충족"
   }
  },
  {
   "type": "Feature",
   "geometry": {
    "type": "Point",
    "coordinates": [
     126.93420463,
     37.52270508
    ]
   },
   "properties": {
    "pid": "여의도여자고등학교 운동장-43",
    "school": "여의도여자고등학교",
    "jibun": "40-2",
    "kind": "운동장 지반",
    "dong": "여의도여자고등학교 운동장",
    "facade": "지반",
    "floor": 0,
    "source": "옥외지반 근사",
    "z_m": 0.0,
    "normal_az": 180.0,
    "s1_total_h": 3.0,
    "s1_cont_h": 1.67,
    "s1_pass_a": false,
    "s1_pass_b": false,
    "s2_total_h": 3.33,
    "s2_cont_h": 2.0,
    "s2_pass_a": true,
    "s2_pass_b": true,
    "d_total_h": 0.33,
    "d_cont_h": 0.33,
    "change_cd": "new_ok",
    "변화": "신규 충족"
   }
  },
  {
   "type": "Feature",
   "geometry": {
    "type": "Point",
    "coordinates": [
     126.93529062,
     37.52270568
    ]
   },
   "properties": {
    "pid": "여의도여자고등학교 운동장-52",
    "school": "여의도여자고등학교",
    "jibun": "40-2",
    "kind": "운동장 지반",
    "dong": "여의도여자고등학교 운동장",
    "facade": "지반",
    "floor": 0,
    "source": "옥외지반 근사",
    "z_m": 0.0,
    "normal_az": 180.0,
    "s1_total_h": 3.5,
    "s1_cont_h": 1.67,
    "s1_pass_a": false,
    "s1_pass_b": false,
    "s2_total_h": 3.17,
    "s2_cont_h": 2.67,
    "s2_pass_a": true,
    "s2_pass_b": true,
    "d_total_h": -0.33,
    "d_cont_h": 1.0,
    "change_cd": "new_ok",
    "변화": "신규 충족"
   }
  },
  {
   "type": "Feature",
   "geometry": {
    "type": "Point",
    "coordinates": [
     126.93574311,
     37.52270593
    ]
   },
   "properties": {
    "pid": "여의도여자고등학교 운동장-53",
    "school": "여의도여자고등학교",
    "jibun": "40-2",
    "kind": "운동장 지반",
    "dong": "여의도여자고등학교 운동장",
    "facade": "지반",
    "floor": 0,
    "source": "옥외지반 근사",
    "z_m": 0.0,
    "normal_az": 180.0,
    "s1_total_h": 1.67,
    "s1_cont_h": 1.67,
    "s1_pass_a": false,
    "s1_pass_b": false,
    "s2_total_h": 3.5,
    "s2_cont_h": 3.33,
    "s2_pass_a": true,
    "s2_pass_b": true,
    "d_total_h": 1.83,
    "d_cont_h": 1.66,
    "change_cd": "new_ok",
    "변화": "신규 충족"
   }
  },
  {
   "type": "Feature",
   "geometry": {
    "type": "Point",
    "coordinates": [
     126.93520006,
     37.52277771
    ]
   },
   "properties": {
    "pid": "여의도여자고등학교 운동장-64",
    "school": "여의도여자고등학교",
    "jibun": "40-2",
    "kind": "운동장 지반",
    "dong": "여의도여자고등학교 운동장",
    "facade": "지반",
    "floor": 0,
    "source": "옥외지반 근사",
    "z_m": 0.0,
    "normal_az": 180.0,
    "s1_total_h": 3.67,
    "s1_cont_h": 1.5,
    "s1_pass_a": false,
    "s1_pass_b": false,
    "s2_total_h": 3.17,
    "s2_cont_h": 2.5,
    "s2_pass_a": true,
    "s2_pass_b": true,
    "d_total_h": -0.5,
    "d_cont_h": 1.0,
    "change_cd": "new_ok",
    "변화": "신규 충족"
   }
  },
  {
   "type": "Feature",
   "geometry": {
    "type": "Point",
    "coordinates": [
     126.93574299,
     37.52285009
    ]
   },
   "properties": {
    "pid": "여의도여자고등학교 운동장-80",
    "school": "여의도여자고등학교",
    "jibun": "40-2",
    "kind": "운동장 지반",
    "dong": "여의도여자고등학교 운동장",
    "facade": "지반",
    "floor": 0,
    "source": "옥외지반 근사",
    "z_m": 0.0,
    "normal_az": 180.0,
    "s1_total_h": 1.83,
    "s1_cont_h": 1.83,
    "s1_pass_a": false,
    "s1_pass_b": false,
    "s2_total_h": 2.83,
    "s2_cont_h": 2.83,
    "s2_pass_a": true,
    "s2_pass_b": true,
    "d_total_h": 1.0,
    "d_cont_h": 1.0,
    "change_cd": "new_ok",
    "변화": "신규 충족"
   }
  },
  {
   "type": "Feature",
   "geometry": {
    "type": "Point",
    "coordinates": [
     126.93637679,
     37.52249003
    ]
   },
   "properties": {
    "pid": "여의도초등학교 운동장-24",
    "school": "여의도초등학교",
    "jibun": "40-3",
    "kind": "운동장 지반",
    "dong": "여의도초등학교 운동장",
    "facade": "지반",
    "floor": 0,
    "source": "옥외지반 근사",
    "z_m": 0.0,
    "normal_az": 180.0,
    "s1_total_h": 1.83,
    "s1_cont_h": 1.83,
    "s1_pass_a": false,
    "s1_pass_b": false,
    "s2_total_h": 2.67,
    "s2_cont_h": 2.67,
    "s2_pass_a": true,
    "s2_pass_b": true,
    "d_total_h": 0.84,
    "d_cont_h": 0.84,
    "change_cd": "new_ok",
    "변화": "신규 충족"
   }
  },
  {
   "type": "Feature",
   "geometry": {
    "type": "Point",
    "coordinates": [
     126.93637673,
     37.52256211
    ]
   },
   "properties": {
    "pid": "여의도초등학교 운동장-32",
    "school": "여의도초등학교",
    "jibun": "40-3",
    "kind": "운동장 지반",
    "dong": "여의도초등학교 운동장",
    "facade": "지반",
    "floor": 0,
    "source": "옥외지반 근사",
    "z_m": 0.0,
    "normal_az": 180.0,
    "s1_total_h": 1.5,
    "s1_cont_h": 1.5,
    "s1_pass_a": false,
    "s1_pass_b": false,
    "s2_total_h": 2.33,
    "s2_cont_h": 2.33,
    "s2_pass_a": true,
    "s2_pass_b": true,
    "d_total_h": 0.83,
    "d_cont_h": 0.83,
    "change_cd": "new_ok",
    "변화": "신규 충족"
   }
  },
  {
   "type": "Feature",
   "geometry": {
    "type": "Point",
    "coordinates": [
     126.93637667,
     37.52263419
    ]
   },
   "properties": {
    "pid": "여의도초등학교 운동장-44",
    "school": "여의도초등학교",
    "jibun": "40-3",
    "kind": "운동장 지반",
    "dong": "여의도초등학교 운동장",
    "facade": "지반",
    "floor": 0,
    "source": "옥외지반 근사",
    "z_m": 0.0,
    "normal_az": 180.0,
    "s1_total_h": 1.17,
    "s1_cont_h": 1.17,
    "s1_pass_a": false,
    "s1_pass_b": false,
    "s2_total_h": 2.0,
    "s2_cont_h": 2.0,
    "s2_pass_a": true,
    "s2_pass_b": true,
    "d_total_h": 0.83,
    "d_cont_h": 0.83,
    "change_cd": "new_ok",
    "변화": "신규 충족"
   }
  },
  {
   "type": "Feature",
   "geometry": {
    "type": "Point",
    "coordinates": [
     126.93619561,
     37.52270617
    ]
   },
   "properties": {
    "pid": "여의도초등학교 운동장-54",
    "school": "여의도초등학교",
    "jibun": "40-3",
    "kind": "운동장 지반",
    "dong": "여의도초등학교 운동장",
    "facade": "지반",
    "floor": 0,
    "source": "옥외지반 근사",
    "z_m": 0.0,
    "normal_az": 180.0,
    "s1_total_h": 1.83,
    "s1_cont_h": 1.83,
    "s1_pass_a": false,
    "s1_pass_b": false,
    "s2_total_h": 3.0,
    "s2_cont_h": 3.0,
    "s2_pass_a": true,
    "s2_pass_b": true,
    "d_total_h": 1.17,
    "d_cont_h": 1.17,
    "change_cd": "new_ok",
    "변화": "신규 충족"
   }
  },
  {
   "type": "Feature",
   "geometry": {
    "type": "Point",
    "coordinates": [
     126.93628611,
     37.52270622
    ]
   },
   "properties": {
    "pid": "여의도초등학교 운동장-55",
    "school": "여의도초등학교",
    "jibun": "40-3",
    "kind": "운동장 지반",
    "dong": "여의도초등학교 운동장",
    "facade": "지반",
    "floor": 0,
    "source": "옥외지반 근사",
    "z_m": 0.0,
    "normal_az": 180.0,
    "s1_total_h": 1.67,
    "s1_cont_h": 1.67,
    "s1_pass_a": false,
    "s1_pass_b": false,
    "s2_total_h": 2.67,
    "s2_cont_h": 2.67,
    "s2_pass_a": true,
    "s2_pass_b": true,
    "d_total_h": 1.0,
    "d_cont_h": 1.0,
    "change_cd": "new_ok",
    "변화": "신규 충족"
   }
  },
  {
   "type": "Feature",
   "geometry": {
    "type": "Point",
    "coordinates": [
     126.93637661,
     37.52270627
    ]
   },
   "properties": {
    "pid": "여의도초등학교 운동장-56",
    "school": "여의도초등학교",
    "jibun": "40-3",
    "kind": "운동장 지반",
    "dong": "여의도초등학교 운동장",
    "facade": "지반",
    "floor": 0,
    "source": "옥외지반 근사",
    "z_m": 0.0,
    "normal_az": 180.0,
    "s1_total_h": 1.33,
    "s1_cont_h": 1.33,
    "s1_pass_a": false,
    "s1_pass_b": false,
    "s2_total_h": 2.17,
    "s2_cont_h": 2.17,
    "s2_pass_a": true,
    "s2_pass_b": true,
    "d_total_h": 0.84,
    "d_cont_h": 0.84,
    "change_cd": "new_ok",
    "변화": "신규 충족"
   }
  }
 ]
}