{
 "type": "FeatureCollection",
 "features": [
  {
   "type": "Feature",
   "geometry": {
    "type": "Point",
    "coordinates": [
     126.93568568,
     37.52342359
    ]
   },
   "properties": {
    "pid": "체육관동(정보화센타) 3층-2",
    "school": "여의도중학교",
    "jibun": "40-1",
    "kind": "교사동 창면",
    "dong": "체육관동(정보화센타)",
    "facade": "체육관동(정보화센타)",
    "floor": 3,
    "source": "도면기준",
    "z_m": 9.55,
    "normal_az": 246.2,
    "s1_total_h": 2.33,
    "s1_cont_h": 2.33,
    "s1_pass_a": true,
    "s1_pass_b": true,
    "s2_total_h": 1.33,
    "s2_cont_h": 1.0,
    "s2_pass_a": false,
    "s2_pass_b": false,
    "d_total_h": -1.0,
    "d_cont_h": -1.33,
    "change_cd": "new_fail",
    "변화": "신규 불충족"
   }
  },
  {
   "type": "Feature",
   "geometry": {
    "type": "Point",
    "coordinates": [
     126.93568568,
     37.52342359
    ]
   },
   "properties": {
    "pid": "체육관동(정보화센타) 4층-2",
    "school": "여의도중학교",
    "jibun": "40-1",
    "kind": "교사동 창면",
    "dong": "체육관동(정보화센타)",
    "facade": "체육관동(정보화센타)",
    "floor": 4,
    "source": "도면기준",
    "z_m": 13.15,
    "normal_az": 246.2,
    "s1_total_h": 3.5,
    "s1_cont_h": 2.83,
    "s1_pass_a": true,
    "s1_pass_b": true,
    "s2_total_h": 2.5,
    "s2_cont_h": 1.0,
    "s2_pass_a": false,
    "s2_pass_b": false,
    "d_total_h": -1.0,
    "d_cont_h": -1.83,
    "change_cd": "new_fail",
    "변화": "신규 불충족"
   }
  },
  {
   "type": "Feature",
   "geometry": {
    "type": "Point",
    "coordinates": [
     126.93580092,
     37.52333778
    ]
   },
   "properties": {
    "pid": "체육관동(정보화센타) 3층-5",
    "school": "여의도중학교",
    "jibun": "40-1",
    "kind": "교사동 창면",
    "dong": "체육관동(정보화센타)",
    "facade": "체육관동(정보화센타)",
    "floor": 3,
    "source": "도면기준",
    "z_m": 9.55,
    "normal_az": 200.4,
    "s1_total_h": 3.33,
    "s1_cont_h": 3.33,
    "s1_pass_a": true,
    "s1_pass_b": true,
    "s2_total_h": 2.17,
    "s2_cont_h": 1.67,
    "s2_pass_a": false,
    "s2_pass_b": false,
    "d_total_h": -1.16,
    "d_cont_h": -1.66,
    "change_cd": "new_fail",
    "변화": "신규 불충족"
   }
  },
  {
   "type": "Feature",
   "geometry": {
    "type": "Point",
    "coordinates": [
     126.93584247,
     37.523334
    ]
   },
   "properties": {
    "pid": "체육관동(정보화센타) 3층-6",
    "school": "여의도중학교",
    "jibun": "40-1",
    "kind": "교사동 창면",
    "dong": "체육관동(정보화센타)",
    "facade": "체육관동(정보화센타)",
    "floor": 3,
    "source": "도면기준",
    "z_m": 9.55,
    "normal_az": 185.7,
    "s1_total_h": 2.83,
    "s1_cont_h": 2.83,
    "s1_pass_a": true,
    "s1_pass_b": true,
    "s2_total_h": 1.67,
    "s2_cont_h": 1.0,
    "s2_pass_a": false,
    "s2_pass_b": false,
    "d_total_h": -1.16,
    "d_cont_h": -1.83,
    "change_cd": "new_fail",
    "변화": "신규 불충족"
   }
  },
  {
   "type": "Feature",
   "geometry": {
    "type": "Point",
    "coordinates": [
     126.93584247,
     37.523334
    ]
   },
   "properties": {
    "pid": "체육관동(정보화센타) 4층-6",
    "school": "여의도중학교",
    "jibun": "40-1",
    "kind": "교사동 창면",
    "dong": "체육관동(정보화센타)",
    "facade": "체육관동(정보화센타)",
    "floor": 4,
    "source": "도면기준",
    "z_m": 13.15,
    "normal_az": 185.7,
    "s1_total_h": 3.83,
    "s1_cont_h": 3.33,
    "s1_pass_a": true,
    "s1_pass_b": true,
    "s2_total_h": 2.67,
    "s2_cont_h": 1.5,
    "s2_pass_a": false,
    "s2_pass_b": false,
    "d_total_h": -1.16,
    "d_cont_h": -1.83,
    "change_cd": "new_fail",
    "변화": "신규 불충족"
   }
  },
  {
   "type": "Feature",
   "geometry": {
    "type": "Point",
    "coordinates": [
     126.93563329,
     37.52303771
    ]
   },
   "properties": {
    "pid": "체육관동(정보화센타) 2층-9",
    "school": "여의도중학교",
    "jibun": "40-1",
    "kind": "교사동 창면",
    "dong": "체육관동(정보화센타)",
    "facade": "체육관동(정보화센타)",
    "floor": 2,
    "source": "도면기준",
    "z_m": 5.95,
    "normal_az": 230.3,
    "s1_total_h": 3.83,
    "s1_cont_h": 3.17,
    "s1_pass_a": true,
    "s1_pass_b": true,
    "s2_total_h": 2.5,
    "s2_cont_h": 1.83,
    "s2_pass_a": false,
    "s2_pass_b": false,
    "d_total_h": -1.33,
    "d_cont_h": -1.34,
    "change_cd": "new_fail",
    "변화": "신규 불충족"
   }
  },
  {
   "type": "Feature",
   "geometry": {
    "type": "Point",
    "coordinates": [
     126.93563329,
     37.52303771
    ]
   },
   "properties": {
    "pid": "체육관동(정보화센타) 3층-9",
    "school": "여의도중학교",
    "jibun": "40-1",
    "kind": "교사동 창면",
    "dong": "체육관동(정보화센타)",
    "facade": "체육관동(정보화센타)",
    "floor": 3,
    "source": "도면기준",
    "z_m": 9.55,
    "normal_az": 230.3,
    "s1_total_h": 4.33,
    "s1_cont_h": 4.33,
    "s1_pass_a": true,
    "s1_pass_b": true,
    "s2_total_h": 2.83,
    "s2_cont_h": 1.83,
    "s2_pass_a": false,
    "s2_pass_b": false,
    "d_total_h": -1.5,
    "d_cont_h": -2.5,
    "change_cd": "new_fail",
    "변화": "신규 불충족"
   }
  },
  {
   "type": "Feature",
   "geometry": {
    "type": "Point",
    "coordinates": [
     126.93563329,
     37.52303771
    ]
   },
   "properties": {
    "pid": "체육관동(정보화센타) 4층-9",
    "school": "여의도중학교",
    "jibun": "40-1",
    "kind": "교사동 창면",
    "dong": "체육관동(정보화센타)",
    "facade": "체육관동(정보화센타)",
    "floor": 4,
    "source": "도면기준",
    "z_m": 13.15,
    "normal_az": 230.3,
    "s1_total_h": 4.5,
    "s1_cont_h": 4.33,
    "s1_pass_a": true,
    "s1_pass_b": true,
    "s2_total_h": 3.0,
    "s2_cont_h": 1.83,
    "s2_pass_a": false,
    "s2_pass_b": false,
    "d_total_h": -1.5,
    "d_cont_h": -2.5,
    "change_cd": "new_fail",
    "변화": "신규 불충족"
   }
  },
  {
   "type": "Feature",
   "geometry": {
    "type": "Point",
    "coordinates": [
     126.93565931,
     37.52301275
    ]
   },
   "properties": {
    "pid": "체육관동(정보화센타) 3층-10",
    "school": "여의도중학교",
    "jibun": "40-1",
    "kind": "교사동 창면",
    "dong": "체육관동(정보화센타)",
    "facade": "체육관동(정보화센타)",
    "floor": 3,
    "source": "도면기준",
    "z_m": 9.55,
    "normal_az": 230.3,
    "s1_total_h": 4.33,
    "s1_cont_h": 4.33,
    "s1_pass_a": true,
    "s1_pass_b": true,
    "s2_total_h": 2.67,
    "s2_cont_h": 1.83,
    "s2_pass_a": false,
    "s2_pass_b": false,
    "d_total_h": -1.66,
    "d_cont_h": -2.5,
    "change_cd": "new_fail",
    "변화": "신규 불충족"
   }
  },
  {
   "type": "Feature",
   "geometry": {
    "type": "Point",
    "coordinates": [
     126.93565931,
     37.52301275
    ]
   },
   "properties": {
    "pid": "체육관동(정보화센타) 4층-10",
    "school": "여의도중학교",
    "jibun": "40-1",
    "kind": "교사동 창면",
    "dong": "체육관동(정보화센타)",
    "facade": "체육관동(정보화센타)",
    "floor": 4,
    "source": "도면기준",
    "z_m": 13.15,
    "normal_az": 230.3,
    "s1_total_h": 4.33,
    "s1_cont_h": 4.33,
    "s1_pass_a": true,
    "s1_pass_b": true,
    "s2_total_h": 2.67,
    "s2_cont_h": 1.83,
    "s2_pass_a": false,
    "s2_pass_b": false,
    "d_total_h": -1.66,
    "d_cont_h": -2.5,
    "change_cd": "new_fail",
    "변화": "신규 불충족"
   }
  },
  {
   "type": "Feature",
   "geometry": {
    "type": "Point",
    "coordinates": [
     126.93540066,
     37.52326256
    ]
   },
   "properties": {
    "pid": "체육관동 부속(원형부) 4층-2",
    "school": "여의도중학교",
    "jibun": "40-1",
    "kind": "교사동 창면",
    "dong": "체육관동 부속(원형부)",
    "facade": "체육관동 부속(원형부)",
    "floor": 4,
    "source": "도면기준",
    "z_m": 13.15,
    "normal_az": 249.6,
    "s1_total_h": 2.33,
    "s1_cont_h": 2.33,
    "s1_pass_a": true,
    "s1_pass_b": true,
    "s2_total_h": 1.5,
    "s2_cont_h": 1.5,
    "s2_pass_a": false,
    "s2_pass_b": false,
    "d_total_h": -0.83,
    "d_cont_h": -0.83,
    "change_cd": "new_fail",
    "변화": "신규 불충족"
   }
  },
  {
   "type": "Feature",
   "geometry": {
    "type": "Point",
    "coordinates": [
     126.93542711,
     37.52321826
    ]
   },
   "properties": {
    "pid": "체육관동 부속(원형부) 3층-3",
    "school": "여의도중학교",
    "jibun": "40-1",
    "kind": "교사동 창면",
    "dong": "체육관동 부속(원형부)",
    "facade": "체육관동 부속(원형부)",
    "floor": 3,
    "source": "도면기준",
    "z_m": 9.55,
    "normal_az": 241.3,
    "s1_total_h": 2.17,
    "s1_cont_h": 2.17,
    "s1_pass_a": true,
    "s1_pass_b": true,
    "s2_total_h": 1.0,
    "s2_cont_h": 0.5,
    "s2_pass_a": false,
    "s2_pass_b": false,
    "d_total_h": -1.17,
    "d_cont_h": -1.67,
    "change_cd": "new_fail",
    "변화": "신규 불충족"
   }
  },
  {
   "type": "Feature",
   "geometry": {
    "type": "Point",
    "coordinates": [
     126.93542711,
     37.52321826
    ]
   },
   "properties": {
    "pid": "체육관동 부속(원형부) 4층-3",
    "school": "여의도중학교",
    "jibun": "40-1",
    "kind": "교사동 창면",
    "dong": "체육관동 부속(원형부)",
    "facade": "체육관동 부속(원형부)",
    "floor": 4,
    "source": "도면기준",
    "z_m": 13.15,
    "normal_az": 241.3,
    "s1_total_h": 3.0,
    "s1_cont_h": 3.0,
    "s1_pass_a": true,
    "s1_pass_b": true,
    "s2_total_h": 1.83,
    "s2_cont_h": 1.33,
    "s2_pass_a": false,
    "s2_pass_b": false,
    "d_total_h": -1.17,
    "d_cont_h": -1.67,
    "change_cd": "new_fail",
    "변화": "신규 불충족"
   }
  },
  {
   "type": "Feature",
   "geometry": {
    "type": "Point",
    "coordinates": [
     126.93545077,
     37.52319121
    ]
   },
   "properties": {
    "pid": "체육관동 부속(원형부) 1층-4",
    "school": "여의도중학교",
    "jibun": "40-1",
    "kind": "교사동 창면",
    "dong": "체육관동 부속(원형부)",
    "facade": "체육관동 부속(원형부)",
    "floor": 1,
    "source": "도면기준",
    "z_m": 2.05,
    "normal_az": 230.9,
    "s1_total_h": 2.33,
    "s1_cont_h": 2.33,
    "s1_pass_a": true,
    "s1_pass_b": true,
    "s2_total_h": 1.33,
    "s2_cont_h": 1.33,
    "s2_pass_a": false,
    "s2_pass_b": false,
    "d_total_h": -1.0,
    "d_cont_h": -1.0,
    "change_cd": "new_fail",
    "변화": "신규 불충족"
   }
  },
  {
   "type": "Feature",
   "geometry": {
    "type": "Point",
    "coordinates": [
     126.93545077,
     37.52319121
    ]
   },
   "properties": {
    "pid": "체육관동 부속(원형부) 2층-4",
    "school": "여의도중학교",
    "jibun": "40-1",
    "kind": "교사동 창면",
    "dong": "체육관동 부속(원형부)",
    "facade": "체육관동 부속(원형부)",
    "floor": 2,
    "source": "도면기준",
    "z_m": 5.95,
    "normal_az": 230.9,
    "s1_total_h": 2.67,
    "s1_cont_h": 2.67,
    "s1_pass_a": true,
    "s1_pass_b": true,
    "s2_total_h": 1.5,
    "s2_cont_h": 1.33,
    "s2_pass_a": false,
    "s2_pass_b": false,
    "d_total_h": -1.17,
    "d_cont_h": -1.34,
    "change_cd": "new_fail",
    "변화": "신규 불충족"
   }
  },
  {
   "type": "Feature",
   "geometry": {
    "type": "Point",
    "coordinates": [
     126.93545077,
     37.52319121
    ]
   },
   "properties": {
    "pid": "체육관동 부속(원형부) 3층-4",
    "school": "여의도중학교",
    "jibun": "40-1",
    "kind": "교사동 창면",
    "dong": "체육관동 부속(원형부)",
    "facade": "체육관동 부속(원형부)",
    "floor": 3,
    "source": "도면기준",
    "z_m": 9.55,
    "normal_az": 230.9,
    "s1_total_h": 3.0,
    "s1_cont_h": 3.0,
    "s1_pass_a": true,
    "s1_pass_b": true,
    "s2_total_h": 1.83,
    "s2_cont_h": 1.33,
    "s2_pass_a": false,
    "s2_pass_b": false,
    "d_total_h": -1.17,
    "d_cont_h": -1.67,
    "change_cd": "new_fail",
    "변화": "신규 불충족"
   }
  },
  {
   "type": "Feature",
   "geometry": {
    "type": "Point",
    "coordinates": [
     126.93545077,
     37.52319121
    ]
   },
   "properties": {
    "pid": "체육관동 부속(원형부) 4층-4",
    "school": "여의도중학교",
    "jibun": "40-1",
    "kind": "교사동 창면",
    "dong": "체육관동 부속(원형부)",
    "facade": "체육관동 부속(원형부)",
    "floor": 4,
    "source": "도면기준",
    "z_m": 13.15,
    "normal_az": 230.9,
    "s1_total_h": 3.83,
    "s1_cont_h": 3.83,
    "s1_pass_a": true,
    "s1_pass_b": true,
    "s2_total_h": 2.67,
    "s2_cont_h": 1.33,
    "s2_pass_a": false,
    "s2_pass_b": false,
    "d_total_h": -1.16,
    "d_cont_h": -2.5,
    "change_cd": "new_fail",
    "변화": "신규 불충족"
   }
  },
  {
   "type": "Feature",
   "geometry": {
    "type": "Point",
    "coordinates": [
     126.93548937,
     37.52315351
    ]
   },
   "properties": {
    "pid": "체육관동 부속(원형부) 1층-5",
    "school": "여의도중학교",
    "jibun": "40-1",
    "kind": "교사동 창면",
    "dong": "체육관동 부속(원형부)",
    "facade": "체육관동 부속(원형부)",
    "floor": 1,
    "source": "도면기준",
    "z_m": 2.05,
    "normal_az": 230.9,
    "s1_total_h": 2.33,
    "s1_cont_h": 2.33,
    "s1_pass_a": true,
    "s1_pass_b": true,
    "s2_total_h": 1.5,
    "s2_cont_h": 1.5,
    "s2_pass_a": false,
    "s2_pass_b": false,
    "d_total_h": -0.83,
    "d_cont_h": -0.83,
    "change_cd": "new_fail",
    "변화": "신규 불충족"
   }
  },
  {
   "type": "Feature",
   "geometry": {
    "type": "Point",
    "coordinates": [
     126.93548937,
     37.52315351
    ]
   },
   "properties": {
    "pid": "체육관동 부속(원형부) 2층-5",
    "school": "여의도중학교",
    "jibun": "40-1",
    "kind": "교사동 창면",
    "dong": "체육관동 부속(원형부)",
    "facade": "체육관동 부속(원형부)",
    "floor": 2,
    "source": "도면기준",
    "z_m": 5.95,
    "normal_az": 230.9,
    "s1_total_h": 3.0,
    "s1_cont_h": 3.0,
    "s1_pass_a": true,
    "s1_pass_b": true,
    "s2_total_h": 1.83,
    "s2_cont_h": 1.5,
    "s2_pass_a": false,
    "s2_pass_b": false,
    "d_total_h": -1.17,
    "d_cont_h": -1.5,
    "change_cd": "new_fail",
    "변화": "신규 불충족"
   }
  },
  {
   "type": "Feature",
   "geometry": {
    "type": "Point",
    "coordinates": [
     126.93548937,
     37.52315351
    ]
   },
   "properties": {
    "pid": "체육관동 부속(원형부) 3층-5",
    "school": "여의도중학교",
    "jibun": "40-1",
    "kind": "교사동 창면",
    "dong": "체육관동 부속(원형부)",
    "facade": "체육관동 부속(원형부)",
    "floor": 3,
    "source": "도면기준",
    "z_m": 9.55,
    "normal_az": 230.9,
    "s1_total_h": 3.5,
    "s1_cont_h": 3.5,
    "s1_pass_a": true,
    "s1_pass_b": true,
    "s2_total_h": 2.33,
    "s2_cont_h": 1.5,
    "s2_pass_a": false,
    "s2_pass_b": false,
    "d_total_h": -1.17,
    "d_cont_h": -2.0,
    "change_cd": "new_fail",
    "변화": "신규 불충족"
   }
  },
  {
   "type": "Feature",
   "geometry": {
    "type": "Point",
    "coordinates": [
     126.93548937,
     37.52315351
    ]
   },
   "properties": {
    "pid": "체육관동 부속(원형부) 4층-5",
    "school": "여의도중학교",
    "jibun": "40-1",
    "kind": "교사동 창면",
    "dong": "체육관동 부속(원형부)",
    "facade": "체육관동 부속(원형부)",
    "floor": 4,
    "source": "도면기준",
    "z_m": 13.15,
    "normal_az": 230.9,
    "s1_total_h": 4.0,
    "s1_cont_h": 4.0,
    "s1_pass_a": true,
    "s1_pass_b": true,
    "s2_total_h": 2.83,
    "s2_cont_h": 1.5,
    "s2_pass_a": false,
    "s2_pass_b": false,
    "d_total_h": -1.17,
    "d_cont_h": -2.5,
    "change_cd": "new_fail",
    "변화": "신규 불충족"
   }
  },
  {
   "type": "Feature",
   "geometry": {
    "type": "Point",
    "coordinates": [
     126.9355151,
     37.52312836
    ]
   },
   "properties": {
    "pid": "체육관동 부속(원형부) 1층-6",
    "school": "여의도중학교",
    "jibun": "40-1",
    "kind": "교사동 창면",
    "dong": "체육관동 부속(원형부)",
    "facade": "체육관동 부속(원형부)",
    "floor": 1,
    "source": "도면기준",
    "z_m": 2.05,
    "normal_az": 230.9,
    "s1_total_h": 2.67,
    "s1_cont_h": 2.67,
    "s1_pass_a": true,
    "s1_pass_b": true,
    "s2_total_h": 1.5,
    "s2_cont_h": 1.5,
    "s2_pass_a": false,
    "s2_pass_b": false,
    "d_total_h": -1.17,
    "d_cont_h": -1.17,
    "change_cd": "new_fail",
    "변화": "신규 불충족"
   }
  },
  {
   "type": "Feature",
   "geometry": {
    "type": "Point",
    "coordinates": [
     126.9355151,
     37.52312836
    ]
   },
   "properties": {
    "pid": "체육관동 부속(원형부) 2층-6",
    "school": "여의도중학교",
    "jibun": "40-1",
    "kind": "교사동 창면",
    "dong": "체육관동 부속(원형부)",
    "facade": "체육관동 부속(원형부)",
    "floor": 2,
    "source": "도면기준",
    "z_m": 5.95,
    "normal_az": 230.9,
    "s1_total_h": 3.0,
    "s1_cont_h": 3.0,
    "s1_pass_a": true,
    "s1_pass_b": true,
    "s2_total_h": 1.67,
    "s2_cont_h": 1.5,
    "s2_pass_a": false,
    "s2_pass_b": false,
    "d_total_h": -1.33,
    "d_cont_h": -1.5,
    "change_cd": "new_fail",
    "변화": "신규 불충족"
   }
  },
  {
   "type": "Feature",
   "geometry": {
    "type": "Point",
    "coordinates": [
     126.9355151,
     37.52312836
    ]
   },
   "properties": {
    "pid": "체육관동 부속(원형부) 3층-6",
    "school": "여의도중학교",
    "jibun": "40-1",
    "kind": "교사동 창면",
    "dong": "체육관동 부속(원형부)",
    "facade": "체육관동 부속(원형부)",
    "floor": 3,
    "source": "도면기준",
    "z_m": 9.55,
    "normal_az": 230.9,
    "s1_total_h": 3.83,
    "s1_cont_h": 3.83,
    "s1_pass_a": true,
    "s1_pass_b": true,
    "s2_total_h": 2.5,
    "s2_cont_h": 1.5,
    "s2_pass_a": false,
    "s2_pass_b": false,
    "d_total_h": -1.33,
    "d_cont_h": -2.33,
    "change_cd": "new_fail",
    "변화": "신규 불충족"
   }
  },
  {
   "type": "Feature",
   "geometry": {
    "type": "Point",
    "coordinates": [
     126.9355151,
     37.52312836
    ]
   },
   "properties": {
    "pid": "체육관동 부속(원형부) 4층-6",
    "school": "여의도중학교",
    "jibun": "40-1",
    "kind": "교사동 창면",
    "dong": "체육관동 부속(원형부)",
    "facade": "체육관동 부속(원형부)",
    "floor": 4,
    "source": "도면기준",
    "z_m": 13.15,
    "normal_az": 230.9,
    "s1_total_h": 4.0,
    "s1_cont_h": 4.0,
    "s1_pass_a": true,
    "s1_pass_b": true,
    "s2_total_h": 2.67,
    "s2_cont_h": 1.5,
    "s2_pass_a": false,
    "s2_pass_b": false,
    "d_total_h": -1.33,
    "d_cont_h": -2.5,
    "change_cd": "new_fail",
    "변화": "신규 불충족"
   }
  },
  {
   "type": "Feature",
   "geometry": {
    "type": "Point",
    "coordinates": [
     126.9355537,
     37.52309065
    ]
   },
   "properties": {
    "pid": "체육관동 부속(원형부) 2층-7",
    "school": "여의도중학교",
    "jibun": "40-1",
    "kind": "교사동 창면",
    "dong": "체육관동 부속(원형부)",
    "facade": "체육관동 부속(원형부)",
    "floor": 2,
    "source": "도면기준",
    "z_m": 5.95,
    "normal_az": 230.9,
    "s1_total_h": 3.17,
    "s1_cont_h": 3.17,
    "s1_pass_a": true,
    "s1_pass_b": true,
    "s2_total_h": 1.83,
    "s2_cont_h": 1.67,
    "s2_pass_a": false,
    "s2_pass_b": false,
    "d_total_h": -1.34,
    "d_cont_h": -1.5,
    "change_cd": "new_fail",
    "변화": "신규 불충족"
   }
  },
  {
   "type": "Feature",
   "geometry": {
    "type": "Point",
    "coordinates": [
     126.9355537,
     37.52309065
    ]
   },
   "properties": {
    "pid": "체육관동 부속(원형부) 3층-7",
    "school": "여의도중학교",
    "jibun": "40-1",
    "kind": "교사동 창면",
    "dong": "체육관동 부속(원형부)",
    "facade": "체육관동 부속(원형부)",
    "floor": 3,
    "source": "도면기준",
    "z_m": 9.55,
    "normal_az": 230.9,
    "s1_total_h": 3.83,
    "s1_cont_h": 3.83,
    "s1_pass_a": true,
    "s1_pass_b": true,
    "s2_total_h": 2.5,
    "s2_cont_h": 1.67,
    "s2_pass_a": false,
    "s2_pass_b": false,
    "d_total_h": -1.33,
    "d_cont_h": -2.16,
    "change_cd": "new_fail",
    "변화": "신규 불충족"
   }
  },
  {
   "type": "Feature",
   "geometry": {
    "type": "Point",
    "coordinates": [
     126.9355537,
     37.52309065
    ]
   },
   "properties": {
    "pid": "체육관동 부속(원형부) 4층-7",
    "school": "여의도중학교",
    "jibun": "40-1",
    "kind": "교사동 창면",
    "dong": "체육관동 부속(원형부)",
    "facade": "체육관동 부속(원형부)",
    "floor": 4,
    "source": "도면기준",
    "z_m": 13.15,
    "normal_az": 230.9,
    "s1_total_h": 4.17,
    "s1_cont_h": 4.17,
    "s1_pass_a": true,
    "s1_pass_b": true,
    "s2_total_h": 2.83,
    "s2_cont_h": 1.67,
    "s2_pass_a": false,
    "s2_pass_b": false,
    "d_total_h": -1.34,
    "d_cont_h": -2.5,
    "change_cd": "new_fail",
    "변화": "신규 불충족"
   }
  },
  {
   "type": "Feature",
   "geometry": {
    "type": "Point",
    "coordinates": [
     126.93557943,
     37.52306551
    ]
   },
   "properties": {
    "pid": "체육관동 부속(원형부) 2층-8",
    "school": "여의도중학교",
    "jibun": "40-1",
    "kind": "교사동 창면",
    "dong": "체육관동 부속(원형부)",
    "facade": "체육관동 부속(원형부)",
    "floor": 2,
    "source": "도면기준",
    "z_m": 5.95,
    "normal_az": 230.9,
    "s1_total_h": 3.67,
    "s1_cont_h": 3.67,
    "s1_pass_a": true,
    "s1_pass_b": true,
    "s2_total_h": 2.33,
    "s2_cont_h": 1.67,
    "s2_pass_a": false,
    "s2_pass_b": false,
    "d_total_h": -1.34,
    "d_cont_h": -2.0,
    "change_cd": "new_fail",
    "변화": "신규 불충족"
   }
  },
  {
   "type": "Feature",
   "geometry": {
    "type": "Point",
    "coordinates": [
     126.93557943,
     37.52306551
    ]
   },
   "properties": {
    "pid": "체육관동 부속(원형부) 3층-8",
    "school": "여의도중학교",
    "jibun": "40-1",
    "kind": "교사동 창면",
    "dong": "체육관동 부속(원형부)",
    "facade": "체육관동 부속(원형부)",
    "floor": 3,
    "source": "도면기준",
    "z_m": 9.55,
    "normal_az": 230.9,
    "s1_total_h": 4.0,
    "s1_cont_h": 4.0,
    "s1_pass_a": true,
    "s1_pass_b": true,
    "s2_total_h": 2.67,
    "s2_cont_h": 1.67,
    "s2_pass_a": false,
    "s2_pass_b": false,
    "d_total_h": -1.33,
    "d_cont_h": -2.33,
    "change_cd": "new_fail",
    "변화": "신규 불충족"
   }
  },
  {
   "type": "Feature",
   "geometry": {
    "type": "Point",
    "coordinates": [
     126.93557943,
     37.52306551
    ]
   },
   "properties": {
    "pid": "체육관동 부속(원형부) 4층-8",
    "school": "여의도중학교",
    "jibun": "40-1",
    "kind": "교사동 창면",
    "dong": "체육관동 부속(원형부)",
    "facade": "체육관동 부속(원형부)",
    "floor": 4,
    "source": "도면기준",
    "z_m": 13.15,
    "normal_az": 230.9,
    "s1_total_h": 4.17,
    "s1_cont_h": 4.17,
    "s1_pass_a": true,
    "s1_pass_b": true,
    "s2_total_h": 2.83,
    "s2_cont_h": 1.67,
    "s2_pass_a": false,
    "s2_pass_b": false,
    "d_total_h": -1.34,
    "d_cont_h": -2.5,
    "change_cd": "new_fail",
    "변화": "신규 불충족"
   }
  },
  {
   "type": "Feature",
   "geometry": {
    "type": "Point",
    "coordinates": [
     126.93560432,
     37.52377261
    ]
   },
   "properties": {
    "pid": "여의도중학교 운동장-3",
    "school": "여의도중학교",
    "jibun": "40-1",
    "kind": "운동장 지반",
    "dong": "여의도중학교 운동장",
    "facade": "지반",
    "floor": 0,
    "source": "배치도 경계(래스터 계측) + 분석지점도 격자",
    "z_m": 0.0,
    "normal_az": 180.0,
    "s1_total_h": 3.17,
    "s1_cont_h": 2.17,
    "s1_pass_a": true,
    "s1_pass_b": true,
    "s2_total_h": 2.5,
    "s2_cont_h": 1.0,
    "s2_pass_a": false,
    "s2_pass_b": false,
    "d_total_h": -0.67,
    "d_cont_h": -1.17,
    "change_cd": "new_fail",
    "변화": "신규 불충족"
   }
  },
  {
   "type": "Feature",
   "geometry": {
    "type": "Point",
    "coordinates": [
     126.93554172,
     37.52383634
    ]
   },
   "properties": {
    "pid": "여의도중학교 운동장-4",
    "school": "여의도중학교",
    "jibun": "40-1",
    "kind": "운동장 지반",
    "dong": "여의도중학교 운동장",
    "facade": "지반",
    "floor": 0,
    "source": "배치도 경계(래스터 계측) + 분석지점도 격자",
    "z_m": 0.0,
    "normal_az": 180.0,
    "s1_total_h": 4.33,
    "s1_cont_h": 3.0,
    "s1_pass_a": true,
    "s1_pass_b": true,
    "s2_total_h": 3.5,
    "s2_cont_h": 1.17,
    "s2_pass_a": false,
    "s2_pass_b": false,
    "d_total_h": -0.83,
    "d_cont_h": -1.83,
    "change_cd": "new_fail",
    "변화": "신규 불충족"
   }
  },
  {
   "type": "Feature",
   "geometry": {
    "type": "Point",
    "coordinates": [
     126.93557512,
     37.52365168
    ]
   },
   "properties": {
    "pid": "여의도중학교 운동장-14",
    "school": "여의도중학교",
    "jibun": "40-1",
    "kind": "운동장 지반",
    "dong": "여의도중학교 운동장",
    "facade": "지반",
    "floor": 0,
    "source": "배치도 경계(래스터 계측) + 분석지점도 격자",
    "z_m": 0.0,
    "normal_az": 180.0,
    "s1_total_h": 2.83,
    "s1_cont_h": 2.33,
    "s1_pass_a": true,
    "s1_pass_b": true,
    "s2_total_h": 2.0,
    "s2_cont_h": 0.83,
    "s2_pass_a": false,
    "s2_pass_b": false,
    "d_total_h": -0.83,
    "d_cont_h": -1.5,
    "change_cd": "new_fail",
    "변화": "신규 불충족"
   }
  },
  {
   "type": "Feature",
   "geometry": {
    "type": "Point",
    "coordinates": [
     126.93551251,
     37.5237154
    ]
   },
   "properties": {
    "pid": "여의도중학교 운동장-15",
    "school": "여의도중학교",
    "jibun": "40-1",
    "kind": "운동장 지반",
    "dong": "여의도중학교 운동장",
    "facade": "지반",
    "floor": 0,
    "source": "배치도 경계(래스터 계측) + 분석지점도 격자",
    "z_m": 0.0,
    "normal_az": 180.0,
    "s1_total_h": 3.67,
    "s1_cont_h": 2.83,
    "s1_pass_a": true,
    "s1_pass_b": true,
    "s2_total_h": 3.0,
    "s2_cont_h": 1.17,
    "s2_pass_a": false,
    "s2_pass_b": false,
    "d_total_h": -0.67,
    "d_cont_h": -1.66,
    "change_cd": "new_fail",
    "변화": "신규 불충족"
   }
  },
  {
   "type": "Feature",
   "geometry": {
    "type": "Point",
    "coordinates": [
     126.93544991,
     37.52377913
    ]
   },
   "properties": {
    "pid": "여의도중학교 운동장-16",
    "school": "여의도중학교",
    "jibun": "40-1",
    "kind": "운동장 지반",
    "dong": "여의도중학교 운동장",
    "facade": "지반",
    "floor": 0,
    "source": "배치도 경계(래스터 계측) + 분석지점도 격자",
    "z_m": 0.0,
    "normal_az": 180.0,
    "s1_total_h": 4.0,
    "s1_cont_h": 3.17,
    "s1_pass_a": true,
    "s1_pass_b": true,
    "s2_total_h": 3.33,
    "s2_cont_h": 1.33,
    "s2_pass_a": false,
    "s2_pass_b": false,
    "d_total_h": -0.67,
    "d_cont_h": -1.84,
    "change_cd": "new_fail",
    "변화": "신규 불충족"
   }
  },
  {
   "type": "Feature",
   "geometry": {
    "type": "Point",
    "coordinates": [
     126.93538732,
     37.52384285
    ]
   },
   "properties": {
    "pid": "여의도중학교 운동장-17",
    "school": "여의도중학교",
    "jibun": "40-1",
    "kind": "운동장 지반",
    "dong": "여의도중학교 운동장",
    "facade": "지반",
    "floor": 0,
    "source": "배치도 경계(래스터 계측) + 분석지점도 격자",
    "z_m": 0.0,
    "normal_az": 180.0,
    "s1_total_h": 4.33,
    "s1_cont_h": 3.5,
    "s1_pass_a": true,
    "s1_pass_b": true,
    "s2_total_h": 3.67,
    "s2_cont_h": 1.67,
    "s2_pass_a": false,
    "s2_pass_b": false,
    "d_total_h": -0.66,
    "d_cont_h": -1.83,
    "change_cd": "new_fail",
    "변화": "신규 불충족"
   }
  },
  {
   "type": "Feature",
   "geometry": {
    "type": "Point",
    "coordinates": [
     126.93526631,
     37.52366471
    ]
   },
   "properties": {
    "pid": "여의도중학교 운동장-41",
    "school": "여의도중학교",
    "jibun": "40-1",
    "kind": "운동장 지반",
    "dong": "여의도중학교 운동장",
    "facade": "지반",
    "floor": 0,
    "source": "배치도 경계(래스터 계측) + 분석지점도 격자",
    "z_m": 0.0,
    "normal_az": 180.0,
    "s1_total_h": 3.67,
    "s1_cont_h": 2.33,
    "s1_pass_a": true,
    "s1_pass_b": true,
    "s2_total_h": 3.0,
    "s2_cont_h": 1.0,
    "s2_pass_a": false,
    "s2_pass_b": false,
    "d_total_h": -0.67,
    "d_cont_h": -1.33,
    "change_cd": "new_fail",
    "변화": "신규 불충족"
   }
  },
  {
   "type": "Feature",
   "geometry": {
    "type": "Point",
    "coordinates": [
     126.9350493,
     37.52373495
    ]
   },
   "properties": {
    "pid": "여의도중학교 운동장-56",
    "school": "여의도중학교",
    "jibun": "40-1",
    "kind": "운동장 지반",
    "dong": "여의도중학교 운동장",
    "facade": "지반",
    "floor": 0,
    "source": "배치도 경계(래스터 계측) + 분석지점도 격자",
    "z_m": 0.0,
    "normal_az": 180.0,
    "s1_total_h": 3.83,
    "s1_cont_h": 3.5,
    "s1_pass_a": true,
    "s1_pass_b": true,
    "s2_total_h": 3.17,
    "s2_cont_h": 1.5,
    "s2_pass_a": false,
    "s2_pass_b": false,
    "d_total_h": -0.66,
    "d_cont_h": -2.0,
    "change_cd": "new_fail",
    "변화": "신규 불충족"
   }
  },
  {
   "type": "Feature",
   "geometry": {
    "type": "Point",
    "coordinates": [
     126.9349867,
     37.52379867
    ]
   },
   "properties": {
    "pid": "여의도중학교 운동장-57",
    "school": "여의도중학교",
    "jibun": "40-1",
    "kind": "운동장 지반",
    "dong": "여의도중학교 운동장",
    "facade": "지반",
    "floor": 0,
    "source": "배치도 경계(래스터 계측) + 분석지점도 격자",
    "z_m": 0.0,
    "normal_az": 180.0,
    "s1_total_h": 4.0,
    "s1_cont_h": 3.83,
    "s1_pass_a": true,
    "s1_pass_b": true,
    "s2_total_h": 3.33,
    "s2_cont_h": 1.67,
    "s2_pass_a": false,
    "s2_pass_b": false,
    "d_total_h": -0.67,
    "d_cont_h": -2.16,
    "change_cd": "new_fail",
    "변화": "신규 불충족"
   }
  },
  {
   "type": "Feature",
   "geometry": {
    "type": "Point",
    "coordinates": [
     126.9349575,
     37.52367774
    ]
   },
   "properties": {
    "pid": "여의도중학교 운동장-69",
    "school": "여의도중학교",
    "jibun": "40-1",
    "kind": "운동장 지반",
    "dong": "여의도중학교 운동장",
    "facade": "지반",
    "floor": 0,
    "source": "배치도 경계(래스터 계측) + 분석지점도 격자",
    "z_m": 0.0,
    "normal_az": 180.0,
    "s1_total_h": 3.0,
    "s1_cont_h": 2.0,
    "s1_pass_a": true,
    "s1_pass_b": true,
    "s2_total_h": 2.5,
    "s2_cont_h": 1.5,
    "s2_pass_a": false,
    "s2_pass_b": false,
    "d_total_h": -0.5,
    "d_cont_h": -0.5,
    "change_cd": "new_fail",
    "변화": "신규 불충족"
   }
  },
  {
   "type": "Feature",
   "geometry": {
    "type": "Point",
    "coordinates": [
     126.93489491,
     37.52374146
    ]
   },
   "properties": {
    "pid": "여의도중학교 운동장-70",
    "school": "여의도중학교",
    "jibun": "40-1",
    "kind": "운동장 지반",
    "dong": "여의도중학교 운동장",
    "facade": "지반",
    "floor": 0,
    "source": "배치도 경계(래스터 계측) + 분석지점도 격자",
    "z_m": 0.0,
    "normal_az": 180.0,
    "s1_total_h": 3.67,
    "s1_cont_h": 3.67,
    "s1_pass_a": true,
    "s1_pass_b": true,
    "s2_total_h": 3.0,
    "s2_cont_h": 1.5,
    "s2_pass_a": false,
    "s2_pass_b": false,
    "d_total_h": -0.67,
    "d_cont_h": -2.17,
    "change_cd": "new_fail",
    "변화": "신규 불충족"
   }
  },
  {
   "type": "Feature",
   "geometry": {
    "type": "Point",
    "coordinates": [
     126.9348323,
     37.52380519
    ]
   },
   "properties": {
    "pid": "여의도중학교 운동장-71",
    "school": "여의도중학교",
    "jibun": "40-1",
    "kind": "운동장 지반",
    "dong": "여의도중학교 운동장",
    "facade": "지반",
    "floor": 0,
    "source": "배치도 경계(래스터 계측) + 분석지점도 격자",
    "z_m": 0.0,
    "normal_az": 180.0,
    "s1_total_h": 3.33,
    "s1_cont_h": 3.33,
    "s1_pass_a": true,
    "s1_pass_b": true,
    "s2_total_h": 2.67,
    "s2_cont_h": 1.5,
    "s2_pass_a": false,
    "s2_pass_b": false,
    "d_total_h": -0.66,
    "d_cont_h": -1.83,
    "change_cd": "new_fail",
    "변화": "신규 불충족"
   }
  },
  {
   "type": "Feature",
   "geometry": {
    "type": "Point",
    "coordinates": [
     126.9347697,
     37.52386891
    ]
   },
   "properties": {
    "pid": "여의도중학교 운동장-72",
    "school": "여의도중학교",
    "jibun": "40-1",
    "kind": "운동장 지반",
    "dong": "여의도중학교 운동장",
    "facade": "지반",
    "floor": 0,
    "source": "배치도 경계(래스터 계측) + 분석지점도 격자",
    "z_m": 0.0,
    "normal_az": 180.0,
    "s1_total_h": 3.17,
    "s1_cont_h": 3.17,
    "s1_pass_a": true,
    "s1_pass_b": true,
    "s2_total_h": 2.5,
    "s2_cont_h": 1.67,
    "s2_pass_a": false,
    "s2_pass_b": false,
    "d_total_h": -0.67,
    "d_cont_h": -1.5,
    "change_cd": "new_fail",
    "변화": "신규 불충족"
   }
  },
  {
   "type": "Feature",
   "geometry": {
    "type": "Point",
    "coordinates": [
     126.93451931,
     37.52412381
    ]
   },
   "properties": {
    "pid": "여의도중학교 운동장-76",
    "school": "여의도중학교",
    "jibun": "40-1",
    "kind": "운동장 지반",
    "dong": "여의도중학교 운동장",
    "facade": "지반",
    "floor": 0,
    "source": "배치도 경계(래스터 계측) + 분석지점도 격자",
    "z_m": 0.0,
    "normal_az": 180.0,
    "s1_total_h": 3.17,
    "s1_cont_h": 3.17,
    "s1_pass_a": true,
    "s1_pass_b": true,
    "s2_total_h": 2.5,
    "s2_cont_h": 1.83,
    "s2_pass_a": false,
    "s2_pass_b": false,
    "d_total_h": -0.67,
    "d_cont_h": -1.34,
    "change_cd": "new_fail",
    "변화": "신규 불충족"
   }
  },
  {
   "type": "Feature",
   "geometry": {
    "type": "Point",
    "coordinates": [
     126.93551636,
     37.52260584
    ]
   },
   "properties": {
    "pid": "A동(3층) A동 남동면 1층-2",
    "school": "여의도여자고등학교",
    "jibun": "40-2",
    "kind": "교사동 창면",
    "dong": "A동(3층)",
    "facade": "A동 남동면",
    "floor": 1,
    "source": "도면기준",
    "z_m": 2.3,
    "normal_az": 142.1,
    "s1_total_h": 2.67,
    "s1_cont_h": 2.67,
    "s1_pass_a": true,
    "s1_pass_b": true,
    "s2_total_h": 2.17,
    "s2_cont_h": 1.5,
    "s2_pass_a": false,
    "s2_pass_b": false,
    "d_total_h": -0.5,
    "d_cont_h": -1.17,
    "change_cd": "new_fail",
    "변화": "신규 불충족"
   }
  },
  {
   "type": "Feature",
   "geometry": {
    "type": "Point",
    "coordinates": [
     126.93551636,
     37.52260584
    ]
   },
   "properties": {
    "pid": "A동(3층) A동 남동면 2층-2",
    "school": "여의도여자고등학교",
    "jibun": "40-2",
    "kind": "교사동 창면",
    "dong": "A동(3층)",
    "facade": "A동 남동면",
    "floor": 2,
    "source": "도면기준",
    "z_m": 6.3,
    "normal_az": 142.1,
    "s1_total_h": 3.0,
    "s1_cont_h": 3.0,
    "s1_pass_a": true,
    "s1_pass_b": true,
    "s2_total_h": 2.17,
    "s2_cont_h": 1.5,
    "s2_pass_a": false,
    "s2_pass_b": false,
    "d_total_h": -0.83,
    "d_cont_h": -1.5,
    "change_cd": "new_fail",
    "변화": "신규 불충족"
   }
  },
  {
   "type": "Feature",
   "geometry": {
    "type": "Point",
    "coordinates": [
     126.9355565,
     37.52263077
    ]
   },
   "properties": {
    "pid": "A동(3층) A동 남동면 1층-3",
    "school": "여의도여자고등학교",
    "jibun": "40-2",
    "kind": "교사동 창면",
    "dong": "A동(3층)",
    "facade": "A동 남동면",
    "floor": 1,
    "source": "도면기준",
    "z_m": 2.3,
    "normal_az": 142.1,
    "s1_total_h": 2.67,
    "s1_cont_h": 2.67,
    "s1_pass_a": true,
    "s1_pass_b": true,
    "s2_total_h": 2.67,
    "s2_cont_h": 1.5,
    "s2_pass_a": false,
    "s2_pass_b": false,
    "d_total_h": 0.0,
    "d_cont_h": -1.17,
    "change_cd": "new_fail",
    "변화": "신규 불충족"
   }
  },
  {
   "type": "Feature",
   "geometry": {
    "type": "Point",
    "coordinates": [
     126.9355565,
     37.52263077
    ]
   },
   "properties": {
    "pid": "A동(3층) A동 남동면 2층-3",
    "school": "여의도여자고등학교",
    "jibun": "40-2",
    "kind": "교사동 창면",
    "dong": "A동(3층)",
    "facade": "A동 남동면",
    "floor": 2,
    "source": "도면기준",
    "z_m": 6.3,
    "normal_az": 142.1,
    "s1_total_h": 3.17,
    "s1_cont_h": 3.17,
    "s1_pass_a": true,
    "s1_pass_b": true,
    "s2_total_h": 2.67,
    "s2_cont_h": 1.5,
    "s2_pass_a": false,
    "s2_pass_b": false,
    "d_total_h": -0.5,
    "d_cont_h": -1.67,
    "change_cd": "new_fail",
    "변화": "신규 불충족"
   }
  },
  {
   "type": "Feature",
   "geometry": {
    "type": "Point",
    "coordinates": [
     126.93553375,
     37.52261664
    ]
   },
   "properties": {
    "pid": "A동(3층) A동 남동면 3층-2",
    "school": "여의도여자고등학교",
    "jibun": "40-2",
    "kind": "교사동 창면",
    "dong": "A동(3층)",
    "facade": "A동 남동면",
    "floor": 3,
    "source": "도면기준",
    "z_m": 10.3,
    "normal_az": 142.1,
    "s1_total_h": 3.67,
    "s1_cont_h": 3.67,
    "s1_pass_a": true,
    "s1_pass_b": true,
    "s2_total_h": 2.33,
    "s2_cont_h": 1.33,
    "s2_pass_a": false,
    "s2_pass_b": false,
    "d_total_h": -1.34,
    "d_cont_h": -2.34,
    "change_cd": "new_fail",
    "변화": "신규 불충족"
   }
  },
  {
   "type": "Feature",
   "geometry": {
    "type": "Point",
    "coordinates": [
     126.93511616,
     37.5231283
    ]
   },
   "properties": {
    "pid": "여의도여자고등학교 ②(5층) 1층-2",
    "school": "여의도여자고등학교",
    "jibun": "40-2",
    "kind": "교사동 창면",
    "dong": "여의도여자고등학교 ②(5층)",
    "facade": "남향외벽",
    "floor": 1,
    "source": "일반식",
    "z_m": 1.2,
    "normal_az": 232.4,
    "s1_total_h": 3.67,
    "s1_cont_h": 3.17,
    "s1_pass_a": true,
    "s1_pass_b": true,
    "s2_total_h": 2.33,
    "s2_cont_h": 1.83,
    "s2_pass_a": false,
    "s2_pass_b": false,
    "d_total_h": -1.34,
    "d_cont_h": -1.34,
    "change_cd": "new_fail",
    "변화": "신규 불충족"
   }
  },
  {
   "type": "Feature",
   "geometry": {
    "type": "Point",
    "coordinates": [
     126.93511616,
     37.5231283
    ]
   },
   "properties": {
    "pid": "여의도여자고등학교 ②(5층) 2층-2",
    "school": "여의도여자고등학교",
    "jibun": "40-2",
    "kind": "교사동 창면",
    "dong": "여의도여자고등학교 ②(5층)",
    "facade": "남향외벽",
    "floor": 2,
    "source": "일반식",
    "z_m": 4.7,
    "normal_az": 232.4,
    "s1_total_h": 3.67,
    "s1_cont_h": 3.17,
    "s1_pass_a": true,
    "s1_pass_b": true,
    "s2_total_h": 2.33,
    "s2_cont_h": 1.83,
    "s2_pass_a": false,
    "s2_pass_b": false,
    "d_total_h": -1.34,
    "d_cont_h": -1.34,
    "change_cd": "new_fail",
    "변화": "신규 불충족"
   }
  },
  {
   "type": "Feature",
   "geometry": {
    "type": "Point",
    "coordinates": [
     126.93511616,
     37.5231283
    ]
   },
   "properties": {
    "pid": "여의도여자고등학교 ②(5층) 3층-2",
    "school": "여의도여자고등학교",
    "jibun": "40-2",
    "kind": "교사동 창면",
    "dong": "여의도여자고등학교 ②(5층)",
    "facade": "남향외벽",
    "floor": 3,
    "source": "일반식",
    "z_m": 8.2,
    "normal_az": 232.4,
    "s1_total_h": 3.67,
    "s1_cont_h": 3.17,
    "s1_pass_a": true,
    "s1_pass_b": true,
    "s2_total_h": 2.33,
    "s2_cont_h": 1.83,
    "s2_pass_a": false,
    "s2_pass_b": false,
    "d_total_h": -1.34,
    "d_cont_h": -1.34,
    "change_cd": "new_fail",
    "변화": "신규 불충족"
   }
  },
  {
   "type": "Feature",
   "geometry": {
    "type": "Point",
    "coordinates": [
     126.93511616,
     37.5231283
    ]
   },
   "properties": {
    "pid": "여의도여자고등학교 ②(5층) 4층-2",
    "school": "여의도여자고등학교",
    "jibun": "40-2",
    "kind": "교사동 창면",
    "dong": "여의도여자고등학교 ②(5층)",
    "facade": "남향외벽",
    "floor": 4,
    "source": "일반식",
    "z_m": 11.7,
    "normal_az": 232.4,
    "s1_total_h": 3.67,
    "s1_cont_h": 3.17,
    "s1_pass_a": true,
    "s1_pass_b": true,
    "s2_total_h": 2.33,
    "s2_cont_h": 1.83,
    "s2_pass_a": false,
    "s2_pass_b": false,
    "d_total_h": -1.34,
    "d_cont_h": -1.34,
    "change_cd": "new_fail",
    "변화": "신규 불충족"
   }
  },
  {
   "type": "Feature",
   "geometry": {
    "type": "Point",
    "coordinates": [
     126.93511616,
     37.5231283
    ]
   },
   "properties": {
    "pid": "여의도여자고등학교 ②(5층) 5층-2",
    "school": "여의도여자고등학교",
    "jibun": "40-2",
    "kind": "교사동 창면",
    "dong": "여의도여자고등학교 ②(5층)",
    "facade": "남향외벽",
    "floor": 5,
    "source": "일반식",
    "z_m": 15.2,
    "normal_az": 232.4,
    "s1_total_h": 3.67,
    "s1_cont_h": 3.17,
    "s1_pass_a": true,
    "s1_pass_b": true,
    "s2_total_h": 2.33,
    "s2_cont_h": 1.83,
    "s2_pass_a": false,
    "s2_pass_b": false,
    "d_total_h": -1.34,
    "d_cont_h": -1.34,
    "change_cd": "new_fail",
    "변화": "신규 불충족"
   }
  },
  {
   "type": "Feature",
   "geometry": {
    "type": "Point",
    "coordinates": [
     126.93539298,
     37.52286569
    ]
   },
   "properties": {
    "pid": "여의도여자고등학교 ②(5층) 4층-10",
    "school": "여의도여자고등학교",
    "jibun": "40-2",
    "kind": "교사동 창면",
    "dong": "여의도여자고등학교 ②(5층)",
    "facade": "남향외벽",
    "floor": 4,
    "source": "일반식",
    "z_m": 11.7,
    "normal_az": 138.5,
    "s1_total_h": 4.33,
    "s1_cont_h": 3.67,
    "s1_pass_a": true,
    "s1_pass_b": true,
    "s2_total_h": 3.67,
    "s2_cont_h": 1.83,
    "s2_pass_a": false,
    "s2_pass_b": false,
    "d_total_h": -0.66,
    "d_cont_h": -1.84,
    "change_cd": "new_fail",
    "변화": "신규 불충족"
   }
  },
  {
   "type": "Feature",
   "geometry": {
    "type": "Point",
    "coordinates": [
     126.93540994,
     37.52286045
    ]
   },
   "properties": {
    "pid": "여의도여자고등학교 ②(5층) 4층-11",
    "school": "여의도여자고등학교",
    "jibun": "40-2",
    "kind": "교사동 창면",
    "dong": "여의도여자고등학교 ②(5층)",
    "facade": "남향외벽",
    "floor": 4,
    "source": "일반식",
    "z_m": 11.7,
    "normal_az": 228.9,
    "s1_total_h": 3.83,
    "s1_cont_h": 3.83,
    "s1_pass_a": true,
    "s1_pass_b": true,
    "s2_total_h": 2.33,
    "s2_cont_h": 1.83,
    "s2_pass_a": false,
    "s2_pass_b": false,
    "d_total_h": -1.5,
    "d_cont_h": -2.0,
    "change_cd": "new_fail",
    "변화": "신규 불충족"
   }
  },
  {
   "type": "Feature",
   "geometry": {
    "type": "Point",
    "coordinates": [
     126.93540994,
     37.52286045
    ]
   },
   "properties": {
    "pid": "여의도여자고등학교 ②(5층) 5층-11",
    "school": "여의도여자고등학교",
    "jibun": "40-2",
    "kind": "교사동 창면",
    "dong": "여의도여자고등학교 ②(5층)",
    "facade": "남향외벽",
    "floor": 5,
    "source": "일반식",
    "z_m": 15.2,
    "normal_az": 228.9,
    "s1_total_h": 4.83,
    "s1_cont_h": 4.17,
    "s1_pass_a": true,
    "s1_pass_b": true,
    "s2_total_h": 3.0,
    "s2_cont_h": 1.83,
    "s2_pass_a": false,
    "s2_pass_b": false,
    "d_total_h": -1.83,
    "d_cont_h": -2.34,
    "change_cd": "new_fail",
    "변화": "신규 불충족"
   }
  },
  {
   "type": "Feature",
   "geometry": {
    "type": "Point",
    "coordinates": [
     126.93546295,
     37.52286802
    ]
   },
   "properties": {
    "pid": "여의도여자고등학교 ②(5층) 4층-12",
    "school": "여의도여자고등학교",
    "jibun": "40-2",
    "kind": "교사동 창면",
    "dong": "여의도여자고등학교 ②(5층)",
    "facade": "남향외벽",
    "floor": 4,
    "source": "일반식",
    "z_m": 11.7,
    "normal_az": 142.3,
    "s1_total_h": 3.0,
    "s1_cont_h": 2.67,
    "s1_pass_a": true,
    "s1_pass_b": true,
    "s2_total_h": 2.0,
    "s2_cont_h": 1.67,
    "s2_pass_a": false,
    "s2_pass_b": false,
    "d_total_h": -1.0,
    "d_cont_h": -1.0,
    "change_cd": "new_fail",
    "변화": "신규 불충족"
   }
  },
  {
   "type": "Feature",
   "geometry": {
    "type": "Point",
    "coordinates": [
     126.93689051,
     37.52302575
    ]
   },
   "properties": {
    "pid": "별관(5층) 5층-12",
    "school": "여의도초등학교",
    "jibun": "40-3",
    "kind": "교사동 창면",
    "dong": "별관(5층)",
    "facade": "별관(5층)",
    "floor": 5,
    "source": "도면기준",
    "z_m": 14.75,
    "normal_az": 231.9,
    "s1_total_h": 2.5,
    "s1_cont_h": 2.5,
    "s1_pass_a": true,
    "s1_pass_b": false,
    "s2_total_h": 1.5,
    "s2_cont_h": 1.5,
    "s2_pass_a": false,
    "s2_pass_b": false,
    "d_total_h": -1.0,
    "d_cont_h": -1.0,
    "change_cd": "new_fail",
    "변화": "신규 불충족"
   }
  }
 ]
}