{
 "type": "FeatureCollection",
 "features": [
  {
   "type": "Feature",
   "geometry": {
    "type": "Point",
    "coordinates": [
     194314.754,
     547105.787
    ]
   },
   "properties": {
    "pid": "체육관동(정보화센타) 3층-2",
    "school": "여의도중학교",
    "jibun": "40-1",
    "kind": "교사동 창면",
    "dong": "체육관동(정보화센타)",
    "facade": "체육관동(정보화센타)",
    "floor": 3,
    "source": "도면기준",
    "z_m": 9.55,
    "normal_az": 246.2,
    "s1_total_h": 2.33,
    "s1_cont_h": 2.33,
    "s1_pass_a": true,
    "s1_pass_b": true,
    "s2_total_h": 1.33,
    "s2_cont_h": 1.0,
    "s2_pass_a": false,
    "s2_pass_b": false,
    "d_total_h": -1.0,
    "d_cont_h": -1.33,
    "change_cd": "new_fail",
    "변화": "신규 불충족"
   }
  },
  {
   "type": "Feature",
   "geometry": {
    "type": "Point",
    "coordinates": [
     194314.754,
     547105.787
    ]
   },
   "properties": {
    "pid": "체육관동(정보화센타) 4층-2",
    "school": "여의도중학교",
    "jibun": "40-1",
    "kind": "교사동 창면",
    "dong": "체육관동(정보화센타)",
    "facade": "체육관동(정보화센타)",
    "floor": 4,
    "source": "도면기준",
    "z_m": 13.15,
    "normal_az": 246.2,
    "s1_total_h": 3.5,
    "s1_cont_h": 2.83,
    "s1_pass_a": true,
    "s1_pass_b": true,
    "s2_total_h": 2.5,
    "s2_cont_h": 1.0,
    "s2_pass_a": false,
    "s2_pass_b": false,
    "d_total_h": -1.0,
    "d_cont_h": -1.83,
    "change_cd": "new_fail",
    "변화": "신규 불충족"
   }
  },
  {
   "type": "Feature",
   "geometry": {
    "type": "Point",
    "coordinates": [
     194324.935,
     547096.256
    ]
   },
   "properties": {
    "pid": "체육관동(정보화센타) 3층-5",
    "school": "여의도중학교",
    "jibun": "40-1",
    "kind": "교사동 창면",
    "dong": "체육관동(정보화센타)",
    "facade": "체육관동(정보화센타)",
    "floor": 3,
    "source": "도면기준",
    "z_m": 9.55,
    "normal_az": 200.4,
    "s1_total_h": 3.33,
    "s1_cont_h": 3.33,
    "s1_pass_a": true,
    "s1_pass_b": true,
    "s2_total_h": 2.17,
    "s2_cont_h": 1.67,
    "s2_pass_a": false,
    "s2_pass_b": false,
    "d_total_h": -1.16,
    "d_cont_h": -1.66,
    "change_cd": "new_fail",
    "변화": "신규 불충족"
   }
  },
  {
   "type": "Feature",
   "geometry": {
    "type": "Point",
    "coordinates": [
     194328.607,
     547095.834
    ]
   },
   "properties": {
    "pid": "체육관동(정보화센타) 3층-6",
    "school": "여의도중학교",
    "jibun": "40-1",
    "kind": "교사동 창면",
    "dong": "체육관동(정보화센타)",
    "facade": "체육관동(정보화센타)",
    "floor": 3,
    "source": "도면기준",
    "z_m": 9.55,
    "normal_az": 185.7,
    "s1_total_h": 2.83,
    "s1_cont_h": 2.83,
    "s1_pass_a": true,
    "s1_pass_b": true,
    "s2_total_h": 1.67,
    "s2_cont_h": 1.0,
    "s2_pass_a": false,
    "s2_pass_b": false,
    "d_total_h": -1.16,
    "d_cont_h": -1.83,
    "change_cd": "new_fail",
    "변화": "신규 불충족"
   }
  },
  {
   "type": "Feature",
   "geometry": {
    "type": "Point",
    "coordinates": [
     194328.607,
     547095.834
    ]
   },
   "properties": {
    "pid": "체육관동(정보화센타) 4층-6",
    "school": "여의도중학교",
    "jibun": "40-1",
    "kind": "교사동 창면",
    "dong": "체육관동(정보화센타)",
    "facade": "체육관동(정보화센타)",
    "floor": 4,
    "source": "도면기준",
    "z_m": 13.15,
    "normal_az": 185.7,
    "s1_total_h": 3.83,
    "s1_cont_h": 3.33,
    "s1_pass_a": true,
    "s1_pass_b": true,
    "s2_total_h": 2.67,
    "s2_cont_h": 1.5,
    "s2_pass_a": false,
    "s2_pass_b": false,
    "d_total_h": -1.16,
    "d_cont_h": -1.83,
    "change_cd": "new_fail",
    "변화": "신규 불충족"
   }
  },
  {
   "type": "Feature",
   "geometry": {
    "type": "Point",
    "coordinates": [
     194310.094,
     547062.962
    ]
   },
   "properties": {
    "pid": "체육관동(정보화센타) 2층-9",
    "school": "여의도중학교",
    "jibun": "40-1",
    "kind": "교사동 창면",
    "dong": "체육관동(정보화센타)",
    "facade": "체육관동(정보화센타)",
    "floor": 2,
    "source": "도면기준",
    "z_m": 5.95,
    "normal_az": 230.3,
    "s1_total_h": 3.83,
    "s1_cont_h": 3.17,
    "s1_pass_a": true,
    "s1_pass_b": true,
    "s2_total_h": 2.5,
    "s2_cont_h": 1.83,
    "s2_pass_a": false,
    "s2_pass_b": false,
    "d_total_h": -1.33,
    "d_cont_h": -1.34,
    "change_cd": "new_fail",
    "변화": "신규 불충족"
   }
  },
  {
   "type": "Feature",
   "geometry": {
    "type": "Point",
    "coordinates": [
     194310.094,
     547062.962
    ]
   },
   "properties": {
    "pid": "체육관동(정보화센타) 3층-9",
    "school": "여의도중학교",
    "jibun": "40-1",
    "kind": "교사동 창면",
    "dong": "체육관동(정보화센타)",
    "facade": "체육관동(정보화센타)",
    "floor": 3,
    "source": "도면기준",
    "z_m": 9.55,
    "normal_az": 230.3,
    "s1_total_h": 4.33,
    "s1_cont_h": 4.33,
    "s1_pass_a": true,
    "s1_pass_b": true,
    "s2_total_h": 2.83,
    "s2_cont_h": 1.83,
    "s2_pass_a": false,
    "s2_pass_b": false,
    "d_total_h": -1.5,
    "d_cont_h": -2.5,
    "change_cd": "new_fail",
    "변화": "신규 불충족"
   }
  },
  {
   "type": "Feature",
   "geometry": {
    "type": "Point",
    "coordinates": [
     194310.094,
     547062.962
    ]
   },
   "properties": {
    "pid": "체육관동(정보화센타) 4층-9",
    "school": "여의도중학교",
    "jibun": "40-1",
    "kind": "교사동 창면",
    "dong": "체육관동(정보화센타)",
    "facade": "체육관동(정보화센타)",
    "floor": 4,
    "source": "도면기준",
    "z_m": 13.15,
    "normal_az": 230.3,
    "s1_total_h": 4.5,
    "s1_cont_h": 4.33,
    "s1_pass_a": true,
    "s1_pass_b": true,
    "s2_total_h": 3.0,
    "s2_cont_h": 1.83,
    "s2_pass_a": false,
    "s2_pass_b": false,
    "d_total_h": -1.5,
    "d_cont_h": -2.5,
    "change_cd": "new_fail",
    "변화": "신규 불충족"
   }
  },
  {
   "type": "Feature",
   "geometry": {
    "type": "Point",
    "coordinates": [
     194312.392,
     547060.191
    ]
   },
   "properties": {
    "pid": "체육관동(정보화센타) 3층-10",
    "school": "여의도중학교",
    "jibun": "40-1",
    "kind": "교사동 창면",
    "dong": "체육관동(정보화센타)",
    "facade": "체육관동(정보화센타)",
    "floor": 3,
    "source": "도면기준",
    "z_m": 9.55,
    "normal_az": 230.3,
    "s1_total_h": 4.33,
    "s1_cont_h": 4.33,
    "s1_pass_a": true,
    "s1_pass_b": true,
    "s2_total_h": 2.67,
    "s2_cont_h": 1.83,
    "s2_pass_a": false,
    "s2_pass_b": false,
    "d_total_h": -1.66,
    "d_cont_h": -2.5,
    "change_cd": "new_fail",
    "변화": "신규 불충족"
   }
  },
  {
   "type": "Feature",
   "geometry": {
    "type": "Point",
    "coordinates": [
     194312.392,
     547060.191
    ]
   },
   "properties": {
    "pid": "체육관동(정보화센타) 4층-10",
    "school": "여의도중학교",
    "jibun": "40-1",
    "kind": "교사동 창면",
    "dong": "체육관동(정보화센타)",
    "facade": "체육관동(정보화센타)",
    "floor": 4,
    "source": "도면기준",
    "z_m": 13.15,
    "normal_az": 230.3,
    "s1_total_h": 4.33,
    "s1_cont_h": 4.33,
    "s1_pass_a": true,
    "s1_pass_b": true,
    "s2_total_h": 2.67,
    "s2_cont_h": 1.83,
    "s2_pass_a": false,
    "s2_pass_b": false,
    "d_total_h": -1.66,
    "d_cont_h": -2.5,
    "change_cd": "new_fail",
    "변화": "신규 불충족"
   }
  },
  {
   "type": "Feature",
   "geometry": {
    "type": "Point",
    "coordinates": [
     194289.547,
     547087.932
    ]
   },
   "properties": {
    "pid": "체육관동 부속(원형부) 4층-2",
    "school": "여의도중학교",
    "jibun": "40-1",
    "kind": "교사동 창면",
    "dong": "체육관동 부속(원형부)",
    "facade": "체육관동 부속(원형부)",
    "floor": 4,
    "source": "도면기준",
    "z_m": 13.15,
    "normal_az": 249.6,
    "s1_total_h": 2.33,
    "s1_cont_h": 2.33,
    "s1_pass_a": true,
    "s1_pass_b": true,
    "s2_total_h": 1.5,
    "s2_cont_h": 1.5,
    "s2_pass_a": false,
    "s2_pass_b": false,
    "d_total_h": -0.83,
    "d_cont_h": -0.83,
    "change_cd": "new_fail",
    "변화": "신규 불충족"
   }
  },
  {
   "type": "Feature",
   "geometry": {
    "type": "Point",
    "coordinates": [
     194291.882,
     547083.014
    ]
   },
   "properties": {
    "pid": "체육관동 부속(원형부) 3층-3",
    "school": "여의도중학교",
    "jibun": "40-1",
    "kind": "교사동 창면",
    "dong": "체육관동 부속(원형부)",
    "facade": "체육관동 부속(원형부)",
    "floor": 3,
    "source": "도면기준",
    "z_m": 9.55,
    "normal_az": 241.3,
    "s1_total_h": 2.17,
    "s1_cont_h": 2.17,
    "s1_pass_a": true,
    "s1_pass_b": true,
    "s2_total_h": 1.0,
    "s2_cont_h": 0.5,
    "s2_pass_a": false,
    "s2_pass_b": false,
    "d_total_h": -1.17,
    "d_cont_h": -1.67,
    "change_cd": "new_fail",
    "변화": "신규 불충족"
   }
  },
  {
   "type": "Feature",
   "geometry": {
    "type": "Point",
    "coordinates": [
     194291.882,
     547083.014
    ]
   },
   "properties": {
    "pid": "체육관동 부속(원형부) 4층-3",
    "school": "여의도중학교",
    "jibun": "40-1",
    "kind": "교사동 창면",
    "dong": "체육관동 부속(원형부)",
    "facade": "체육관동 부속(원형부)",
    "floor": 4,
    "source": "도면기준",
    "z_m": 13.15,
    "normal_az": 241.3,
    "s1_total_h": 3.0,
    "s1_cont_h": 3.0,
    "s1_pass_a": true,
    "s1_pass_b": true,
    "s2_total_h": 1.83,
    "s2_cont_h": 1.33,
    "s2_pass_a": false,
    "s2_pass_b": false,
    "d_total_h": -1.17,
    "d_cont_h": -1.67,
    "change_cd": "new_fail",
    "변화": "신규 불충족"
   }
  },
  {
   "type": "Feature",
   "geometry": {
    "type": "Point",
    "coordinates": [
     194293.971,
     547080.01
    ]
   },
   "properties": {
    "pid": "체육관동 부속(원형부) 1층-4",
    "school": "여의도중학교",
    "jibun": "40-1",
    "kind": "교사동 창면",
    "dong": "체육관동 부속(원형부)",
    "facade": "체육관동 부속(원형부)",
    "floor": 1,
    "source": "도면기준",
    "z_m": 2.05,
    "normal_az": 230.9,
    "s1_total_h": 2.33,
    "s1_cont_h": 2.33,
    "s1_pass_a": true,
    "s1_pass_b": true,
    "s2_total_h": 1.33,
    "s2_cont_h": 1.33,
    "s2_pass_a": false,
    "s2_pass_b": false,
    "d_total_h": -1.0,
    "d_cont_h": -1.0,
    "change_cd": "new_fail",
    "변화": "신규 불충족"
   }
  },
  {
   "type": "Feature",
   "geometry": {
    "type": "Point",
    "coordinates": [
     194293.971,
     547080.01
    ]
   },
   "properties": {
    "pid": "체육관동 부속(원형부) 2층-4",
    "school": "여의도중학교",
    "jibun": "40-1",
    "kind": "교사동 창면",
    "dong": "체육관동 부속(원형부)",
    "facade": "체육관동 부속(원형부)",
    "floor": 2,
    "source": "도면기준",
    "z_m": 5.95,
    "normal_az": 230.9,
    "s1_total_h": 2.67,
    "s1_cont_h": 2.67,
    "s1_pass_a": true,
    "s1_pass_b": true,
    "s2_total_h": 1.5,
    "s2_cont_h": 1.33,
    "s2_pass_a": false,
    "s2_pass_b": false,
    "d_total_h": -1.17,
    "d_cont_h": -1.34,
    "change_cd": "new_fail",
    "변화": "신규 불충족"
   }
  },
  {
   "type": "Feature",
   "geometry": {
    "type": "Point",
    "coordinates": [
     194293.971,
     547080.01
    ]
   },
   "properties": {
    "pid": "체육관동 부속(원형부) 3층-4",
    "school": "여의도중학교",
    "jibun": "40-1",
    "kind": "교사동 창면",
    "dong": "체육관동 부속(원형부)",
    "facade": "체육관동 부속(원형부)",
    "floor": 3,
    "source": "도면기준",
    "z_m": 9.55,
    "normal_az": 230.9,
    "s1_total_h": 3.0,
    "s1_cont_h": 3.0,
    "s1_pass_a": true,
    "s1_pass_b": true,
    "s2_total_h": 1.83,
    "s2_cont_h": 1.33,
    "s2_pass_a": false,
    "s2_pass_b": false,
    "d_total_h": -1.17,
    "d_cont_h": -1.67,
    "change_cd": "new_fail",
    "변화": "신규 불충족"
   }
  },
  {
   "type": "Feature",
   "geometry": {
    "type": "Point",
    "coordinates": [
     194293.971,
     547080.01
    ]
   },
   "properties": {
    "pid": "체육관동 부속(원형부) 4층-4",
    "school": "여의도중학교",
    "jibun": "40-1",
    "kind": "교사동 창면",
    "dong": "체육관동 부속(원형부)",
    "facade": "체육관동 부속(원형부)",
    "floor": 4,
    "source": "도면기준",
    "z_m": 13.15,
    "normal_az": 230.9,
    "s1_total_h": 3.83,
    "s1_cont_h": 3.83,
    "s1_pass_a": true,
    "s1_pass_b": true,
    "s2_total_h": 2.67,
    "s2_cont_h": 1.33,
    "s2_pass_a": false,
    "s2_pass_b": false,
    "d_total_h": -1.16,
    "d_cont_h": -2.5,
    "change_cd": "new_fail",
    "변화": "신규 불충족"
   }
  },
  {
   "type": "Feature",
   "geometry": {
    "type": "Point",
    "coordinates": [
     194297.38,
     547075.823
    ]
   },
   "properties": {
    "pid": "체육관동 부속(원형부) 1층-5",
    "school": "여의도중학교",
    "jibun": "40-1",
    "kind": "교사동 창면",
    "dong": "체육관동 부속(원형부)",
    "facade": "체육관동 부속(원형부)",
    "floor": 1,
    "source": "도면기준",
    "z_m": 2.05,
    "normal_az": 230.9,
    "s1_total_h": 2.33,
    "s1_cont_h": 2.33,
    "s1_pass_a": true,
    "s1_pass_b": true,
    "s2_total_h": 1.5,
    "s2_cont_h": 1.5,
    "s2_pass_a": false,
    "s2_pass_b": false,
    "d_total_h": -0.83,
    "d_cont_h": -0.83,
    "change_cd": "new_fail",
    "변화": "신규 불충족"
   }
  },
  {
   "type": "Feature",
   "geometry": {
    "type": "Point",
    "coordinates": [
     194297.38,
     547075.823
    ]
   },
   "properties": {
    "pid": "체육관동 부속(원형부) 2층-5",
    "school": "여의도중학교",
    "jibun": "40-1",
    "kind": "교사동 창면",
    "dong": "체육관동 부속(원형부)",
    "facade": "체육관동 부속(원형부)",
    "floor": 2,
    "source": "도면기준",
    "z_m": 5.95,
    "normal_az": 230.9,
    "s1_total_h": 3.0,
    "s1_cont_h": 3.0,
    "s1_pass_a": true,
    "s1_pass_b": true,
    "s2_total_h": 1.83,
    "s2_cont_h": 1.5,
    "s2_pass_a": false,
    "s2_pass_b": false,
    "d_total_h": -1.17,
    "d_cont_h": -1.5,
    "change_cd": "new_fail",
    "변화": "신규 불충족"
   }
  },
  {
   "type": "Feature",
   "geometry": {
    "type": "Point",
    "coordinates": [
     194297.38,
     547075.823
    ]
   },
   "properties": {
    "pid": "체육관동 부속(원형부) 3층-5",
    "school": "여의도중학교",
    "jibun": "40-1",
    "kind": "교사동 창면",
    "dong": "체육관동 부속(원형부)",
    "facade": "체육관동 부속(원형부)",
    "floor": 3,
    "source": "도면기준",
    "z_m": 9.55,
    "normal_az": 230.9,
    "s1_total_h": 3.5,
    "s1_cont_h": 3.5,
    "s1_pass_a": true,
    "s1_pass_b": true,
    "s2_total_h": 2.33,
    "s2_cont_h": 1.5,
    "s2_pass_a": false,
    "s2_pass_b": false,
    "d_total_h": -1.17,
    "d_cont_h": -2.0,
    "change_cd": "new_fail",
    "변화": "신규 불충족"
   }
  },
  {
   "type": "Feature",
   "geometry": {
    "type": "Point",
    "coordinates": [
     194297.38,
     547075.823
    ]
   },
   "properties": {
    "pid": "체육관동 부속(원형부) 4층-5",
    "school": "여의도중학교",
    "jibun": "40-1",
    "kind": "교사동 창면",
    "dong": "체육관동 부속(원형부)",
    "facade": "체육관동 부속(원형부)",
    "floor": 4,
    "source": "도면기준",
    "z_m": 13.15,
    "normal_az": 230.9,
    "s1_total_h": 4.0,
    "s1_cont_h": 4.0,
    "s1_pass_a": true,
    "s1_pass_b": true,
    "s2_total_h": 2.83,
    "s2_cont_h": 1.5,
    "s2_pass_a": false,
    "s2_pass_b": false,
    "d_total_h": -1.17,
    "d_cont_h": -2.5,
    "change_cd": "new_fail",
    "변화": "신규 불충족"
   }
  },
  {
   "type": "Feature",
   "geometry": {
    "type": "Point",
    "coordinates": [
     194299.653,
     547073.031
    ]
   },
   "properties": {
    "pid": "체육관동 부속(원형부) 1층-6",
    "school": "여의도중학교",
    "jibun": "40-1",
    "kind": "교사동 창면",
    "dong": "체육관동 부속(원형부)",
    "facade": "체육관동 부속(원형부)",
    "floor": 1,
    "source": "도면기준",
    "z_m": 2.05,
    "normal_az": 230.9,
    "s1_total_h": 2.67,
    "s1_cont_h": 2.67,
    "s1_pass_a": true,
    "s1_pass_b": true,
    "s2_total_h": 1.5,
    "s2_cont_h": 1.5,
    "s2_pass_a": false,
    "s2_pass_b": false,
    "d_total_h": -1.17,
    "d_cont_h": -1.17,
    "change_cd": "new_fail",
    "변화": "신규 불충족"
   }
  },
  {
   "type": "Feature",
   "geometry": {
    "type": "Point",
    "coordinates": [
     194299.653,
     547073.031
    ]
   },
   "properties": {
    "pid": "체육관동 부속(원형부) 2층-6",
    "school": "여의도중학교",
    "jibun": "40-1",
    "kind": "교사동 창면",
    "dong": "체육관동 부속(원형부)",
    "facade": "체육관동 부속(원형부)",
    "floor": 2,
    "source": "도면기준",
    "z_m": 5.95,
    "normal_az": 230.9,
    "s1_total_h": 3.0,
    "s1_cont_h": 3.0,
    "s1_pass_a": true,
    "s1_pass_b": true,
    "s2_total_h": 1.67,
    "s2_cont_h": 1.5,
    "s2_pass_a": false,
    "s2_pass_b": false,
    "d_total_h": -1.33,
    "d_cont_h": -1.5,
    "change_cd": "new_fail",
    "변화": "신규 불충족"
   }
  },
  {
   "type": "Feature",
   "geometry": {
    "type": "Point",
    "coordinates": [
     194299.653,
     547073.031
    ]
   },
   "properties": {
    "pid": "체육관동 부속(원형부) 3층-6",
    "school": "여의도중학교",
    "jibun": "40-1",
    "kind": "교사동 창면",
    "dong": "체육관동 부속(원형부)",
    "facade": "체육관동 부속(원형부)",
    "floor": 3,
    "source": "도면기준",
    "z_m": 9.55,
    "normal_az": 230.9,
    "s1_total_h": 3.83,
    "s1_cont_h": 3.83,
    "s1_pass_a": true,
    "s1_pass_b": true,
    "s2_total_h": 2.5,
    "s2_cont_h": 1.5,
    "s2_pass_a": false,
    "s2_pass_b": false,
    "d_total_h": -1.33,
    "d_cont_h": -2.33,
    "change_cd": "new_fail",
    "변화": "신규 불충족"
   }
  },
  {
   "type": "Feature",
   "geometry": {
    "type": "Point",
    "coordinates": [
     194299.653,
     547073.031
    ]
   },
   "properties": {
    "pid": "체육관동 부속(원형부) 4층-6",
    "school": "여의도중학교",
    "jibun": "40-1",
    "kind": "교사동 창면",
    "dong": "체육관동 부속(원형부)",
    "facade": "체육관동 부속(원형부)",
    "floor": 4,
    "source": "도면기준",
    "z_m": 13.15,
    "normal_az": 230.9,
    "s1_total_h": 4.0,
    "s1_cont_h": 4.0,
    "s1_pass_a": true,
    "s1_pass_b": true,
    "s2_total_h": 2.67,
    "s2_cont_h": 1.5,
    "s2_pass_a": false,
    "s2_pass_b": false,
    "d_total_h": -1.33,
    "d_cont_h": -2.5,
    "change_cd": "new_fail",
    "변화": "신규 불충족"
   }
  },
  {
   "type": "Feature",
   "geometry": {
    "type": "Point",
    "coordinates": [
     194303.062,
     547068.843
    ]
   },
   "properties": {
    "pid": "체육관동 부속(원형부) 2층-7",
    "school": "여의도중학교",
    "jibun": "40-1",
    "kind": "교사동 창면",
    "dong": "체육관동 부속(원형부)",
    "facade": "체육관동 부속(원형부)",
    "floor": 2,
    "source": "도면기준",
    "z_m": 5.95,
    "normal_az": 230.9,
    "s1_total_h": 3.17,
    "s1_cont_h": 3.17,
    "s1_pass_a": true,
    "s1_pass_b": true,
    "s2_total_h": 1.83,
    "s2_cont_h": 1.67,
    "s2_pass_a": false,
    "s2_pass_b": false,
    "d_total_h": -1.34,
    "d_cont_h": -1.5,
    "change_cd": "new_fail",
    "변화": "신규 불충족"
   }
  },
  {
   "type": "Feature",
   "geometry": {
    "type": "Point",
    "coordinates": [
     194303.062,
     547068.843
    ]
   },
   "properties": {
    "pid": "체육관동 부속(원형부) 3층-7",
    "school": "여의도중학교",
    "jibun": "40-1",
    "kind": "교사동 창면",
    "dong": "체육관동 부속(원형부)",
    "facade": "체육관동 부속(원형부)",
    "floor": 3,
    "source": "도면기준",
    "z_m": 9.55,
    "normal_az": 230.9,
    "s1_total_h": 3.83,
    "s1_cont_h": 3.83,
    "s1_pass_a": true,
    "s1_pass_b": true,
    "s2_total_h": 2.5,
    "s2_cont_h": 1.67,
    "s2_pass_a": false,
    "s2_pass_b": false,
    "d_total_h": -1.33,
    "d_cont_h": -2.16,
    "change_cd": "new_fail",
    "변화": "신규 불충족"
   }
  },
  {
   "type": "Feature",
   "geometry": {
    "type": "Point",
    "coordinates": [
     194303.062,
     547068.843
    ]
   },
   "properties": {
    "pid": "체육관동 부속(원형부) 4층-7",
    "school": "여의도중학교",
    "jibun": "40-1",
    "kind": "교사동 창면",
    "dong": "체육관동 부속(원형부)",
    "facade": "체육관동 부속(원형부)",
    "floor": 4,
    "source": "도면기준",
    "z_m": 13.15,
    "normal_az": 230.9,
    "s1_total_h": 4.17,
    "s1_cont_h": 4.17,
    "s1_pass_a": true,
    "s1_pass_b": true,
    "s2_total_h": 2.83,
    "s2_cont_h": 1.67,
    "s2_pass_a": false,
    "s2_pass_b": false,
    "d_total_h": -1.34,
    "d_cont_h": -2.5,
    "change_cd": "new_fail",
    "변화": "신규 불충족"
   }
  },
  {
   "type": "Feature",
   "geometry": {
    "type": "Point",
    "coordinates": [
     194305.335,
     547066.051
    ]
   },
   "properties": {
    "pid": "체육관동 부속(원형부) 2층-8",
    "school": "여의도중학교",
    "jibun": "40-1",
    "kind": "교사동 창면",
    "dong": "체육관동 부속(원형부)",
    "facade": "체육관동 부속(원형부)",
    "floor": 2,
    "source": "도면기준",
    "z_m": 5.95,
    "normal_az": 230.9,
    "s1_total_h": 3.67,
    "s1_cont_h": 3.67,
    "s1_pass_a": true,
    "s1_pass_b": true,
    "s2_total_h": 2.33,
    "s2_cont_h": 1.67,
    "s2_pass_a": false,
    "s2_pass_b": false,
    "d_total_h": -1.34,
    "d_cont_h": -2.0,
    "change_cd": "new_fail",
    "변화": "신규 불충족"
   }
  },
  {
   "type": "Feature",
   "geometry": {
    "type": "Point",
    "coordinates": [
     194305.335,
     547066.051
    ]
   },
   "properties": {
    "pid": "체육관동 부속(원형부) 3층-8",
    "school": "여의도중학교",
    "jibun": "40-1",
    "kind": "교사동 창면",
    "dong": "체육관동 부속(원형부)",
    "facade": "체육관동 부속(원형부)",
    "floor": 3,
    "source": "도면기준",
    "z_m": 9.55,
    "normal_az": 230.9,
    "s1_total_h": 4.0,
    "s1_cont_h": 4.0,
    "s1_pass_a": true,
    "s1_pass_b": true,
    "s2_total_h": 2.67,
    "s2_cont_h": 1.67,
    "s2_pass_a": false,
    "s2_pass_b": false,
    "d_total_h": -1.33,
    "d_cont_h": -2.33,
    "change_cd": "new_fail",
    "변화": "신규 불충족"
   }
  },
  {
   "type": "Feature",
   "geometry": {
    "type": "Point",
    "coordinates": [
     194305.335,
     547066.051
    ]
   },
   "properties": {
    "pid": "체육관동 부속(원형부) 4층-8",
    "school": "여의도중학교",
    "jibun": "40-1",
    "kind": "교사동 창면",
    "dong": "체육관동 부속(원형부)",
    "facade": "체육관동 부속(원형부)",
    "floor": 4,
    "source": "도면기준",
    "z_m": 13.15,
    "normal_az": 230.9,
    "s1_total_h": 4.17,
    "s1_cont_h": 4.17,
    "s1_pass_a": true,
    "s1_pass_b": true,
    "s2_total_h": 2.83,
    "s2_cont_h": 1.67,
    "s2_pass_a": false,
    "s2_pass_b": false,
    "d_total_h": -1.34,
    "d_cont_h": -2.5,
    "change_cd": "new_fail",
    "변화": "신규 불충족"
   }
  },
  {
   "type": "Feature",
   "geometry": {
    "type": "Point",
    "coordinates": [
     194307.589,
     547144.529
    ]
   },
   "properties": {
    "pid": "여의도중학교 운동장-3",
    "school": "여의도중학교",
    "jibun": "40-1",
    "kind": "운동장 지반",
    "dong": "여의도중학교 운동장",
    "facade": "지반",
    "floor": 0,
    "source": "배치도 경계(래스터 계측) + 분석지점도 격자",
    "z_m": 0.0,
    "normal_az": 180.0,
    "s1_total_h": 3.17,
    "s1_cont_h": 2.17,
    "s1_pass_a": true,
    "s1_pass_b": true,
    "s2_total_h": 2.5,
    "s2_cont_h": 1.0,
    "s2_pass_a": false,
    "s2_pass_b": false,
    "d_total_h": -0.67,
    "d_cont_h": -1.17,
    "change_cd": "new_fail",
    "변화": "신규 불충족"
   }
  },
  {
   "type": "Feature",
   "geometry": {
    "type": "Point",
    "coordinates": [
     194302.06,
     547151.606
    ]
   },
   "properties": {
    "pid": "여의도중학교 운동장-4",
    "school": "여의도중학교",
    "jibun": "40-1",
    "kind": "운동장 지반",
    "dong": "여의도중학교 운동장",
    "facade": "지반",
    "floor": 0,
    "source": "배치도 경계(래스터 계측) + 분석지점도 격자",
    "z_m": 0.0,
    "normal_az": 180.0,
    "s1_total_h": 4.33,
    "s1_cont_h": 3.0,
    "s1_pass_a": true,
    "s1_pass_b": true,
    "s2_total_h": 3.5,
    "s2_cont_h": 1.17,
    "s2_pass_a": false,
    "s2_pass_b": false,
    "d_total_h": -0.83,
    "d_cont_h": -1.83,
    "change_cd": "new_fail",
    "변화": "신규 불충족"
   }
  },
  {
   "type": "Feature",
   "geometry": {
    "type": "Point",
    "coordinates": [
     194304.998,
     547131.109
    ]
   },
   "properties": {
    "pid": "여의도중학교 운동장-14",
    "school": "여의도중학교",
    "jibun": "40-1",
    "kind": "운동장 지반",
    "dong": "여의도중학교 운동장",
    "facade": "지반",
    "floor": 0,
    "source": "배치도 경계(래스터 계측) + 분석지점도 격자",
    "z_m": 0.0,
    "normal_az": 180.0,
    "s1_total_h": 2.83,
    "s1_cont_h": 2.33,
    "s1_pass_a": true,
    "s1_pass_b": true,
    "s2_total_h": 2.0,
    "s2_cont_h": 0.83,
    "s2_pass_a": false,
    "s2_pass_b": false,
    "d_total_h": -0.83,
    "d_cont_h": -1.5,
    "change_cd": "new_fail",
    "변화": "신규 불충족"
   }
  },
  {
   "type": "Feature",
   "geometry": {
    "type": "Point",
    "coordinates": [
     194299.469,
     547138.185
    ]
   },
   "properties": {
    "pid": "여의도중학교 운동장-15",
    "school": "여의도중학교",
    "jibun": "40-1",
    "kind": "운동장 지반",
    "dong": "여의도중학교 운동장",
    "facade": "지반",
    "floor": 0,
    "source": "배치도 경계(래스터 계측) + 분석지점도 격자",
    "z_m": 0.0,
    "normal_az": 180.0,
    "s1_total_h": 3.67,
    "s1_cont_h": 2.83,
    "s1_pass_a": true,
    "s1_pass_b": true,
    "s2_total_h": 3.0,
    "s2_cont_h": 1.17,
    "s2_pass_a": false,
    "s2_pass_b": false,
    "d_total_h": -0.67,
    "d_cont_h": -1.66,
    "change_cd": "new_fail",
    "변화": "신규 불충족"
   }
  },
  {
   "type": "Feature",
   "geometry": {
    "type": "Point",
    "coordinates": [
     194293.94,
     547145.262
    ]
   },
   "properties": {
    "pid": "여의도중학교 운동장-16",
    "school": "여의도중학교",
    "jibun": "40-1",
    "kind": "운동장 지반",
    "dong": "여의도중학교 운동장",
    "facade": "지반",
    "floor": 0,
    "source": "배치도 경계(래스터 계측) + 분석지점도 격자",
    "z_m": 0.0,
    "normal_az": 180.0,
    "s1_total_h": 4.0,
    "s1_cont_h": 3.17,
    "s1_pass_a": true,
    "s1_pass_b": true,
    "s2_total_h": 3.33,
    "s2_cont_h": 1.33,
    "s2_pass_a": false,
    "s2_pass_b": false,
    "d_total_h": -0.67,
    "d_cont_h": -1.84,
    "change_cd": "new_fail",
    "변화": "신규 불충족"
   }
  },
  {
   "type": "Feature",
   "geometry": {
    "type": "Point",
    "coordinates": [
     194288.412,
     547152.338
    ]
   },
   "properties": {
    "pid": "여의도중학교 운동장-17",
    "school": "여의도중학교",
    "jibun": "40-1",
    "kind": "운동장 지반",
    "dong": "여의도중학교 운동장",
    "facade": "지반",
    "floor": 0,
    "source": "배치도 경계(래스터 계측) + 분석지점도 격자",
    "z_m": 0.0,
    "normal_az": 180.0,
    "s1_total_h": 4.33,
    "s1_cont_h": 3.5,
    "s1_pass_a": true,
    "s1_pass_b": true,
    "s2_total_h": 3.67,
    "s2_cont_h": 1.67,
    "s2_pass_a": false,
    "s2_pass_b": false,
    "d_total_h": -0.66,
    "d_cont_h": -1.83,
    "change_cd": "new_fail",
    "변화": "신규 불충족"
   }
  },
  {
   "type": "Feature",
   "geometry": {
    "type": "Point",
    "coordinates": [
     194277.701,
     547132.574
    ]
   },
   "properties": {
    "pid": "여의도중학교 운동장-41",
    "school": "여의도중학교",
    "jibun": "40-1",
    "kind": "운동장 지반",
    "dong": "여의도중학교 운동장",
    "facade": "지반",
    "floor": 0,
    "source": "배치도 경계(래스터 계측) + 분석지점도 격자",
    "z_m": 0.0,
    "normal_az": 180.0,
    "s1_total_h": 3.67,
    "s1_cont_h": 2.33,
    "s1_pass_a": true,
    "s1_pass_b": true,
    "s2_total_h": 3.0,
    "s2_cont_h": 1.0,
    "s2_pass_a": false,
    "s2_pass_b": false,
    "d_total_h": -0.67,
    "d_cont_h": -1.33,
    "change_cd": "new_fail",
    "변화": "신규 불충족"
   }
  },
  {
   "type": "Feature",
   "geometry": {
    "type": "Point",
    "coordinates": [
     194258.524,
     547140.383
    ]
   },
   "properties": {
    "pid": "여의도중학교 운동장-56",
    "school": "여의도중학교",
    "jibun": "40-1",
    "kind": "운동장 지반",
    "dong": "여의도중학교 운동장",
    "facade": "지반",
    "floor": 0,
    "source": "배치도 경계(래스터 계측) + 분석지점도 격자",
    "z_m": 0.0,
    "normal_az": 180.0,
    "s1_total_h": 3.83,
    "s1_cont_h": 3.5,
    "s1_pass_a": true,
    "s1_pass_b": true,
    "s2_total_h": 3.17,
    "s2_cont_h": 1.5,
    "s2_pass_a": false,
    "s2_pass_b": false,
    "d_total_h": -0.66,
    "d_cont_h": -2.0,
    "change_cd": "new_fail",
    "변화": "신규 불충족"
   }
  },
  {
   "type": "Feature",
   "geometry": {
    "type": "Point",
    "coordinates": [
     194252.995,
     547147.459
    ]
   },
   "properties": {
    "pid": "여의도중학교 운동장-57",
    "school": "여의도중학교",
    "jibun": "40-1",
    "kind": "운동장 지반",
    "dong": "여의도중학교 운동장",
    "facade": "지반",
    "floor": 0,
    "source": "배치도 경계(래스터 계측) + 분석지점도 격자",
    "z_m": 0.0,
    "normal_az": 180.0,
    "s1_total_h": 4.0,
    "s1_cont_h": 3.83,
    "s1_pass_a": true,
    "s1_pass_b": true,
    "s2_total_h": 3.33,
    "s2_cont_h": 1.67,
    "s2_pass_a": false,
    "s2_pass_b": false,
    "d_total_h": -0.67,
    "d_cont_h": -2.16,
    "change_cd": "new_fail",
    "변화": "신규 불충족"
   }
  },
  {
   "type": "Feature",
   "geometry": {
    "type": "Point",
    "coordinates": [
     194250.404,
     547134.039
    ]
   },
   "properties": {
    "pid": "여의도중학교 운동장-69",
    "school": "여의도중학교",
    "jibun": "40-1",
    "kind": "운동장 지반",
    "dong": "여의도중학교 운동장",
    "facade": "지반",
    "floor": 0,
    "source": "배치도 경계(래스터 계측) + 분석지점도 격자",
    "z_m": 0.0,
    "normal_az": 180.0,
    "s1_total_h": 3.0,
    "s1_cont_h": 2.0,
    "s1_pass_a": true,
    "s1_pass_b": true,
    "s2_total_h": 2.5,
    "s2_cont_h": 1.5,
    "s2_pass_a": false,
    "s2_pass_b": false,
    "d_total_h": -0.5,
    "d_cont_h": -0.5,
    "change_cd": "new_fail",
    "변화": "신규 불충족"
   }
  },
  {
   "type": "Feature",
   "geometry": {
    "type": "Point",
    "coordinates": [
     194244.876,
     547141.115
    ]
   },
   "properties": {
    "pid": "여의도중학교 운동장-70",
    "school": "여의도중학교",
    "jibun": "40-1",
    "kind": "운동장 지반",
    "dong": "여의도중학교 운동장",
    "facade": "지반",
    "floor": 0,
    "source": "배치도 경계(래스터 계측) + 분석지점도 격자",
    "z_m": 0.0,
    "normal_az": 180.0,
    "s1_total_h": 3.67,
    "s1_cont_h": 3.67,
    "s1_pass_a": true,
    "s1_pass_b": true,
    "s2_total_h": 3.0,
    "s2_cont_h": 1.5,
    "s2_pass_a": false,
    "s2_pass_b": false,
    "d_total_h": -0.67,
    "d_cont_h": -2.17,
    "change_cd": "new_fail",
    "변화": "신규 불충족"
   }
  },
  {
   "type": "Feature",
   "geometry": {
    "type": "Point",
    "coordinates": [
     194239.347,
     547148.192
    ]
   },
   "properties": {
    "pid": "여의도중학교 운동장-71",
    "school": "여의도중학교",
    "jibun": "40-1",
    "kind": "운동장 지반",
    "dong": "여의도중학교 운동장",
    "facade": "지반",
    "floor": 0,
    "source": "배치도 경계(래스터 계측) + 분석지점도 격자",
    "z_m": 0.0,
    "normal_az": 180.0,
    "s1_total_h": 3.33,
    "s1_cont_h": 3.33,
    "s1_pass_a": true,
    "s1_pass_b": true,
    "s2_total_h": 2.67,
    "s2_cont_h": 1.5,
    "s2_pass_a": false,
    "s2_pass_b": false,
    "d_total_h": -0.66,
    "d_cont_h": -1.83,
    "change_cd": "new_fail",
    "변화": "신규 불충족"
   }
  },
  {
   "type": "Feature",
   "geometry": {
    "type": "Point",
    "coordinates": [
     194233.818,
     547155.268
    ]
   },
   "properties": {
    "pid": "여의도중학교 운동장-72",
    "school": "여의도중학교",
    "jibun": "40-1",
    "kind": "운동장 지반",
    "dong": "여의도중학교 운동장",
    "facade": "지반",
    "floor": 0,
    "source": "배치도 경계(래스터 계측) + 분석지점도 격자",
    "z_m": 0.0,
    "normal_az": 180.0,
    "s1_total_h": 3.17,
    "s1_cont_h": 3.17,
    "s1_pass_a": true,
    "s1_pass_b": true,
    "s2_total_h": 2.5,
    "s2_cont_h": 1.67,
    "s2_pass_a": false,
    "s2_pass_b": false,
    "d_total_h": -0.67,
    "d_cont_h": -1.5,
    "change_cd": "new_fail",
    "변화": "신규 불충족"
   }
  },
  {
   "type": "Feature",
   "geometry": {
    "type": "Point",
    "coordinates": [
     194211.704,
     547183.574
    ]
   },
   "properties": {
    "pid": "여의도중학교 운동장-76",
    "school": "여의도중학교",
    "jibun": "40-1",
    "kind": "운동장 지반",
    "dong": "여의도중학교 운동장",
    "facade": "지반",
    "floor": 0,
    "source": "배치도 경계(래스터 계측) + 분석지점도 격자",
    "z_m": 0.0,
    "normal_az": 180.0,
    "s1_total_h": 3.17,
    "s1_cont_h": 3.17,
    "s1_pass_a": true,
    "s1_pass_b": true,
    "s2_total_h": 2.5,
    "s2_cont_h": 1.83,
    "s2_pass_a": false,
    "s2_pass_b": false,
    "d_total_h": -0.67,
    "d_cont_h": -1.34,
    "change_cd": "new_fail",
    "변화": "신규 불충족"
   }
  },
  {
   "type": "Feature",
   "geometry": {
    "type": "Point",
    "coordinates": [
     194299.725,
     547015.037
    ]
   },
   "properties": {
    "pid": "A동(3층) A동 남동면 1층-2",
    "school": "여의도여자고등학교",
    "jibun": "40-2",
    "kind": "교사동 창면",
    "dong": "A동(3층)",
    "facade": "A동 남동면",
    "floor": 1,
    "source": "도면기준",
    "z_m": 2.3,
    "normal_az": 142.1,
    "s1_total_h": 2.67,
    "s1_cont_h": 2.67,
    "s1_pass_a": true,
    "s1_pass_b": true,
    "s2_total_h": 2.17,
    "s2_cont_h": 1.5,
    "s2_pass_a": false,
    "s2_pass_b": false,
    "d_total_h": -0.5,
    "d_cont_h": -1.17,
    "change_cd": "new_fail",
    "변화": "신규 불충족"
   }
  },
  {
   "type": "Feature",
   "geometry": {
    "type": "Point",
    "coordinates": [
     194299.725,
     547015.037
    ]
   },
   "properties": {
    "pid": "A동(3층) A동 남동면 2층-2",
    "school": "여의도여자고등학교",
    "jibun": "40-2",
    "kind": "교사동 창면",
    "dong": "A동(3층)",
    "facade": "A동 남동면",
    "floor": 2,
    "source": "도면기준",
    "z_m": 6.3,
    "normal_az": 142.1,
    "s1_total_h": 3.0,
    "s1_cont_h": 3.0,
    "s1_pass_a": true,
    "s1_pass_b": true,
    "s2_total_h": 2.17,
    "s2_cont_h": 1.5,
    "s2_pass_a": false,
    "s2_pass_b": false,
    "d_total_h": -0.83,
    "d_cont_h": -1.5,
    "change_cd": "new_fail",
    "변화": "신규 불충족"
   }
  },
  {
   "type": "Feature",
   "geometry": {
    "type": "Point",
    "coordinates": [
     194303.275,
     547017.802
    ]
   },
   "properties": {
    "pid": "A동(3층) A동 남동면 1층-3",
    "school": "여의도여자고등학교",
    "jibun": "40-2",
    "kind": "교사동 창면",
    "dong": "A동(3층)",
    "facade": "A동 남동면",
    "floor": 1,
    "source": "도면기준",
    "z_m": 2.3,
    "normal_az": 142.1,
    "s1_total_h": 2.67,
    "s1_cont_h": 2.67,
    "s1_pass_a": true,
    "s1_pass_b": true,
    "s2_total_h": 2.67,
    "s2_cont_h": 1.5,
    "s2_pass_a": false,
    "s2_pass_b": false,
    "d_total_h": 0.0,
    "d_cont_h": -1.17,
    "change_cd": "new_fail",
    "변화": "신규 불충족"
   }
  },
  {
   "type": "Feature",
   "geometry": {
    "type": "Point",
    "coordinates": [
     194303.275,
     547017.802
    ]
   },
   "properties": {
    "pid": "A동(3층) A동 남동면 2층-3",
    "school": "여의도여자고등학교",
    "jibun": "40-2",
    "kind": "교사동 창면",
    "dong": "A동(3층)",
    "facade": "A동 남동면",
    "floor": 2,
    "source": "도면기준",
    "z_m": 6.3,
    "normal_az": 142.1,
    "s1_total_h": 3.17,
    "s1_cont_h": 3.17,
    "s1_pass_a": true,
    "s1_pass_b": true,
    "s2_total_h": 2.67,
    "s2_cont_h": 1.5,
    "s2_pass_a": false,
    "s2_pass_b": false,
    "d_total_h": -0.5,
    "d_cont_h": -1.67,
    "change_cd": "new_fail",
    "변화": "신규 불충족"
   }
  },
  {
   "type": "Feature",
   "geometry": {
    "type": "Point",
    "coordinates": [
     194301.263,
     547016.235
    ]
   },
   "properties": {
    "pid": "A동(3층) A동 남동면 3층-2",
    "school": "여의도여자고등학교",
    "jibun": "40-2",
    "kind": "교사동 창면",
    "dong": "A동(3층)",
    "facade": "A동 남동면",
    "floor": 3,
    "source": "도면기준",
    "z_m": 10.3,
    "normal_az": 142.1,
    "s1_total_h": 3.67,
    "s1_cont_h": 3.67,
    "s1_pass_a": true,
    "s1_pass_b": true,
    "s2_total_h": 2.33,
    "s2_cont_h": 1.33,
    "s2_pass_a": false,
    "s2_pass_b": false,
    "d_total_h": -1.34,
    "d_cont_h": -2.34,
    "change_cd": "new_fail",
    "변화": "신규 불충족"
   }
  },
  {
   "type": "Feature",
   "geometry": {
    "type": "Point",
    "coordinates": [
     194264.387,
     547073.048
    ]
   },
   "properties": {
    "pid": "여의도여자고등학교 ②(5층) 1층-2",
    "school": "여의도여자고등학교",
    "jibun": "40-2",
    "kind": "교사동 창면",
    "dong": "여의도여자고등학교 ②(5층)",
    "facade": "남향외벽",
    "floor": 1,
    "source": "일반식",
    "z_m": 1.2,
    "normal_az": 232.4,
    "s1_total_h": 3.67,
    "s1_cont_h": 3.17,
    "s1_pass_a": true,
    "s1_pass_b": true,
    "s2_total_h": 2.33,
    "s2_cont_h": 1.83,
    "s2_pass_a": false,
    "s2_pass_b": false,
    "d_total_h": -1.34,
    "d_cont_h": -1.34,
    "change_cd": "new_fail",
    "변화": "신규 불충족"
   }
  },
  {
   "type": "Feature",
   "geometry": {
    "type": "Point",
    "coordinates": [
     194264.387,
     547073.048
    ]
   },
   "properties": {
    "pid": "여의도여자고등학교 ②(5층) 2층-2",
    "school": "여의도여자고등학교",
    "jibun": "40-2",
    "kind": "교사동 창면",
    "dong": "여의도여자고등학교 ②(5층)",
    "facade": "남향외벽",
    "floor": 2,
    "source": "일반식",
    "z_m": 4.7,
    "normal_az": 232.4,
    "s1_total_h": 3.67,
    "s1_cont_h": 3.17,
    "s1_pass_a": true,
    "s1_pass_b": true,
    "s2_total_h": 2.33,
    "s2_cont_h": 1.83,
    "s2_pass_a": false,
    "s2_pass_b": false,
    "d_total_h": -1.34,
    "d_cont_h": -1.34,
    "change_cd": "new_fail",
    "변화": "신규 불충족"
   }
  },
  {
   "type": "Feature",
   "geometry": {
    "type": "Point",
    "coordinates": [
     194264.387,
     547073.048
    ]
   },
   "properties": {
    "pid": "여의도여자고등학교 ②(5층) 3층-2",
    "school": "여의도여자고등학교",
    "jibun": "40-2",
    "kind": "교사동 창면",
    "dong": "여의도여자고등학교 ②(5층)",
    "facade": "남향외벽",
    "floor": 3,
    "source": "일반식",
    "z_m": 8.2,
    "normal_az": 232.4,
    "s1_total_h": 3.67,
    "s1_cont_h": 3.17,
    "s1_pass_a": true,
    "s1_pass_b": true,
    "s2_total_h": 2.33,
    "s2_cont_h": 1.83,
    "s2_pass_a": false,
    "s2_pass_b": false,
    "d_total_h": -1.34,
    "d_cont_h": -1.34,
    "change_cd": "new_fail",
    "변화": "신규 불충족"
   }
  },
  {
   "type": "Feature",
   "geometry": {
    "type": "Point",
    "coordinates": [
     194264.387,
     547073.048
    ]
   },
   "properties": {
    "pid": "여의도여자고등학교 ②(5층) 4층-2",
    "school": "여의도여자고등학교",
    "jibun": "40-2",
    "kind": "교사동 창면",
    "dong": "여의도여자고등학교 ②(5층)",
    "facade": "남향외벽",
    "floor": 4,
    "source": "일반식",
    "z_m": 11.7,
    "normal_az": 232.4,
    "s1_total_h": 3.67,
    "s1_cont_h": 3.17,
    "s1_pass_a": true,
    "s1_pass_b": true,
    "s2_total_h": 2.33,
    "s2_cont_h": 1.83,
    "s2_pass_a": false,
    "s2_pass_b": false,
    "d_total_h": -1.34,
    "d_cont_h": -1.34,
    "change_cd": "new_fail",
    "변화": "신규 불충족"
   }
  },
  {
   "type": "Feature",
   "geometry": {
    "type": "Point",
    "coordinates": [
     194264.387,
     547073.048
    ]
   },
   "properties": {
    "pid": "여의도여자고등학교 ②(5층) 5층-2",
    "school": "여의도여자고등학교",
    "jibun": "40-2",
    "kind": "교사동 창면",
    "dong": "여의도여자고등학교 ②(5층)",
    "facade": "남향외벽",
    "floor": 5,
    "source": "일반식",
    "z_m": 15.2,
    "normal_az": 232.4,
    "s1_total_h": 3.67,
    "s1_cont_h": 3.17,
    "s1_pass_a": true,
    "s1_pass_b": true,
    "s2_total_h": 2.33,
    "s2_cont_h": 1.83,
    "s2_pass_a": false,
    "s2_pass_b": false,
    "d_total_h": -1.34,
    "d_cont_h": -1.34,
    "change_cd": "new_fail",
    "변화": "신규 불충족"
   }
  },
  {
   "type": "Feature",
   "geometry": {
    "type": "Point",
    "coordinates": [
     194288.838,
     547043.885
    ]
   },
   "properties": {
    "pid": "여의도여자고등학교 ②(5층) 4층-10",
    "school": "여의도여자고등학교",
    "jibun": "40-2",
    "kind": "교사동 창면",
    "dong": "여의도여자고등학교 ②(5층)",
    "facade": "남향외벽",
    "floor": 4,
    "source": "일반식",
    "z_m": 11.7,
    "normal_az": 138.5,
    "s1_total_h": 4.33,
    "s1_cont_h": 3.67,
    "s1_pass_a": true,
    "s1_pass_b": true,
    "s2_total_h": 3.67,
    "s2_cont_h": 1.83,
    "s2_pass_a": false,
    "s2_pass_b": false,
    "d_total_h": -0.66,
    "d_cont_h": -1.84,
    "change_cd": "new_fail",
    "변화": "신규 불충족"
   }
  },
  {
   "type": "Feature",
   "geometry": {
    "type": "Point",
    "coordinates": [
     194290.337,
     547043.302
    ]
   },
   "properties": {
    "pid": "여의도여자고등학교 ②(5층) 4층-11",
    "school": "여의도여자고등학교",
    "jibun": "40-2",
    "kind": "교사동 창면",
    "dong": "여의도여자고등학교 ②(5층)",
    "facade": "남향외벽",
    "floor": 4,
    "source": "일반식",
    "z_m": 11.7,
    "normal_az": 228.9,
    "s1_total_h": 3.83,
    "s1_cont_h": 3.83,
    "s1_pass_a": true,
    "s1_pass_b": true,
    "s2_total_h": 2.33,
    "s2_cont_h": 1.83,
    "s2_pass_a": false,
    "s2_pass_b": false,
    "d_total_h": -1.5,
    "d_cont_h": -2.0,
    "change_cd": "new_fail",
    "변화": "신규 불충족"
   }
  },
  {
   "type": "Feature",
   "geometry": {
    "type": "Point",
    "coordinates": [
     194290.337,
     547043.302
    ]
   },
   "properties": {
    "pid": "여의도여자고등학교 ②(5층) 5층-11",
    "school": "여의도여자고등학교",
    "jibun": "40-2",
    "kind": "교사동 창면",
    "dong": "여의도여자고등학교 ②(5층)",
    "facade": "남향외벽",
    "floor": 5,
    "source": "일반식",
    "z_m": 15.2,
    "normal_az": 228.9,
    "s1_total_h": 4.83,
    "s1_cont_h": 4.17,
    "s1_pass_a": true,
    "s1_pass_b": true,
    "s2_total_h": 3.0,
    "s2_cont_h": 1.83,
    "s2_pass_a": false,
    "s2_pass_b": false,
    "d_total_h": -1.83,
    "d_cont_h": -2.34,
    "change_cd": "new_fail",
    "변화": "신규 불충족"
   }
  },
  {
   "type": "Feature",
   "geometry": {
    "type": "Point",
    "coordinates": [
     194295.023,
     547044.139
    ]
   },
   "properties": {
    "pid": "여의도여자고등학교 ②(5층) 4층-12",
    "school": "여의도여자고등학교",
    "jibun": "40-2",
    "kind": "교사동 창면",
    "dong": "여의도여자고등학교 ②(5층)",
    "facade": "남향외벽",
    "floor": 4,
    "source": "일반식",
    "z_m": 11.7,
    "normal_az": 142.3,
    "s1_total_h": 3.0,
    "s1_cont_h": 2.67,
    "s1_pass_a": true,
    "s1_pass_b": true,
    "s2_total_h": 2.0,
    "s2_cont_h": 1.67,
    "s2_pass_a": false,
    "s2_pass_b": false,
    "d_total_h": -1.0,
    "d_cont_h": -1.0,
    "change_cd": "new_fail",
    "변화": "신규 불충족"
   }
  },
  {
   "type": "Feature",
   "geometry": {
    "type": "Point",
    "coordinates": [
     194421.229,
     547061.56
    ]
   },
   "properties": {
    "pid": "별관(5층) 5층-12",
    "school": "여의도초등학교",
    "jibun": "40-3",
    "kind": "교사동 창면",
    "dong": "별관(5층)",
    "facade": "별관(5층)",
    "floor": 5,
    "source": "도면기준",
    "z_m": 14.75,
    "normal_az": 231.9,
    "s1_total_h": 2.5,
    "s1_cont_h": 2.5,
    "s1_pass_a": true,
    "s1_pass_b": false,
    "s2_total_h": 1.5,
    "s2_cont_h": 1.5,
    "s2_pass_a": false,
    "s2_pass_b": false,
    "d_total_h": -1.0,
    "d_cont_h": -1.0,
    "change_cd": "new_fail",
    "변화": "신규 불충족"
   }
  }
 ],
 "crs": {
  "type": "name",
  "properties": {
   "name": "urn:ogc:def:crs:EPSG::5186"
  }
 }
}