{
 "type": "FeatureCollection",
 "features": [
  {
   "type": "Feature",
   "geometry": {
    "type": "Polygon",
    "coordinates": [
     [
      [
       194067.777,
       547302.132
      ],
      [
       194059.777,
       547302.132
      ],
      [
       194059.777,
       547310.132
      ],
      [
       194059.777,
       547318.132
      ],
      [
       194059.777,
       547326.132
      ],
      [
       194059.777,
       547334.132
      ],
      [
       194067.777,
       547334.132
      ],
      [
       194067.777,
       547342.132
      ],
      [
       194067.777,
       547350.132
      ],
      [
       194075.777,
       547350.132
      ],
      [
       194083.777,
       547350.132
      ],
      [
       194083.777,
       547342.132
      ],
      [
       194083.777,
       547334.132
      ],
      [
       194083.777,
       547326.132
      ],
      [
       194091.777,
       547326.132
      ],
      [
       194091.777,
       547334.132
      ],
      [
       194099.777,
       547334.132
      ],
      [
       194099.777,
       547342.132
      ],
      [
       194107.777,
       547342.132
      ],
      [
       194115.777,
       547342.132
      ],
      [
       194115.777,
       547350.132
      ],
      [
       194115.777,
       547358.132
      ],
      [
       194107.777,
       547358.132
      ],
      [
       194099.777,
       547358.132
      ],
      [
       194099.777,
       547366.132
      ],
      [
       194107.777,
       547366.132
      ],
      [
       194107.777,
       547374.132
      ],
      [
       194115.777,
       547374.132
      ],
      [
       194115.777,
       547382.132
      ],
      [
       194115.777,
       547390.132
      ],
      [
       194123.777,
       547390.132
      ],
      [
       194131.777,
       547390.132
      ],
      [
       194139.777,
       547390.132
      ],
      [
       194147.777,
       547390.132
      ],
      [
       194147.777,
       547382.132
      ],
      [
       194155.777,
       547382.132
      ],
      [
       194163.777,
       547382.132
      ],
      [
       194171.777,
       547382.132
      ],
      [
       194179.777,
       547382.132
      ],
      [
       194187.777,
       547382.132
      ],
      [
       194195.777,
       547382.132
      ],
      [
       194203.777,
       547382.132
      ],
      [
       194203.777,
       547374.132
      ],
      [
       194203.777,
       547366.132
      ],
      [
       194211.777,
       547366.132
      ],
      [
       194219.777,
       547366.132
      ],
      [
       194219.777,
       547358.132
      ],
      [
       194227.777,
       547358.132
      ],
      [
       194227.777,
       547350.132
      ],
      [
       194227.777,
       547342.132
      ],
      [
       194235.777,
       547342.132
      ],
      [
       194235.777,
       547334.132
      ],
      [
       194243.777,
       547334.132
      ],
      [
       194251.777,
       547334.132
      ],
      [
       194251.777,
       547326.132
      ],
      [
       194259.777,
       547326.132
      ],
      [
       194267.777,
       547326.132
      ],
      [
       194267.777,
       547318.132
      ],
      [
       194275.777,
       547318.132
      ],
      [
       194275.777,
       547310.132
      ],
      [
       194275.777,
       547302.132
      ],
      [
       194275.777,
       547294.132
      ],
      [
       194275.777,
       547286.132
      ],
      [
       194275.777,
       547278.132
      ],
      [
       194275.777,
       547270.132
      ],
      [
       194275.777,
       547262.132
      ],
      [
       194267.777,
       547262.132
      ],
      [
       194267.777,
       547254.132
      ],
      [
       194267.777,
       547246.132
      ],
      [
       194259.777,
       547246.132
      ],
      [
       194259.777,
       547238.132
      ],
      [
       194251.777,
       547238.132
      ],
      [
       194251.777,
       547230.132
      ],
      [
       194243.777,
       547230.132
      ],
      [
       194243.777,
       547222.132
      ],
      [
       194243.777,
       547214.132
      ],
      [
       194243.777,
       547206.132
      ],
      [
       194243.777,
       547198.132
      ],
      [
       194235.777,
       547198.132
      ],
      [
       194235.777,
       547190.132
      ],
      [
       194235.777,
       547182.132
      ],
      [
       194227.777,
       547182.132
      ],
      [
       194219.777,
       547182.132
      ],
      [
       194219.777,
       547190.132
      ],
      [
       194211.777,
       547190.132
      ],
      [
       194203.777,
       547190.132
      ],
      [
       194195.777,
       547190.132
      ],
      [
       194187.777,
       547190.132
      ],
      [
       194179.777,
       547190.132
      ],
      [
       194179.777,
       547182.132
      ],
      [
       194171.777,
       547182.132
      ],
      [
       194163.777,
       547182.132
      ],
      [
       194155.777,
       547182.132
      ],
      [
       194147.777,
       547182.132
      ],
      [
       194139.777,
       547182.132
      ],
      [
       194139.777,
       547190.132
      ],
      [
       194131.777,
       547190.132
      ],
      [
       194131.777,
       547198.132
      ],
      [
       194131.777,
       547206.132
      ],
      [
       194131.777,
       547214.132
      ],
      [
       194123.777,
       547214.132
      ],
      [
       194123.777,
       547222.132
      ],
      [
       194123.777,
       547230.132
      ],
      [
       194123.777,
       547238.132
      ],
      [
       194123.777,
       547246.132
      ],
      [
       194123.777,
       547254.132
      ],
      [
       194123.777,
       547262.132
      ],
      [
       194123.777,
       547270.132
      ],
      [
       194115.777,
       547270.132
      ],
      [
       194115.777,
       547278.132
      ],
      [
       194107.777,
       547278.132
      ],
      [
       194099.777,
       547278.132
      ],
      [
       194099.777,
       547286.132
      ],
      [
       194091.777,
       547286.132
      ],
      [
       194083.777,
       547286.132
      ],
      [
       194083.777,
       547294.132
      ],
      [
       194075.777,
       547294.132
      ],
      [
       194067.777,
       547294.132
      ],
      [
       194067.777,
       547302.132
      ]
     ],
     [
      [
       194155.777,
       547334.132
      ],
      [
       194155.777,
       547342.132
      ],
      [
       194147.777,
       547342.132
      ],
      [
       194147.777,
       547350.132
      ],
      [
       194139.777,
       547350.132
      ],
      [
       194139.777,
       547358.132
      ],
      [
       194131.777,
       547358.132
      ],
      [
       194131.777,
       547366.132
      ],
      [
       194123.777,
       547366.132
      ],
      [
       194123.777,
       547358.132
      ],
      [
       194123.777,
       547350.132
      ],
      [
       194131.777,
       547350.132
      ],
      [
       194131.777,
       547342.132
      ],
      [
       194131.777,
       547334.132
      ],
      [
       194139.777,
       547334.132
      ],
      [
       194139.777,
       547326.132
      ],
      [
       194147.777,
       547326.132
      ],
      [
       194147.777,
       547318.132
      ],
      [
       194155.777,
       547318.132
      ],
      [
       194155.777,
       547310.132
      ],
      [
       194155.777,
       547302.132
      ],
      [
       194155.777,
       547294.132
      ],
      [
       194163.777,
       547294.132
      ],
      [
       194171.777,
       547294.132
      ],
      [
       194171.777,
       547286.132
      ],
      [
       194179.777,
       547286.132
      ],
      [
       194179.777,
       547278.132
      ],
      [
       194187.777,
       547278.132
      ],
      [
       194187.777,
       547270.132
      ],
      [
       194187.777,
       547262.132
      ],
      [
       194195.777,
       547262.132
      ],
      [
       194195.777,
       547254.132
      ],
      [
       194203.777,
       547254.132
      ],
      [
       194203.777,
       547246.132
      ],
      [
       194195.777,
       547246.132
      ],
      [
       194195.777,
       547238.132
      ],
      [
       194195.777,
       547230.132
      ],
      [
       194203.777,
       547230.132
      ],
      [
       194203.777,
       547222.132
      ],
      [
       194211.777,
       547222.132
      ],
      [
       194211.777,
       547230.132
      ],
      [
       194219.777,
       547230.132
      ],
      [
       194219.777,
       547238.132
      ],
      [
       194227.777,
       547238.132
      ],
      [
       194227.777,
       547246.132
      ],
      [
       194235.777,
       547246.132
      ],
      [
       194243.777,
       547246.132
      ],
      [
       194243.777,
       547254.132
      ],
      [
       194243.777,
       547262.132
      ],
      [
       194235.777,
       547262.132
      ],
      [
       194235.777,
       547270.132
      ],
      [
       194235.777,
       547278.132
      ],
      [
       194227.777,
       547278.132
      ],
      [
       194219.777,
       547278.132
      ],
      [
       194219.777,
       547270.132
      ],
      [
       194211.777,
       547270.132
      ],
      [
       194203.777,
       547270.132
      ],
      [
       194203.777,
       547278.132
      ],
      [
       194203.777,
       547286.132
      ],
      [
       194195.777,
       547286.132
      ],
      [
       194187.777,
       547286.132
      ],
      [
       194187.777,
       547294.132
      ],
      [
       194187.777,
       547302.132
      ],
      [
       194187.777,
       547310.132
      ],
      [
       194179.777,
       547310.132
      ],
      [
       194179.777,
       547318.132
      ],
      [
       194171.777,
       547318.132
      ],
      [
       194171.777,
       547326.132
      ],
      [
       194163.777,
       547326.132
      ],
      [
       194163.777,
       547334.132
      ],
      [
       194155.777,
       547334.132
      ]
     ],
     [
      [
       194179.777,
       547230.132
      ],
      [
       194179.777,
       547238.132
      ],
      [
       194171.777,
       547238.132
      ],
      [
       194171.777,
       547230.132
      ],
      [
       194163.777,
       547230.132
      ],
      [
       194163.777,
       547222.132
      ],
      [
       194155.777,
       547222.132
      ],
      [
       194155.777,
       547214.132
      ],
      [
       194155.777,
       547206.132
      ],
      [
       194163.777,
       547206.132
      ],
      [
       194171.777,
       547206.132
      ],
      [
       194179.777,
       547206.132
      ],
      [
       194179.777,
       547214.132
      ],
      [
       194187.777,
       547214.132
      ],
      [
       194187.777,
       547222.132
      ],
      [
       194187.777,
       547230.132
      ],
      [
       194179.777,
       547230.132
      ]
     ],
     [
      [
       194195.777,
       547302.132
      ],
      [
       194203.777,
       547302.132
      ],
      [
       194203.777,
       547310.132
      ],
      [
       194195.777,
       547310.132
      ],
      [
       194195.777,
       547302.132
      ]
     ]
    ]
   },
   "properties": {
    "label": "여의도고등학교 운동장",
    "kind": "운동장(옥외지반 근사)"
   }
  },
  {
   "type": "Feature",
   "geometry": {
    "type": "Polygon",
    "coordinates": [
     [
      [
       194083.777,
       547358.132
      ],
      [
       194091.777,
       547358.132
      ],
      [
       194099.777,
       547358.132
      ],
      [
       194099.777,
       547350.132
      ],
      [
       194091.777,
       547350.132
      ],
      [
       194083.777,
       547350.132
      ],
      [
       194083.777,
       547358.132
      ]
     ]
    ]
   },
   "properties": {
    "label": "여의도고등학교 운동장",
    "kind": "운동장(옥외지반 근사)"
   }
  },
  {
   "type": "Feature",
   "geometry": {
    "type": "Polygon",
    "coordinates": [
     [
      [
       194251.777,
       547166.132
      ],
      [
       194243.777,
       547166.132
      ],
      [
       194243.777,
       547174.132
      ],
      [
       194243.777,
       547182.132
      ],
      [
       194235.777,
       547182.132
      ],
      [
       194235.777,
       547190.132
      ],
      [
       194235.777,
       547198.132
      ],
      [
       194243.777,
       547198.132
      ],
      [
       194243.777,
       547206.132
      ],
      [
       194243.777,
       547214.132
      ],
      [
       194243.777,
       547222.132
      ],
      [
       194243.777,
       547230.132
      ],
      [
       194251.777,
       547230.132
      ],
      [
       194251.777,
       547238.132
      ],
      [
       194259.777,
       547238.132
      ],
      [
       194259.777,
       547246.132
      ],
      [
       194267.777,
       547246.132
      ],
      [
       194267.777,
       547254.132
      ],
      [
       194267.777,
       547262.132
      ],
      [
       194275.777,
       547262.132
      ],
      [
       194283.777,
       547262.132
      ],
      [
       194283.777,
       547254.132
      ],
      [
       194291.777,
       547254.132
      ],
      [
       194291.777,
       547246.132
      ],
      [
       194299.777,
       547246.132
      ],
      [
       194299.777,
       547238.132
      ],
      [
       194307.777,
       547238.132
      ],
      [
       194307.777,
       547230.132
      ],
      [
       194315.777,
       547230.132
      ],
      [
       194315.777,
       547222.132
      ],
      [
       194323.777,
       547222.132
      ],
      [
       194331.777,
       547222.132
      ],
      [
       194331.777,
       547214.132
      ],
      [
       194339.777,
       547214.132
      ],
      [
       194339.777,
       547206.132
      ],
      [
       194339.777,
       547198.132
      ],
      [
       194339.777,
       547190.132
      ],
      [
       194347.777,
       547190.132
      ],
      [
       194347.777,
       547182.132
      ],
      [
       194355.777,
       547182.132
      ],
      [
       194355.777,
       547174.132
      ],
      [
       194363.777,
       547174.132
      ],
      [
       194363.777,
       547166.132
      ],
      [
       194371.777,
       547166.132
      ],
      [
       194371.777,
       547158.132
      ],
      [
       194379.777,
       547158.132
      ],
      [
       194379.777,
       547150.132
      ],
      [
       194387.777,
       547150.132
      ],
      [
       194395.777,
       547150.132
      ],
      [
       194395.777,
       547142.132
      ],
      [
       194387.777,
       547142.132
      ],
      [
       194387.777,
       547134.132
      ],
      [
       194387.777,
       547126.132
      ],
      [
       194387.777,
       547118.132
      ],
      [
       194379.777,
       547118.132
      ],
      [
       194379.777,
       547110.132
      ],
      [
       194371.777,
       547110.132
      ],
      [
       194371.777,
       547102.132
      ],
      [
       194363.777,
       547102.132
      ],
      [
       194363.777,
       547094.132
      ],
      [
       194363.777,
       547086.132
      ],
      [
       194363.777,
       547078.132
      ],
      [
       194363.777,
       547070.132
      ],
      [
       194371.777,
       547070.132
      ],
      [
       194371.777,
       547062.132
      ],
      [
       194371.777,
       547054.132
      ],
      [
       194371.777,
       547046.132
      ],
      [
       194371.777,
       547038.132
      ],
      [
       194363.777,
       547038.132
      ],
      [
       194355.777,
       547038.132
      ],
      [
       194347.777,
       547038.132
      ],
      [
       194347.777,
       547046.132
      ],
      [
       194339.777,
       547046.132
      ],
      [
       194331.777,
       547046.132
      ],
      [
       194323.777,
       547046.132
      ],
      [
       194315.777,
       547046.132
      ],
      [
       194315.777,
       547054.132
      ],
      [
       194323.777,
       547054.132
      ],
      [
       194323.777,
       547062.132
      ],
      [
       194331.777,
       547062.132
      ],
      [
       194331.777,
       547070.132
      ],
      [
       194339.777,
       547070.132
      ],
      [
       194339.777,
       547078.132
      ],
      [
       194347.777,
       547078.132
      ],
      [
       194347.777,
       547086.132
      ],
      [
       194347.777,
       547094.132
      ],
      [
       194355.777,
       547094.132
      ],
      [
       194355.777,
       547102.132
      ],
      [
       194347.777,
       547102.132
      ],
      [
       194347.777,
       547110.132
      ],
      [
       194347.777,
       547118.132
      ],
      [
       194339.777,
       547118.132
      ],
      [
       194339.777,
       547126.132
      ],
      [
       194331.777,
       547126.132
      ],
      [
       194323.777,
       547126.132
      ],
      [
       194315.777,
       547126.132
      ],
      [
       194315.777,
       547118.132
      ],
      [
       194315.777,
       547110.132
      ],
      [
       194315.777,
       547102.132
      ],
      [
       194315.777,
       547094.132
      ],
      [
       194307.777,
       547094.132
      ],
      [
       194307.777,
       547102.132
      ],
      [
       194299.777,
       547102.132
      ],
      [
       194291.777,
       547102.132
      ],
      [
       194291.777,
       547110.132
      ],
      [
       194291.777,
       547118.132
      ],
      [
       194283.777,
       547118.132
      ],
      [
       194283.777,
       547126.132
      ],
      [
       194283.777,
       547134.132
      ],
      [
       194275.777,
       547134.132
      ],
      [
       194275.777,
       547142.132
      ],
      [
       194267.777,
       547142.132
      ],
      [
       194267.777,
       547150.132
      ],
      [
       194259.777,
       547150.132
      ],
      [
       194259.777,
       547158.132
      ],
      [
       194251.777,
       547158.132
      ],
      [
       194251.777,
       547166.132
      ]
     ],
     [
      [
       194371.777,
       547118.132
      ],
      [
       194371.777,
       547126.132
      ],
      [
       194363.777,
       547126.132
      ],
      [
       194363.777,
       547134.132
      ],
      [
       194363.777,
       547142.132
      ],
      [
       194355.777,
       547142.132
      ],
      [
       194347.777,
       547142.132
      ],
      [
       194347.777,
       547150.132
      ],
      [
       194355.777,
       547150.132
      ],
      [
       194355.777,
       547158.132
      ],
      [
       194347.777,
       547158.132
      ],
      [
       194347.777,
       547166.132
      ],
      [
       194339.777,
       547166.132
      ],
      [
       194331.777,
       547166.132
      ],
      [
       194331.777,
       547174.132
      ],
      [
       194323.777,
       547174.132
      ],
      [
       194323.777,
       547182.132
      ],
      [
       194323.777,
       547190.132
      ],
      [
       194315.777,
       547190.132
      ],
      [
       194315.777,
       547198.132
      ],
      [
       194307.777,
       547198.132
      ],
      [
       194307.777,
       547206.132
      ],
      [
       194299.777,
       547206.132
      ],
      [
       194299.777,
       547214.132
      ],
      [
       194291.777,
       547214.132
      ],
      [
       194291.777,
       547222.132
      ],
      [
       194283.777,
       547222.132
      ],
      [
       194283.777,
       547230.132
      ],
      [
       194275.777,
       547230.132
      ],
      [
       194275.777,
       547222.132
      ],
      [
       194275.777,
       547214.132
      ],
      [
       194283.777,
       547214.132
      ],
      [
       194283.777,
       547206.132
      ],
      [
       194283.777,
       547198.132
      ],
      [
       194291.777,
       547198.132
      ],
      [
       194291.777,
       547190.132
      ],
      [
       194299.777,
       547190.132
      ],
      [
       194299.777,
       547182.132
      ],
      [
       194307.777,
       547182.132
      ],
      [
       194307.777,
       547174.132
      ],
      [
       194315.777,
       547174.132
      ],
      [
       194315.777,
       547166.132
      ],
      [
       194315.777,
       547158.132
      ],
      [
       194315.777,
       547150.132
      ],
      [
       194323.777,
       547150.132
      ],
      [
       194323.777,
       547142.132
      ],
      [
       194331.777,
       547142.132
      ],
      [
       194339.777,
       547142.132
      ],
      [
       194339.777,
       547134.132
      ],
      [
       194347.777,
       547134.132
      ],
      [
       194347.777,
       547126.132
      ],
      [
       194355.777,
       547126.132
      ],
      [
       194355.777,
       547118.132
      ],
      [
       194355.777,
       547110.132
      ],
      [
       194363.777,
       547110.132
      ],
      [
       194371.777,
       547110.132
      ],
      [
       194371.777,
       547118.132
      ]
     ],
     [
      [
       194379.777,
       547126.132
      ],
      [
       194379.777,
       547134.132
      ],
      [
       194371.777,
       547134.132
      ],
      [
       194371.777,
       547126.132
      ],
      [
       194379.777,
       547126.132
      ]
     ]
    ]
   },
   "properties": {
    "label": "여의도중학교 운동장",
    "kind": "운동장(옥외지반 근사)"
   }
  },
  {
   "type": "Feature",
   "geometry": {
    "type": "Polygon",
    "coordinates": [
     [
      [
       194307.777,
       547054.132
      ],
      [
       194307.777,
       547062.132
      ],
      [
       194315.777,
       547062.132
      ],
      [
       194315.777,
       547054.132
      ],
      [
       194307.777,
       547054.132
      ]
     ]
    ]
   },
   "properties": {
    "label": "여의도중학교 운동장",
    "kind": "운동장(옥외지반 근사)"
   }
  },
  {
   "type": "Feature",
   "geometry": {
    "type": "Polygon",
    "coordinates": [
     [
      [
       194307.777,
       547062.132
      ],
      [
       194299.777,
       547062.132
      ],
      [
       194299.777,
       547070.132
      ],
      [
       194307.777,
       547070.132
      ],
      [
       194307.777,
       547062.132
      ]
     ]
    ]
   },
   "properties": {
    "label": "여의도중학교 운동장",
    "kind": "운동장(옥외지반 근사)"
   }
  },
  {
   "type": "Feature",
   "geometry": {
    "type": "Polygon",
    "coordinates": [
     [
      [
       194315.777,
       547086.132
      ],
      [
       194315.777,
       547094.132
      ],
      [
       194323.777,
       547094.132
      ],
      [
       194331.777,
       547094.132
      ],
      [
       194331.777,
       547086.132
      ],
      [
       194331.777,
       547078.132
      ],
      [
       194323.777,
       547078.132
      ],
      [
       194323.777,
       547086.132
      ],
      [
       194315.777,
       547086.132
      ]
     ]
    ]
   },
   "properties": {
    "label": "여의도중학교 운동장",
    "kind": "운동장(옥외지반 근사)"
   }
  },
  {
   "type": "Feature",
   "geometry": {
    "type": "Polygon",
    "coordinates": [
     [
      [
       194203.777,
       546998.132
      ],
      [
       194195.777,
       546998.132
      ],
      [
       194187.777,
       546998.132
      ],
      [
       194187.777,
       547006.132
      ],
      [
       194179.777,
       547006.132
      ],
      [
       194179.777,
       547014.132
      ],
      [
       194179.777,
       547022.132
      ],
      [
       194171.777,
       547022.132
      ],
      [
       194171.777,
       547030.132
      ],
      [
       194171.777,
       547038.132
      ],
      [
       194179.777,
       547038.132
      ],
      [
       194187.777,
       547038.132
      ],
      [
       194187.777,
       547046.132
      ],
      [
       194195.777,
       547046.132
      ],
      [
       194203.777,
       547046.132
      ],
      [
       194203.777,
       547038.132
      ],
      [
       194195.777,
       547038.132
      ],
      [
       194195.777,
       547030.132
      ],
      [
       194187.777,
       547030.132
      ],
      [
       194187.777,
       547022.132
      ],
      [
       194187.777,
       547014.132
      ],
      [
       194195.777,
       547014.132
      ],
      [
       194203.777,
       547014.132
      ],
      [
       194203.777,
       547022.132
      ],
      [
       194211.777,
       547022.132
      ],
      [
       194211.777,
       547030.132
      ],
      [
       194219.777,
       547030.132
      ],
      [
       194227.777,
       547030.132
      ],
      [
       194227.777,
       547038.132
      ],
      [
       194235.777,
       547038.132
      ],
      [
       194235.777,
       547046.132
      ],
      [
       194243.777,
       547046.132
      ],
      [
       194243.777,
       547054.132
      ],
      [
       194251.777,
       547054.132
      ],
      [
       194251.777,
       547062.132
      ],
      [
       194251.777,
       547070.132
      ],
      [
       194259.777,
       547070.132
      ],
      [
       194267.777,
       547070.132
      ],
      [
       194267.777,
       547062.132
      ],
      [
       194275.777,
       547062.132
      ],
      [
       194275.777,
       547054.132
      ],
      [
       194283.777,
       547054.132
      ],
      [
       194283.777,
       547046.132
      ],
      [
       194291.777,
       547046.132
      ],
      [
       194291.777,
       547038.132
      ],
      [
       194283.777,
       547038.132
      ],
      [
       194283.777,
       547030.132
      ],
      [
       194283.777,
       547022.132
      ],
      [
       194283.777,
       547014.132
      ],
      [
       194291.777,
       547014.132
      ],
      [
       194299.777,
       547014.132
      ],
      [
       194307.777,
       547014.132
      ],
      [
       194307.777,
       547006.132
      ],
      [
       194299.777,
       547006.132
      ],
      [
       194299.777,
       546998.132
      ],
      [
       194291.777,
       546998.132
      ],
      [
       194283.777,
       546998.132
      ],
      [
       194283.777,
       547006.132
      ],
      [
       194275.777,
       547006.132
      ],
      [
       194267.777,
       547006.132
      ],
      [
       194259.777,
       547006.132
      ],
      [
       194251.777,
       547006.132
      ],
      [
       194243.777,
       547006.132
      ],
      [
       194243.777,
       546998.132
      ],
      [
       194235.777,
       546998.132
      ],
      [
       194235.777,
       546990.132
      ],
      [
       194227.777,
       546990.132
      ],
      [
       194219.777,
       546990.132
      ],
      [
       194211.777,
       546990.132
      ],
      [
       194203.777,
       546990.132
      ],
      [
       194203.777,
       546998.132
      ]
     ]
    ]
   },
   "properties": {
    "label": "여의도여자고등학교 운동장",
    "kind": "운동장(옥외지반 근사)"
   }
  },
  {
   "type": "Feature",
   "geometry": {
    "type": "Polygon",
    "coordinates": [
     [
      [
       194203.777,
       547062.132
      ],
      [
       194211.777,
       547062.132
      ],
      [
       194211.777,
       547070.132
      ],
      [
       194219.777,
       547070.132
      ],
      [
       194227.777,
       547070.132
      ],
      [
       194235.777,
       547070.132
      ],
      [
       194235.777,
       547062.132
      ],
      [
       194235.777,
       547054.132
      ],
      [
       194227.777,
       547054.132
      ],
      [
       194219.777,
       547054.132
      ],
      [
       194219.777,
       547046.132
      ],
      [
       194211.777,
       547046.132
      ],
      [
       194203.777,
       547046.132
      ],
      [
       194203.777,
       547054.132
      ],
      [
       194203.777,
       547062.132
      ]
     ]
    ]
   },
   "properties": {
    "label": "여의도여자고등학교 운동장",
    "kind": "운동장(옥외지반 근사)"
   }
  },
  {
   "type": "Feature",
   "geometry": {
    "type": "Polygon",
    "coordinates": [
     [
      [
       194243.777,
       547086.132
      ],
      [
       194251.777,
       547086.132
      ],
      [
       194251.777,
       547078.132
      ],
      [
       194251.777,
       547070.132
      ],
      [
       194243.777,
       547070.132
      ],
      [
       194235.777,
       547070.132
      ],
      [
       194235.777,
       547078.132
      ],
      [
       194243.777,
       547078.132
      ],
      [
       194243.777,
       547086.132
      ]
     ]
    ]
   },
   "properties": {
    "label": "여의도여자고등학교 운동장",
    "kind": "운동장(옥외지반 근사)"
   }
  },
  {
   "type": "Feature",
   "geometry": {
    "type": "Polygon",
    "coordinates": [
     [
      [
       194251.777,
       547126.132
      ],
      [
       194259.777,
       547126.132
      ],
      [
       194259.777,
       547134.132
      ],
      [
       194259.777,
       547142.132
      ],
      [
       194259.777,
       547150.132
      ],
      [
       194267.777,
       547150.132
      ],
      [
       194267.777,
       547142.132
      ],
      [
       194275.777,
       547142.132
      ],
      [
       194275.777,
       547134.132
      ],
      [
       194283.777,
       547134.132
      ],
      [
       194283.777,
       547126.132
      ],
      [
       194283.777,
       547118.132
      ],
      [
       194291.777,
       547118.132
      ],
      [
       194291.777,
       547110.132
      ],
      [
       194291.777,
       547102.132
      ],
      [
       194291.777,
       547094.132
      ],
      [
       194291.777,
       547086.132
      ],
      [
       194291.777,
       547078.132
      ],
      [
       194299.777,
       547078.132
      ],
      [
       194299.777,
       547070.132
      ],
      [
       194299.777,
       547062.132
      ],
      [
       194307.777,
       547062.132
      ],
      [
       194307.777,
       547054.132
      ],
      [
       194315.777,
       547054.132
      ],
      [
       194315.777,
       547046.132
      ],
      [
       194307.777,
       547046.132
      ],
      [
       194299.777,
       547046.132
      ],
      [
       194299.777,
       547054.132
      ],
      [
       194291.777,
       547054.132
      ],
      [
       194291.777,
       547062.132
      ],
      [
       194291.777,
       547070.132
      ],
      [
       194283.777,
       547070.132
      ],
      [
       194283.777,
       547078.132
      ],
      [
       194283.777,
       547086.132
      ],
      [
       194275.777,
       547086.132
      ],
      [
       194275.777,
       547094.132
      ],
      [
       194267.777,
       547094.132
      ],
      [
       194259.777,
       547094.132
      ],
      [
       194259.777,
       547086.132
      ],
      [
       194251.777,
       547086.132
      ],
      [
       194251.777,
       547094.132
      ],
      [
       194251.777,
       547102.132
      ],
      [
       194251.777,
       547110.132
      ],
      [
       194251.777,
       547118.132
      ],
      [
       194251.777,
       547126.132
      ]
     ]
    ]
   },
   "properties": {
    "label": "여의도여자고등학교 운동장",
    "kind": "운동장(옥외지반 근사)"
   }
  },
  {
   "type": "Feature",
   "geometry": {
    "type": "Polygon",
    "coordinates": [
     [
      [
       194315.777,
       547014.132
      ],
      [
       194307.777,
       547014.132
      ],
      [
       194307.777,
       547022.132
      ],
      [
       194315.777,
       547022.132
      ],
      [
       194315.777,
       547014.132
      ]
     ]
    ]
   },
   "properties": {
    "label": "여의도여자고등학교 운동장",
    "kind": "운동장(옥외지반 근사)"
   }
  },
  {
   "type": "Feature",
   "geometry": {
    "type": "Polygon",
    "coordinates": [
     [
      [
       194347.777,
       547038.132
      ],
      [
       194355.777,
       547038.132
      ],
      [
       194363.777,
       547038.132
      ],
      [
       194363.777,
       547030.132
      ],
      [
       194355.777,
       547030.132
      ],
      [
       194347.777,
       547030.132
      ],
      [
       194339.777,
       547030.132
      ],
      [
       194339.777,
       547022.132
      ],
      [
       194331.777,
       547022.132
      ],
      [
       194323.777,
       547022.132
      ],
      [
       194315.777,
       547022.132
      ],
      [
       194315.777,
       547030.132
      ],
      [
       194323.777,
       547030.132
      ],
      [
       194323.777,
       547038.132
      ],
      [
       194315.777,
       547038.132
      ],
      [
       194315.777,
       547046.132
      ],
      [
       194323.777,
       547046.132
      ],
      [
       194331.777,
       547046.132
      ],
      [
       194339.777,
       547046.132
      ],
      [
       194347.777,
       547046.132
      ],
      [
       194347.777,
       547038.132
      ]
     ]
    ]
   },
   "properties": {
    "label": "여의도여자고등학교 운동장",
    "kind": "운동장(옥외지반 근사)"
   }
  },
  {
   "type": "Feature",
   "geometry": {
    "type": "Polygon",
    "coordinates": [
     [
      [
       194363.777,
       546982.132
      ],
      [
       194363.777,
       546990.132
      ],
      [
       194363.777,
       546998.132
      ],
      [
       194355.777,
       546998.132
      ],
      [
       194355.777,
       547006.132
      ],
      [
       194355.777,
       547014.132
      ],
      [
       194355.777,
       547022.132
      ],
      [
       194355.777,
       547030.132
      ],
      [
       194363.777,
       547030.132
      ],
      [
       194363.777,
       547038.132
      ],
      [
       194371.777,
       547038.132
      ],
      [
       194371.777,
       547046.132
      ],
      [
       194371.777,
       547054.132
      ],
      [
       194371.777,
       547062.132
      ],
      [
       194371.777,
       547070.132
      ],
      [
       194363.777,
       547070.132
      ],
      [
       194363.777,
       547078.132
      ],
      [
       194363.777,
       547086.132
      ],
      [
       194363.777,
       547094.132
      ],
      [
       194363.777,
       547102.132
      ],
      [
       194371.777,
       547102.132
      ],
      [
       194371.777,
       547094.132
      ],
      [
       194379.777,
       547094.132
      ],
      [
       194379.777,
       547102.132
      ],
      [
       194379.777,
       547110.132
      ],
      [
       194387.777,
       547110.132
      ],
      [
       194387.777,
       547118.132
      ],
      [
       194387.777,
       547126.132
      ],
      [
       194387.777,
       547134.132
      ],
      [
       194387.777,
       547142.132
      ],
      [
       194395.777,
       547142.132
      ],
      [
       194395.777,
       547150.132
      ],
      [
       194403.777,
       547150.132
      ],
      [
       194411.777,
       547150.132
      ],
      [
       194419.777,
       547150.132
      ],
      [
       194427.777,
       547150.132
      ],
      [
       194435.777,
       547150.132
      ],
      [
       194443.777,
       547150.132
      ],
      [
       194443.777,
       547142.132
      ],
      [
       194451.777,
       547142.132
      ],
      [
       194451.777,
       547134.132
      ],
      [
       194459.777,
       547134.132
      ],
      [
       194459.777,
       547126.132
      ],
      [
       194467.777,
       547126.132
      ],
      [
       194467.777,
       547118.132
      ],
      [
       194467.777,
       547110.132
      ],
      [
       194467.777,
       547102.132
      ],
      [
       194467.777,
       547094.132
      ],
      [
       194475.777,
       547094.132
      ],
      [
       194475.777,
       547086.132
      ],
      [
       194475.777,
       547078.132
      ],
      [
       194483.777,
       547078.132
      ],
      [
       194483.777,
       547070.132
      ],
      [
       194491.777,
       547070.132
      ],
      [
       194491.777,
       547062.132
      ],
      [
       194491.777,
       547054.132
      ],
      [
       194499.777,
       547054.132
      ],
      [
       194499.777,
       547046.132
      ],
      [
       194499.777,
       547038.132
      ],
      [
       194491.777,
       547038.132
      ],
      [
       194491.777,
       547030.132
      ],
      [
       194483.777,
       547030.132
      ],
      [
       194483.777,
       547022.132
      ],
      [
       194475.777,
       547022.132
      ],
      [
       194475.777,
       547014.132
      ],
      [
       194467.777,
       547014.132
      ],
      [
       194467.777,
       547006.132
      ],
      [
       194459.777,
       547006.132
      ],
      [
       194451.777,
       547006.132
      ],
      [
       194443.777,
       547006.132
      ],
      [
       194443.777,
       546998.132
      ],
      [
       194435.777,
       546998.132
      ],
      [
       194427.777,
       546998.132
      ],
      [
       194427.777,
       546990.132
      ],
      [
       194419.777,
       546990.132
      ],
      [
       194419.777,
       546982.132
      ],
      [
       194419.777,
       546974.132
      ],
      [
       194411.777,
       546974.132
      ],
      [
       194403.777,
       546974.132
      ],
      [
       194403.777,
       546966.132
      ],
      [
       194395.777,
       546966.132
      ],
      [
       194387.777,
       546966.132
      ],
      [
       194387.777,
       546958.132
      ],
      [
       194379.777,
       546958.132
      ],
      [
       194379.777,
       546966.132
      ],
      [
       194379.777,
       546974.132
      ],
      [
       194371.777,
       546974.132
      ],
      [
       194371.777,
       546982.132
      ],
      [
       194363.777,
       546982.132
      ]
     ],
     [
      [
       194387.777,
       547102.132
      ],
      [
       194387.777,
       547094.132
      ],
      [
       194395.777,
       547094.132
      ],
      [
       194395.777,
       547086.132
      ],
      [
       194403.777,
       547086.132
      ],
      [
       194403.777,
       547078.132
      ],
      [
       194411.777,
       547078.132
      ],
      [
       194411.777,
       547070.132
      ],
      [
       194419.777,
       547070.132
      ],
      [
       194419.777,
       547062.132
      ],
      [
       194419.777,
       547054.132
      ],
      [
       194419.777,
       547046.132
      ],
      [
       194427.777,
       547046.132
      ],
      [
       194435.777,
       547046.132
      ],
      [
       194435.777,
       547054.132
      ],
      [
       194443.777,
       547054.132
      ],
      [
       194443.777,
       547062.132
      ],
      [
       194435.777,
       547062.132
      ],
      [
       194435.777,
       547070.132
      ],
      [
       194427.777,
       547070.132
      ],
      [
       194427.777,
       547078.132
      ],
      [
       194427.777,
       547086.132
      ],
      [
       194419.777,
       547086.132
      ],
      [
       194419.777,
       547094.132
      ],
      [
       194411.777,
       547094.132
      ],
      [
       194411.777,
       547102.132
      ],
      [
       194403.777,
       547102.132
      ],
      [
       194403.777,
       547110.132
      ],
      [
       194395.777,
       547110.132
      ],
      [
       194387.777,
       547110.132
      ],
      [
       194387.777,
       547102.132
      ]
     ],
     [
      [
       194403.777,
       547070.132
      ],
      [
       194403.777,
       547062.132
      ],
      [
       194411.777,
       547062.132
      ],
      [
       194411.777,
       547070.132
      ],
      [
       194403.777,
       547070.132
      ]
     ],
     [
      [
       194427.777,
       547038.132
      ],
      [
       194419.777,
       547038.132
      ],
      [
       194419.777,
       547030.132
      ],
      [
       194411.777,
       547030.132
      ],
      [
       194411.777,
       547022.132
      ],
      [
       194403.777,
       547022.132
      ],
      [
       194403.777,
       547014.132
      ],
      [
       194395.777,
       547014.132
      ],
      [
       194395.777,
       547006.132
      ],
      [
       194387.777,
       547006.132
      ],
      [
       194379.777,
       547006.132
      ],
      [
       194379.777,
       546998.132
      ],
      [
       194371.777,
       546998.132
      ],
      [
       194371.777,
       546990.132
      ],
      [
       194379.777,
       546990.132
      ],
      [
       194379.777,
       546982.132
      ],
      [
       194387.777,
       546982.132
      ],
      [
       194387.777,
       546990.132
      ],
      [
       194395.777,
       546990.132
      ],
      [
       194395.777,
       546998.132
      ],
      [
       194403.777,
       546998.132
      ],
      [
       194403.777,
       547006.132
      ],
      [
       194411.777,
       547006.132
      ],
      [
       194411.777,
       547014.132
      ],
      [
       194419.777,
       547014.132
      ],
      [
       194427.777,
       547014.132
      ],
      [
       194427.777,
       547022.132
      ],
      [
       194435.777,
       547022.132
      ],
      [
       194435.777,
       547030.132
      ],
      [
       194443.777,
       547030.132
      ],
      [
       194443.777,
       547038.132
      ],
      [
       194435.777,
       547038.132
      ],
      [
       194427.777,
       547038.132
      ]
     ],
     [
      [
       194459.777,
       547046.132
      ],
      [
       194459.777,
       547054.132
      ],
      [
       194451.777,
       547054.132
      ],
      [
       194451.777,
       547046.132
      ],
      [
       194459.777,
       547046.132
      ]
     ]
    ]
   },
   "properties": {
    "label": "여의도초등학교 운동장",
    "kind": "운동장(옥외지반 근사)"
   }
  }
 ],
 "crs": {
  "type": "name",
  "properties": {
   "name": "urn:ogc:def:crs:EPSG::5186"
  }
 }
}