{
 "type": "FeatureCollection",
 "features": [
  {
   "type": "Feature",
   "geometry": {
    "type": "Polygon",
    "coordinates": [
     [
      [
       126.93289017,
       37.52519111
      ],
      [
       126.93279966,
       37.52519106
      ],
      [
       126.9327996,
       37.52526314
      ],
      [
       126.93279954,
       37.52533522
      ],
      [
       126.93279947,
       37.5254073
      ],
      [
       126.93279941,
       37.52547938
      ],
      [
       126.93288991,
       37.52547943
      ],
      [
       126.93288984,
       37.52555151
      ],
      [
       126.93288978,
       37.52562359
      ],
      [
       126.93298028,
       37.52562364
      ],
      [
       126.93307078,
       37.52562369
      ],
      [
       126.93307085,
       37.52555161
      ],
      [
       126.93307091,
       37.52547953
      ],
      [
       126.93307098,
       37.52540745
      ],
      [
       126.93316148,
       37.5254075
      ],
      [
       126.93316142,
       37.52547958
      ],
      [
       126.93325192,
       37.52547963
      ],
      [
       126.93325185,
       37.52555171
      ],
      [
       126.93334236,
       37.52555176
      ],
      [
       126.93343286,
       37.52555182
      ],
      [
       126.9334328,
       37.5256239
      ],
      [
       126.93343273,
       37.52569598
      ],
      [
       126.93334223,
       37.52569592
      ],
      [
       126.93325173,
       37.52569587
      ],
      [
       126.93325166,
       37.52576795
      ],
      [
       126.93334216,
       37.525768
      ],
      [
       126.9333421,
       37.52584009
      ],
      [
       126.9334326,
       37.52584014
      ],
      [
       126.93343254,
       37.52591222
      ],
      [
       126.93343247,
       37.5259843
      ],
      [
       126.93352298,
       37.52598435
      ],
      [
       126.93361348,
       37.5259844
      ],
      [
       126.93370398,
       37.52598445
      ],
      [
       126.93379449,
       37.5259845
      ],
      [
       126.93379455,
       37.52591242
      ],
      [
       126.93388505,
       37.52591247
      ],
      [
       126.93397556,
       37.52591252
      ],
      [
       126.93406606,
       37.52591257
      ],
      [
       126.93415656,
       37.52591262
      ],
      [
       126.93424707,
       37.52591267
      ],
      [
       126.93433757,
       37.52591272
      ],
      [
       126.93442807,
       37.52591277
      ],
      [
       126.93442813,
       37.52584069
      ],
      [
       126.9344282,
       37.52576861
      ],
      [
       126.9345187,
       37.52576866
      ],
      [
       126.9346092,
       37.52576871
      ],
      [
       126.93460927,
       37.52569663
      ],
      [
       126.93469977,
       37.52569668
      ],
      [
       126.93469983,
       37.5256246
      ],
      [
       126.93469989,
       37.52555252
      ],
      [
       126.9347904,
       37.52555257
      ],
      [
       126.93479046,
       37.52548049
      ],
      [
       126.93488096,
       37.52548054
      ],
      [
       126.93497146,
       37.52548059
      ],
      [
       126.93497153,
       37.52540851
      ],
      [
       126.93506203,
       37.52540856
      ],
      [
       126.93515253,
       37.52540861
      ],
      [
       126.93515259,
       37.52533653
      ],
      [
       126.9352431,
       37.52533658
      ],
      [
       126.93524316,
       37.5252645
      ],
      [
       126.93524322,
       37.52519242
      ],
      [
       126.93524328,
       37.52512034
      ],
      [
       126.93524334,
       37.52504826
      ],
      [
       126.93524341,
       37.52497618
      ],
      [
       126.93524347,
       37.5249041
      ],
      [
       126.93524353,
       37.52483202
      ],
      [
       126.93515303,
       37.52483197
      ],
      [
       126.93515309,
       37.52475989
      ],
      [
       126.93515316,
       37.52468781
      ],
      [
       126.93506265,
       37.52468776
      ],
      [
       126.93506272,
       37.52461568
      ],
      [
       126.93497221,
       37.52461563
      ],
      [
       126.93497228,
       37.52454355
      ],
      [
       126.93488178,
       37.5245435
      ],
      [
       126.93488184,
       37.52447142
      ],
      [
       126.9348819,
       37.52439934
      ],
      [
       126.93488196,
       37.52432726
      ],
      [
       126.93488203,
       37.52425518
      ],
      [
       126.93479153,
       37.52425513
      ],
      [
       126.93479159,
       37.52418305
      ],
      [
       126.93479165,
       37.52411097
      ],
      [
       126.93470115,
       37.52411092
      ],
      [
       126.93461065,
       37.52411087
      ],
      [
       126.93461059,
       37.52418295
      ],
      [
       126.93452009,
       37.5241829
      ],
      [
       126.93442959,
       37.52418285
      ],
      [
       126.93433908,
       37.5241828
      ],
      [
       126.93424858,
       37.52418275
      ],
      [
       126.93415808,
       37.5241827
      ],
      [
       126.93415815,
       37.52411062
      ],
      [
       126.93406765,
       37.52411057
      ],
      [
       126.93397714,
       37.52411052
      ],
      [
       126.93388664,
       37.52411047
      ],
      [
       126.93379614,
       37.52411042
      ],
      [
       126.93370564,
       37.52411037
      ],
      [
       126.93370558,
       37.52418245
      ],
      [
       126.93361508,
       37.52418239
      ],
      [
       126.93361501,
       37.52425447
      ],
      [
       126.93361495,
       37.52432656
      ],
      [
       126.93361489,
       37.52439864
      ],
      [
       126.93352438,
       37.52439858
      ],
      [
       126.93352432,
       37.52447066
      ],
      [
       126.93352426,
       37.52454274
      ],
      [
       126.93352419,
       37.52461482
      ],
      [
       126.93352413,
       37.5246869
      ],
      [
       126.93352407,
       37.52475899
      ],
      [
       126.933524,
       37.52483107
      ],
      [
       126.93352394,
       37.52490315
      ],
      [
       126.93343344,
       37.52490309
      ],
      [
       126.93343337,
       37.52497517
      ],
      [
       126.93334287,
       37.52497512
      ],
      [
       126.93325237,
       37.52497507
      ],
      [
       126.9332523,
       37.52504715
      ],
      [
       126.9331618,
       37.5250471
      ],
      [
       126.9330713,
       37.52504705
      ],
      [
       126.93307124,
       37.52511913
      ],
      [
       126.93298073,
       37.52511908
      ],
      [
       126.93289023,
       37.52511903
      ],
      [
       126.93289017,
       37.52519111
      ]
     ],
     [
      [
       126.93388544,
       37.52547999
      ],
      [
       126.93388537,
       37.52555207
      ],
      [
       126.93379487,
       37.52555202
      ],
      [
       126.93379481,
       37.5256241
      ],
      [
       126.9337043,
       37.52562405
      ],
      [
       126.93370424,
       37.52569613
      ],
      [
       126.93361374,
       37.52569608
      ],
      [
       126.93361367,
       37.52576816
      ],
      [
       126.93352317,
       37.52576811
      ],
      [
       126.93352323,
       37.52569603
      ],
      [
       126.9335233,
       37.52562395
      ],
      [
       126.9336138,
       37.525624
      ],
      [
       126.93361386,
       37.52555192
      ],
      [
       126.93361393,
       37.52547984
      ],
      [
       126.93370443,
       37.52547989
      ],
      [
       126.93370449,
       37.52540781
      ],
      [
       126.933795,
       37.52540786
      ],
      [
       126.93379506,
       37.52533578
      ],
      [
       126.93388556,
       37.52533583
      ],
      [
       126.93388563,
       37.52526375
      ],
      [
       126.93388569,
       37.52519167
      ],
      [
       126.93388575,
       37.52511959
      ],
      [
       126.93397626,
       37.52511964
      ],
      [
       126.93406676,
       37.52511969
      ],
      [
       126.93406682,
       37.52504761
      ],
      [
       126.93415732,
       37.52504766
      ],
      [
       126.93415739,
       37.52497558
      ],
      [
       126.93424789,
       37.52497563
      ],
      [
       126.93424795,
       37.52490355
      ],
      [
       126.93424801,
       37.52483147
      ],
      [
       126.93433852,
       37.52483152
      ],
      [
       126.93433858,
       37.52475944
      ],
      [
       126.93442908,
       37.52475949
      ],
      [
       126.93442914,
       37.52468741
      ],
      [
       126.93433864,
       37.52468736
      ],
      [
       126.93433871,
       37.52461528
      ],
      [
       126.93433877,
       37.5245432
      ],
      [
       126.93442927,
       37.52454325
      ],
      [
       126.93442933,
       37.52447117
      ],
      [
       126.93451983,
       37.52447122
      ],
      [
       126.93451977,
       37.5245433
      ],
      [
       126.93461027,
       37.52454335
      ],
      [
       126.93461021,
       37.52461543
      ],
      [
       126.93470071,
       37.52461548
      ],
      [
       126.93470065,
       37.52468756
      ],
      [
       126.93479115,
       37.52468761
      ],
      [
       126.93488165,
       37.52468766
      ],
      [
       126.93488159,
       37.52475974
      ],
      [
       126.93488153,
       37.52483182
      ],
      [
       126.93479102,
       37.52483177
      ],
      [
       126.93479096,
       37.52490385
      ],
      [
       126.9347909,
       37.52497593
      ],
      [
       126.9347004,
       37.52497588
      ],
      [
       126.93460989,
       37.52497583
      ],
      [
       126.93460996,
       37.52490375
      ],
      [
       126.93451946,
       37.5249037
      ],
      [
       126.93442895,
       37.52490365
      ],
      [
       126.93442889,
       37.52497573
      ],
      [
       126.93442883,
       37.52504781
      ],
      [
       126.93433833,
       37.52504776
      ],
      [
       126.93424782,
       37.52504771
      ],
      [
       126.93424776,
       37.52511979
      ],
      [
       126.9342477,
       37.52519187
      ],
      [
       126.93424763,
       37.52526395
      ],
      [
       126.93415713,
       37.5252639
      ],
      [
       126.93415707,
       37.52533598
      ],
      [
       126.93406657,
       37.52533593
      ],
      [
       126.9340665,
       37.52540801
      ],
      [
       126.933976,
       37.52540796
      ],
      [
       126.93397594,
       37.52548004
      ],
      [
       126.93388544,
       37.52547999
      ]
     ],
     [
      [
       126.93415777,
       37.5245431
      ],
      [
       126.9341577,
       37.52461518
      ],
      [
       126.9340672,
       37.52461513
      ],
      [
       126.93406726,
       37.52454305
      ],
      [
       126.93397676,
       37.524543
      ],
      [
       126.93397683,
       37.52447092
      ],
      [
       126.93388633,
       37.52447087
      ],
      [
       126.93388639,
       37.52439879
      ],
      [
       126.93388645,
       37.52432671
      ],
      [
       126.93397695,
       37.52432676
      ],
      [
       126.93406745,
       37.52432681
      ],
      [
       126.93415796,
       37.52432686
      ],
      [
       126.93415789,
       37.52439894
      ],
      [
       126.93424839,
       37.52439899
      ],
      [
       126.93424833,
       37.52447107
      ],
      [
       126.93424827,
       37.52454315
      ],
      [
       126.93415777,
       37.5245431
      ]
     ],
     [
      [
       126.9343382,
       37.52519192
      ],
      [
       126.9344287,
       37.52519197
      ],
      [
       126.93442864,
       37.52526405
      ],
      [
       126.93433814,
       37.525264
      ],
      [
       126.9343382,
       37.52519192
      ]
     ]
    ]
   },
   "properties": {
    "label": "여의도고등학교 운동장",
    "kind": "운동장(옥외지반 근사)"
   }
  },
  {
   "type": "Feature",
   "geometry": {
    "type": "Polygon",
    "coordinates": [
     [
      [
       126.93307072,
       37.52569577
      ],
      [
       126.93316122,
       37.52569582
      ],
      [
       126.93325173,
       37.52569587
      ],
      [
       126.93325179,
       37.52562379
      ],
      [
       126.93316129,
       37.52562374
      ],
      [
       126.93307078,
       37.52562369
      ],
      [
       126.93307072,
       37.52569577
      ]
     ]
    ]
   },
   "properties": {
    "label": "여의도고등학교 운동장",
    "kind": "운동장(옥외지반 근사)"
   }
  },
  {
   "type": "Feature",
   "geometry": {
    "type": "Polygon",
    "coordinates": [
     [
      [
       126.93444211,
       37.52412707
      ],
      [
       126.93525586,
       37.52329868
      ],
      [
       126.93580671,
       37.52364191
      ],
      [
       126.93499296,
       37.52447029
      ],
      [
       126.93444211,
       37.52412707
      ]
     ]
    ]
   },
   "properties": {
    "label": "여의도중학교 운동장",
    "kind": "운동장(옥외지반 근사)"
   }
  },
  {
   "type": "Feature",
   "geometry": {
    "type": "Polygon",
    "coordinates": [
     [
      [
       126.9344311,
       37.52245293
      ],
      [
       126.9343406,
       37.52245288
      ],
      [
       126.9342501,
       37.52245283
      ],
      [
       126.93425004,
       37.52252491
      ],
      [
       126.93415954,
       37.52252486
      ],
      [
       126.93415948,
       37.52259694
      ],
      [
       126.93415941,
       37.52266902
      ],
      [
       126.93406891,
       37.52266897
      ],
      [
       126.93406885,
       37.52274105
      ],
      [
       126.93406879,
       37.52281313
      ],
      [
       126.93415929,
       37.52281318
      ],
      [
       126.93424979,
       37.52281323
      ],
      [
       126.93424972,
       37.52288531
      ],
      [
       126.93434022,
       37.52288536
      ],
      [
       126.93443072,
       37.52288541
      ],
      [
       126.93443078,
       37.52281333
      ],
      [
       126.93434028,
       37.52281328
      ],
      [
       126.93434035,
       37.5227412
      ],
      [
       126.93424985,
       37.52274115
      ],
      [
       126.93424991,
       37.52266907
      ],
      [
       126.93424998,
       37.52259699
      ],
      [
       126.93434047,
       37.52259704
      ],
      [
       126.93443097,
       37.52259709
      ],
      [
       126.93443091,
       37.52266917
      ],
      [
       126.93452141,
       37.52266922
      ],
      [
       126.93452135,
       37.5227413
      ],
      [
       126.93461184,
       37.52274135
      ],
      [
       126.93470234,
       37.5227414
      ],
      [
       126.93470228,
       37.52281348
      ],
      [
       126.93479278,
       37.52281353
      ],
      [
       126.93479272,
       37.52288561
      ],
      [
       126.93488322,
       37.52288566
      ],
      [
       126.93488315,
       37.52295774
      ],
      [
       126.93497365,
       37.52295779
      ],
      [
       126.93497359,
       37.52302987
      ],
      [
       126.93497353,
       37.52310195
      ],
      [
       126.93506403,
       37.523102
      ],
      [
       126.93515453,
       37.52310205
      ],
      [
       126.93515459,
       37.52302997
      ],
      [
       126.93524509,
       37.52303002
      ],
      [
       126.93524515,
       37.52295794
      ],
      [
       126.93533565,
       37.52295799
      ],
      [
       126.93533571,
       37.52288591
      ],
      [
       126.93542621,
       37.52288596
      ],
      [
       126.93542627,
       37.52281388
      ],
      [
       126.93533578,
       37.52281383
      ],
      [
       126.93533584,
       37.52274175
      ],
      [
       126.9353359,
       37.52266967
      ],
      [
       126.93533596,
       37.52259759
      ],
      [
       126.93542646,
       37.52259763
      ],
      [
       126.93551696,
       37.52259768
      ],
      [
       126.93560746,
       37.52259773
      ],
      [
       126.93560752,
       37.52252565
      ],
      [
       126.93551702,
       37.5225256
      ],
      [
       126.93551708,
       37.52245352
      ],
      [
       126.93542659,
       37.52245347
      ],
      [
       126.93533609,
       37.52245343
      ],
      [
       126.93533602,
       37.52252551
      ],
      [
       126.93524553,
       37.52252546
      ],
      [
       126.93515503,
       37.52252541
      ],
      [
       126.93506453,
       37.52252536
      ],
      [
       126.93497403,
       37.52252531
      ],
      [
       126.93488353,
       37.52252526
      ],
      [
       126.93488359,
       37.52245318
      ],
      [
       126.93479309,
       37.52245313
      ],
      [
       126.93479316,
       37.52238105
      ],
      [
       126.93470266,
       37.522381
      ],
      [
       126.93461216,
       37.52238095
      ],
      [
       126.93452166,
       37.5223809
      ],
      [
       126.93443116,
       37.52238085
      ],
      [
       126.9344311,
       37.52245293
      ]
     ]
    ]
   },
   "properties": {
    "label": "여의도여자고등학교 운동장",
    "kind": "운동장(옥외지반 근사)"
   }
  },
  {
   "type": "Feature",
   "geometry": {
    "type": "Polygon",
    "coordinates": [
     [
      [
       126.93443059,
       37.52302957
      ],
      [
       126.93452109,
       37.52302962
      ],
      [
       126.93452103,
       37.5231017
      ],
      [
       126.93461153,
       37.52310175
      ],
      [
       126.93470203,
       37.5231018
      ],
      [
       126.93479253,
       37.52310185
      ],
      [
       126.93479259,
       37.52302977
      ],
      [
       126.93479265,
       37.52295769
      ],
      [
       126.93470216,
       37.52295764
      ],
      [
       126.93461166,
       37.52295759
      ],
      [
       126.93461172,
       37.52288551
      ],
      [
       126.93452122,
       37.52288546
      ],
      [
       126.93443072,
       37.52288541
      ],
      [
       126.93443066,
       37.52295749
      ],
      [
       126.93443059,
       37.52302957
      ]
     ]
    ]
   },
   "properties": {
    "label": "여의도여자고등학교 운동장",
    "kind": "운동장(옥외지반 근사)"
   }
  },
  {
   "type": "Feature",
   "geometry": {
    "type": "Polygon",
    "coordinates": [
     [
      [
       126.9348829,
       37.52324606
      ],
      [
       126.9349734,
       37.52324611
      ],
      [
       126.93497347,
       37.52317403
      ],
      [
       126.93497353,
       37.52310195
      ],
      [
       126.93488303,
       37.5231019
      ],
      [
       126.93479253,
       37.52310185
      ],
      [
       126.93479247,
       37.52317393
      ],
      [
       126.93488297,
       37.52317398
      ],
      [
       126.9348829,
       37.52324606
      ]
     ]
    ]
   },
   "properties": {
    "label": "여의도여자고등학교 운동장",
    "kind": "운동장(옥외지반 근사)"
   }
  },
  {
   "type": "Feature",
   "geometry": {
    "type": "Polygon",
    "coordinates": [
     [
      [
       126.93497309,
       37.52360651
      ],
      [
       126.93506359,
       37.52360656
      ],
      [
       126.93506353,
       37.52367864
      ],
      [
       126.93506347,
       37.52375072
      ],
      [
       126.9350634,
       37.5238228
      ],
      [
       126.9351539,
       37.52382285
      ],
      [
       126.93515397,
       37.52375077
      ],
      [
       126.93524447,
       37.52375082
      ],
      [
       126.93524453,
       37.52367874
      ],
      [
       126.93533503,
       37.52367879
      ],
      [
       126.93533509,
       37.52360671
      ],
      [
       126.93533515,
       37.52353463
      ],
      [
       126.93542565,
       37.52353468
      ],
      [
       126.93542572,
       37.5234626
      ],
      [
       126.93542578,
       37.52339052
      ],
      [
       126.93542584,
       37.52331844
      ],
      [
       126.9354259,
       37.52324636
      ],
      [
       126.93542596,
       37.52317428
      ],
      [
       126.93551646,
       37.52317433
      ],
      [
       126.93551653,
       37.52310225
      ],
      [
       126.93551659,
       37.52303017
      ],
      [
       126.93560709,
       37.52303021
      ],
      [
       126.93560715,
       37.52295813
      ],
      [
       126.93569765,
       37.52295818
      ],
      [
       126.93569771,
       37.5228861
      ],
      [
       126.93560721,
       37.52288605
      ],
      [
       126.93551671,
       37.522886
      ],
      [
       126.93551665,
       37.52295809
      ],
      [
       126.93542615,
       37.52295804
      ],
      [
       126.93542609,
       37.52303012
      ],
      [
       126.93542603,
       37.5231022
      ],
      [
       126.93533553,
       37.52310215
      ],
      [
       126.93533546,
       37.52317423
      ],
      [
       126.9353354,
       37.52324631
      ],
      [
       126.9352449,
       37.52324626
      ],
      [
       126.93524484,
       37.52331834
      ],
      [
       126.93515434,
       37.52331829
      ],
      [
       126.93506384,
       37.52331824
      ],
      [
       126.9350639,
       37.52324616
      ],
      [
       126.9349734,
       37.52324611
      ],
      [
       126.93497334,
       37.52331819
      ],
      [
       126.93497328,
       37.52339027
      ],
      [
       126.93497322,
       37.52346235
      ],
      [
       126.93497315,
       37.52353443
      ],
      [
       126.93497309,
       37.52360651
      ]
     ]
    ]
   },
   "properties": {
    "label": "여의도여자고등학교 운동장",
    "kind": "운동장(옥외지반 근사)"
   }
  },
  {
   "type": "Feature",
   "geometry": {
    "type": "Polygon",
    "coordinates": [
     [
      [
       126.93569796,
       37.52259778
      ],
      [
       126.93560746,
       37.52259773
      ],
      [
       126.9356074,
       37.52266981
      ],
      [
       126.9356979,
       37.52266986
      ],
      [
       126.93569796,
       37.52259778
      ]
     ]
    ]
   },
   "properties": {
    "label": "여의도여자고등학교 운동장",
    "kind": "운동장(옥외지반 근사)"
   }
  },
  {
   "type": "Feature",
   "geometry": {
    "type": "Polygon",
    "coordinates": [
     [
      [
       126.93605977,
       37.52281422
      ],
      [
       126.93615027,
       37.52281427
      ],
      [
       126.93624077,
       37.52281432
      ],
      [
       126.93624083,
       37.52274224
      ],
      [
       126.93615033,
       37.52274219
      ],
      [
       126.93605983,
       37.52274214
      ],
      [
       126.93596933,
       37.52274209
      ],
      [
       126.93596939,
       37.52267001
      ],
      [
       126.93587889,
       37.52266996
      ],
      [
       126.93578839,
       37.52266991
      ],
      [
       126.9356979,
       37.52266986
      ],
      [
       126.93569783,
       37.52274194
      ],
      [
       126.93578833,
       37.52274199
      ],
      [
       126.93578827,
       37.52281407
      ],
      [
       126.93569777,
       37.52281402
      ],
      [
       126.93569771,
       37.5228861
      ],
      [
       126.93578821,
       37.52288615
      ],
      [
       126.93587871,
       37.5228862
      ],
      [
       126.93596921,
       37.52288625
      ],
      [
       126.93605971,
       37.5228863
      ],
      [
       126.93605977,
       37.52281422
      ]
     ]
    ]
   },
   "properties": {
    "label": "여의도여자고등학교 운동장",
    "kind": "운동장(옥외지반 근사)"
   }
  },
  {
   "type": "Feature",
   "geometry": {
    "type": "Polygon",
    "coordinates": [
     [
      [
       126.9357892,
       37.52295984
      ],
      [
       126.93629508,
       37.52244474
      ],
      [
       126.93692677,
       37.52283836
      ],
      [
       126.93642078,
       37.52335347
      ],
      [
       126.9357892,
       37.52295984
      ]
     ]
    ]
   },
   "properties": {
    "label": "여의도초등학교 운동장",
    "kind": "운동장(옥외지반 근사)"
   }
  }
 ]
}