{
 "type": "FeatureCollection",
 "crs": {
  "type": "name",
  "properties": {
   "name": "urn:ogc:def:crs:EPSG::5186"
  }
 },
 "features": [
  {
   "type": "Feature",
   "geometry": {
    "type": "Polygon",
    "coordinates": [
     [
      [
       194319.16646039014,
       546966.3310837126
      ],
      [
       194296.58324302145,
       546960.2799288562
      ],
      [
       194304.147186592,
       546932.0509071453
      ],
      [
       194326.73040396068,
       546938.1020620017
      ],
      [
       194319.16646039014,
       546966.3310837126
      ]
     ]
    ]
   },
   "properties": {
    "rank": 1,
    "code": "S009",
    "family": "직사각형",
    "label": "직사각형 1.25:1 / 회전 105°",
    "floors": 55,
    "height_m": 166.25,
    "base_elev_m": 13.3,
    "top_elev_m": 179.55,
    "area_m2": 683.3,
    "rectangularity": 1.0,
    "aspect": 1.25,
    "ew_width_m": 30.1,
    "pass_a_pct": 85.4,
    "delta_vs_now_pp": 2.8,
    "fits_site": true
   }
  },
  {
   "type": "Feature",
   "geometry": {
    "type": "Polygon",
    "coordinates": [
     [
      [
       194317.28102844857,
       546968.1075874072
      ],
      [
       194296.66546582547,
       546962.5836640508
      ],
      [
       194304.95135086004,
       546931.6603201161
      ],
      [
       194325.56691348314,
       546937.1842434725
      ],
      [
       194317.28102844857,
       546968.1075874072
      ]
     ]
    ]
   },
   "properties": {
    "rank": 2,
    "code": "S021",
    "family": "직사각형",
    "label": "직사각형 1.5:1 / 회전 105°",
    "floors": 55,
    "height_m": 166.25,
    "base_elev_m": 13.3,
    "top_elev_m": 179.55,
    "area_m2": 683.3,
    "rectangularity": 1.0,
    "aspect": 1.5,
    "ew_width_m": 28.9,
    "pass_a_pct": 85.4,
    "delta_vs_now_pp": 2.8,
    "fits_site": true
   }
  },
  {
   "type": "Feature",
   "geometry": {
    "type": "Polygon",
    "coordinates": [
     [
      [
       194313.29144185255,
       546967.881082062
      ],
      [
       194294.8080340597,
       546957.2096815973
      ],
      [
       194310.81513475682,
       546929.484569908
      ],
      [
       194329.29854254966,
       546940.1559703727
      ],
      [
       194313.29144185255,
       546967.881082062
      ]
     ]
    ]
   },
   "properties": {
    "rank": 3,
    "code": "S022",
    "family": "직사각형",
    "label": "직사각형 1.5:1 / 회전 120°",
    "floors": 55,
    "height_m": 166.25,
    "base_elev_m": 13.3,
    "top_elev_m": 179.55,
    "area_m2": 683.3,
    "rectangularity": 1.0,
    "aspect": 1.5,
    "ew_width_m": 34.5,
    "pass_a_pct": 85.4,
    "delta_vs_now_pp": 2.8,
    "fits_site": true
   }
  },
  {
   "type": "Feature",
   "geometry": {
    "type": "Polygon",
    "coordinates": [
     [
      [
       194325.12994038104,
       546938.6079712642
      ],
      [
       194317.83788139923,
       546965.822305876
      ],
      [
       194314.64284495538,
       546967.666961027
      ],
      [
       194299.523770171,
       546963.6158171481
      ],
      [
       194297.6791150201,
       546960.4207807042
      ],
      [
       194304.9711740019,
       546933.2064460925
      ],
      [
       194308.16621044575,
       546931.3617909414
      ],
      [
       194323.28528523011,
       546935.4129348203
      ],
      [
       194325.12994038104,
       546938.6079712642
      ]
     ]
    ]
   },
   "properties": {
    "rank": 4,
    "code": "S085",
    "family": "팔각형",
    "label": "모서리컷 팔각형 1.6:1 / 회전 105°",
    "floors": 55,
    "height_m": 166.25,
    "base_elev_m": 13.3,
    "top_elev_m": 179.55,
    "area_m2": 683.3,
    "rectangularity": 0.98,
    "aspect": 1.6,
    "ew_width_m": 27.5,
    "pass_a_pct": 85.4,
    "delta_vs_now_pp": 2.8,
    "fits_site": true
   }
  },
  {
   "type": "Feature",
   "geometry": {
    "type": "Polygon",
    "coordinates": [
     [
      [
       194327.98963512125,
       546941.8852350862
      ],
      [
       194313.90245892655,
       546966.2849399906
      ],
      [
       194310.3388588248,
       546967.23980376
      ],
      [
       194296.78346721124,
       546959.4135947629
      ],
      [
       194295.82860344183,
       546955.8499946612
      ],
      [
       194309.91577963653,
       546931.4502897568
      ],
      [
       194313.47937973827,
       546930.4954259874
      ],
      [
       194327.03477135184,
       546938.3216349845
      ],
      [
       194327.98963512125,
       546941.8852350862
      ]
     ]
    ]
   },
   "properties": {
    "rank": 5,
    "code": "S086",
    "family": "팔각형",
    "label": "모서리컷 팔각형 1.6:1 / 회전 120°",
    "floors": 55,
    "height_m": 166.25,
    "base_elev_m": 13.3,
    "top_elev_m": 179.55,
    "area_m2": 683.3,
    "rectangularity": 0.98,
    "aspect": 1.6,
    "ew_width_m": 32.2,
    "pass_a_pct": 85.4,
    "delta_vs_now_pp": 2.8,
    "fits_site": true
   }
  },
  {
   "type": "Feature",
   "geometry": {
    "type": "Polygon",
    "coordinates": [
     [
      [
       194314.1778644981,
       546971.5154003496
      ],
      [
       194296.32426355316,
       546966.7315423944
      ],
      [
       194305.89197946351,
       546931.0243405045
      ],
      [
       194323.74558040846,
       546935.8081984598
      ],
      [
       194314.1778644981,
       546971.5154003496
      ]
     ]
    ]
   },
   "properties": {
    "rank": 6,
    "code": "S033",
    "family": "직사각형",
    "label": "직사각형 2:1 / 회전 105°",
    "floors": 55,
    "height_m": 166.25,
    "base_elev_m": 13.3,
    "top_elev_m": 179.55,
    "area_m2": 683.3,
    "rectangularity": 1.0,
    "aspect": 2.0,
    "ew_width_m": 27.4,
    "pass_a_pct": 85.4,
    "delta_vs_now_pp": 2.8,
    "fits_site": true
   }
  },
  {
   "type": "Feature",
   "geometry": {
    "type": "Polygon",
    "coordinates": [
     [
      [
       194309.44552903704,
       546971.0662730731
      ],
      [
       194293.43842833993,
       546961.8245691766
      ],
      [
       194311.92183613277,
       546929.8103677825
      ],
      [
       194327.92893682988,
       546939.0520716789
      ],
      [
       194309.44552903704,
       546971.0662730731
      ]
     ]
    ]
   },
   "properties": {
    "rank": 7,
    "code": "S034",
    "family": "직사각형",
    "label": "직사각형 2:1 / 회전 120°",
    "floors": 55,
    "height_m": 166.25,
    "base_elev_m": 13.3,
    "top_elev_m": 179.55,
    "area_m2": 683.3,
    "rectangularity": 1.0,
    "aspect": 2.0,
    "ew_width_m": 34.5,
    "pass_a_pct": 85.4,
    "delta_vs_now_pp": 2.8,
    "fits_site": true
   }
  },
  {
   "type": "Feature",
   "geometry": {
    "type": "Polygon",
    "coordinates": [
     [
      [
       194311.6976383546,
       546974.6175344205
      ],
      [
       194295.7288922122,
       546970.3387217874
      ],
      [
       194306.42592379468,
       546930.4168564314
      ],
      [
       194322.3946699371,
       546934.6956690644
      ],
      [
       194311.6976383546,
       546974.6175344205
      ]
     ]
    ]
   },
   "properties": {
    "rank": 8,
    "code": "S045",
    "family": "직사각형",
    "label": "직사각형 2.5:1 / 회전 105°",
    "floors": 55,
    "height_m": 166.25,
    "base_elev_m": 13.3,
    "top_elev_m": 179.55,
    "area_m2": 683.3,
    "rectangularity": 1.0,
    "aspect": 2.5,
    "ew_width_m": 26.7,
    "pass_a_pct": 85.6,
    "delta_vs_now_pp": 2.9,
    "fits_site": true
   }
  }
 ]
}