{
 "type": "FeatureCollection",
 "features": [
  {
   "type": "Feature",
   "geometry": {
    "type": "Polygon",
    "coordinates": [
     [
      [
       126.93266047061573,
       37.52279302789337
      ],
      [
       126.93280564911018,
       37.52264939638225
      ],
      [
       126.93264653098274,
       37.52254736909379
      ],
      [
       126.93250135238152,
       37.52269100041171
      ],
      [
       126.93266047061573,
       37.52279302789337
      ]
     ]
    ]
   },
   "properties": {
    "id": "101-A",
    "dong": "101동",
    "part": "A(주동 서측)",
    "use": "공동주택",
    "floors": 48,
    "floor_h_m": 2.95,
    "roof_m": 4.0,
    "height_m": 145.6,
    "base_elev_m": 13.3,
    "top_elev_m": 158.9,
    "source": "배치도 트레이싱(개략)",
    "area_m2": 369.6,
    "gfa_m2": 17738.5
   }
  },
  {
   "type": "Feature",
   "geometry": {
    "type": "Polygon",
    "coordinates": [
     [
      [
       126.9327526096862,
       37.52261538731007
      ],
      [
       126.93284654843836,
       37.52252244921789
      ],
      [
       126.93274046978094,
       37.52245443108496
      ],
      [
       126.93264653098274,
       37.52254736909379
      ],
      [
       126.9327526096862,
       37.52261538731007
      ]
     ]
    ]
   },
   "properties": {
    "id": "101-B",
    "dong": "101동",
    "part": "B(주동 동측)",
    "use": "공동주택",
    "floors": 43,
    "floor_h_m": 2.95,
    "roof_m": 4.0,
    "height_m": 130.85,
    "base_elev_m": 13.3,
    "top_elev_m": 144.15,
    "source": "배치도 트레이싱(개략)",
    "area_m2": 159.4,
    "gfa_m2": 6854.8
   }
  },
  {
   "type": "Feature",
   "geometry": {
    "type": "Polygon",
    "coordinates": [
     [
      [
       126.93286929648254,
       37.52269020723725
      ],
      [
       126.93296323518406,
       37.52259726905339
      ],
      [
       126.93284654843836,
       37.52252244921789
      ],
      [
       126.9327526096862,
       37.52261538731007
      ],
      [
       126.93286929648254,
       37.52269020723725
      ]
     ]
    ]
   },
   "properties": {
    "id": "101-C",
    "dong": "101동",
    "part": "C(저층 연결부)",
    "use": "공동주택",
    "floors": 34,
    "floor_h_m": 2.95,
    "roof_m": 4.0,
    "height_m": 104.3,
    "base_elev_m": 13.3,
    "top_elev_m": 117.6,
    "source": "배치도 트레이싱(개략)",
    "area_m2": 175.4,
    "gfa_m2": 5962.1
   }
  },
  {
   "type": "Feature",
   "geometry": {
    "type": "Polygon",
    "coordinates": [
     [
      [
       126.93361632696627,
       37.522556515509415
      ],
      [
       126.93375296340983,
       37.522421331802455
      ],
      [
       126.93359384447432,
       37.52231930578551
      ],
      [
       126.93345720793032,
       37.52245448931065
      ],
      [
       126.93361632696627,
       37.522556515509415
      ]
     ]
    ]
   },
   "properties": {
    "id": "102-A",
    "dong": "102동",
    "part": "A(주동 서측)",
    "use": "공동주택",
    "floors": 48,
    "floor_h_m": 2.95,
    "roof_m": 4.0,
    "height_m": 145.6,
    "base_elev_m": 13.3,
    "top_elev_m": 158.9,
    "source": "배치도 트레이싱(개략)",
    "area_m2": 347.8,
    "gfa_m2": 16695.1
   }
  },
  {
   "type": "Feature",
   "geometry": {
    "type": "Polygon",
    "coordinates": [
     [
      [
       126.93375296340983,
       37.522421331802455
      ],
      [
       126.93383836093658,
       37.52233684190351
      ],
      [
       126.93371106580375,
       37.52225522119814
      ],
      [
       126.93362566822675,
       37.52233971100616
      ],
      [
       126.93375296340983,
       37.522421331802455
      ]
     ]
    ]
   },
   "properties": {
    "id": "102-B",
    "dong": "102동",
    "part": "B(주동 동측)",
    "use": "공동주택",
    "floors": 46,
    "floor_h_m": 2.95,
    "roof_m": 4.0,
    "height_m": 139.7,
    "base_elev_m": 13.3,
    "top_elev_m": 153.0,
    "source": "배치도 트레이싱(개략)",
    "area_m2": 173.9,
    "gfa_m2": 7999.7
   }
  },
  {
   "type": "Feature",
   "geometry": {
    "type": "Polygon",
    "coordinates": [
     [
      [
       126.93346574772876,
       37.522446040345066
      ],
      [
       126.93356822515989,
       37.522344652708775
      ],
      [
       126.93346214609781,
       37.52227663522159
      ],
      [
       126.93335966861643,
       37.52237802276694
      ],
      [
       126.93346574772876,
       37.522446040345066
      ]
     ]
    ]
   },
   "properties": {
    "id": "102-C",
    "dong": "102동",
    "part": "C(저층 연결부)",
    "use": "공동주택",
    "floors": 34,
    "floor_h_m": 2.95,
    "roof_m": 4.0,
    "height_m": 104.3,
    "base_elev_m": 13.3,
    "top_elev_m": 117.6,
    "source": "배치도 트레이싱(개략)",
    "area_m2": 173.9,
    "gfa_m2": 5912.8
   }
  },
  {
   "type": "Feature",
   "geometry": {
    "type": "Polygon",
    "coordinates": [
     [
      [
       126.93369999223613,
       37.5218164576674
      ],
      [
       126.93382808750792,
       37.52168972283884
      ],
      [
       126.93364775439012,
       37.521574093438595
      ],
      [
       126.93351965901161,
       37.52170082807395
      ],
      [
       126.93369999223613,
       37.5218164576674
      ]
     ]
    ]
   },
   "properties": {
    "id": "103-A",
    "dong": "103동",
    "part": "A(주동 서측)",
    "use": "공동주택",
    "floors": 42,
    "floor_h_m": 2.95,
    "roof_m": 4.0,
    "height_m": 127.9,
    "base_elev_m": 13.3,
    "top_elev_m": 141.2,
    "source": "배치도 트레이싱(개략)",
    "area_m2": 369.6,
    "gfa_m2": 15521.2
   }
  },
  {
   "type": "Feature",
   "geometry": {
    "type": "Polygon",
    "coordinates": [
     [
      [
       126.9337644404616,
       37.52164891249393
      ],
      [
       126.93385837674637,
       37.52155597357936
      ],
      [
       126.93374169072557,
       37.521481154615714
      ],
      [
       126.93364775439012,
       37.521574093438595
      ],
      [
       126.9337644404616,
       37.52164891249393
      ]
     ]
    ]
   },
   "properties": {
    "id": "103-B",
    "dong": "103동",
    "part": "B(주동 동측)",
    "use": "공동주택",
    "floors": 42,
    "floor_h_m": 2.95,
    "roof_m": 4.0,
    "height_m": 127.9,
    "base_elev_m": 13.3,
    "top_elev_m": 141.2,
    "source": "배치도 트레이싱(개략)",
    "area_m2": 175.4,
    "gfa_m2": 7365.0
   }
  },
  {
   "type": "Feature",
   "geometry": {
    "type": "Polygon",
    "coordinates": [
     [
      [
       126.93388112676614,
       37.521723731433255
      ],
      [
       126.93397506300026,
       37.52163079242702
      ],
      [
       126.93385837674637,
       37.52155597357936
      ],
      [
       126.9337644404616,
       37.52164891249393
      ],
      [
       126.93388112676614,
       37.521723731433255
      ]
     ]
    ]
   },
   "properties": {
    "id": "103-C",
    "dong": "103동",
    "part": "C(저층 연결부)",
    "use": "공동주택",
    "floors": 34,
    "floor_h_m": 2.95,
    "roof_m": 4.0,
    "height_m": 104.3,
    "base_elev_m": 13.3,
    "top_elev_m": 117.6,
    "source": "배치도 트레이싱(개략)",
    "area_m2": 175.4,
    "gfa_m2": 5962.1
   }
  },
  {
   "type": "Feature",
   "geometry": {
    "type": "Polygon",
    "coordinates": [
     [
      [
       126.93448737584431,
       37.52169471660816
      ],
      [
       126.9346240091439,
       37.52155953187076
      ],
      [
       126.93446489084894,
       37.52145750701301
      ],
      [
       126.93432825744891,
       37.52159269156857
      ],
      [
       126.93448737584431,
       37.52169471660816
      ]
     ]
    ]
   },
   "properties": {
    "id": "104-A",
    "dong": "104동",
    "part": "A(주동 서측)",
    "use": "공동주택",
    "floors": 43,
    "floor_h_m": 2.95,
    "roof_m": 4.0,
    "height_m": 130.85,
    "base_elev_m": 13.3,
    "top_elev_m": 144.15,
    "source": "배치도 트레이싱(개략)",
    "area_m2": 347.8,
    "gfa_m2": 14956.0
   }
  },
  {
   "type": "Feature",
   "geometry": {
    "type": "Polygon",
    "coordinates": [
     [
      [
       126.9346240091439,
       37.52155953187076
      ],
      [
       126.93470940470567,
       37.52147504132781
      ],
      [
       126.9345821100853,
       37.521393421549774
      ],
      [
       126.93449671447327,
       37.52147791200182
      ],
      [
       126.9346240091439,
       37.52155953187076
      ]
     ]
    ]
   },
   "properties": {
    "id": "104-B",
    "dong": "104동",
    "part": "B(주동 동측)",
    "use": "공동주택",
    "floors": 43,
    "floor_h_m": 2.95,
    "roof_m": 4.0,
    "height_m": 130.85,
    "base_elev_m": 13.3,
    "top_elev_m": 144.15,
    "source": "배치도 트레이싱(개략)",
    "area_m2": 173.9,
    "gfa_m2": 7478.0
   }
  },
  {
   "type": "Feature",
   "geometry": {
    "type": "Polygon",
    "coordinates": [
     [
      [
       126.93432825744891,
       37.52159269156857
      ],
      [
       126.93443073254518,
       37.52149130316705
      ],
      [
       126.93432465390595,
       37.52142328644506
      ],
      [
       126.93422217875943,
       37.52152467475567
      ],
      [
       126.93432825744891,
       37.52159269156857
      ]
     ]
    ]
   },
   "properties": {
    "id": "104-C",
    "dong": "104동",
    "part": "C(저층 연결부)",
    "use": "공동주택",
    "floors": 34,
    "floor_h_m": 2.95,
    "roof_m": 4.0,
    "height_m": 104.3,
    "base_elev_m": 13.3,
    "top_elev_m": 117.6,
    "source": "배치도 트레이싱(개략)",
    "area_m2": 173.9,
    "gfa_m2": 5912.8
   }
  },
  {
   "type": "Feature",
   "geometry": {
    "type": "Polygon",
    "coordinates": [
     [
      [
       126.93346280734919,
       37.523210010552795
      ],
      [
       126.93506827168856,
       37.52162159406683
      ],
      [
       126.93486672098739,
       37.521492363302514
      ],
      [
       126.93326125515246,
       37.52308077708216
      ],
      [
       126.93346280734919,
       37.523210010552795
      ]
     ]
    ]
   },
   "properties": {
    "id": "P-N1",
    "dong": "저층부",
    "part": "북측 저층부(키즈카페·돌봄센터·경로당·공공기여)",
    "use": "근린생활시설/공공시설",
    "floors": 1,
    "floor_h_m": 4.5,
    "roof_m": 0.0,
    "height_m": 4.5,
    "base_elev_m": 13.3,
    "top_elev_m": 17.8,
    "source": "배치도 트레이싱(개략)",
    "area_m2": 5176.6,
    "gfa_m2": 5176.6
   }
  },
  {
   "type": "Feature",
   "geometry": {
    "type": "Polygon",
    "coordinates": [
     [
      [
       126.93325478335647,
       37.523104476752884
      ],
      [
       126.93373301453482,
       37.522631334584744
      ],
      [
       126.93354207136221,
       37.522508903310175
      ],
      [
       126.9330638397619,
       37.522982044714574
      ],
      [
       126.93325478335647,
       37.523104476752884
      ]
     ]
    ]
   },
   "properties": {
    "id": "P-N2",
    "dong": "저층부",
    "part": "북서측 저층부(어린이집·유아돌봄)",
    "use": "주민공동시설",
    "floors": 1,
    "floor_h_m": 4.5,
    "roof_m": 0.0,
    "height_m": 4.5,
    "base_elev_m": 13.3,
    "top_elev_m": 17.8,
    "source": "배치도 트레이싱(개략)",
    "area_m2": 1460.8,
    "gfa_m2": 1460.8
   }
  },
  {
   "type": "Feature",
   "geometry": {
    "type": "Polygon",
    "coordinates": [
     [
      [
       126.93364094674277,
       37.52223811048924
      ],
      [
       126.93418748705427,
       37.52169737454599
      ],
      [
       126.93395411414754,
       37.521547737155515
      ],
      [
       126.93340757324654,
       37.522088472031996
      ],
      [
       126.93364094674277,
       37.52223811048924
      ]
     ]
    ]
   },
   "properties": {
    "id": "P-C1",
    "dong": "저층부",
    "part": "중앙 저층부(작은도서관·피트니스·공유주방)",
    "use": "주민공동시설",
    "floors": 1,
    "floor_h_m": 4.5,
    "roof_m": 0.0,
    "height_m": 4.5,
    "base_elev_m": 13.3,
    "top_elev_m": 17.8,
    "source": "배치도 트레이싱(개략)",
    "area_m2": 2040.5,
    "gfa_m2": 2040.5
   }
  },
  {
   "type": "Feature",
   "geometry": {
    "type": "Polygon",
    "coordinates": [
     [
      [
       126.9341367825921,
       37.521609164945055
      ],
      [
       126.93450398474485,
       37.52124585668272
      ],
      [
       126.93430243602808,
       37.52111662494909
      ],
      [
       126.93393523353328,
       37.521479932592456
      ],
      [
       126.9341367825921,
       37.521609164945055
      ]
     ]
    ]
   },
   "properties": {
    "id": "P-E1",
    "dong": "저층부",
    "part": "동측 저층부(복합문화체육센터·노인복지시설)",
    "use": "공공기여시설",
    "floors": 2,
    "floor_h_m": 4.5,
    "roof_m": 0.0,
    "height_m": 9.0,
    "base_elev_m": 13.3,
    "top_elev_m": 22.3,
    "source": "배치도 트레이싱(개략)",
    "area_m2": 1184.0,
    "gfa_m2": 2368.0
   }
  },
  {
   "type": "Feature",
   "geometry": {
    "type": "Polygon",
    "coordinates": [
     [
      [
       126.93267558971118,
       37.52273309861205
      ],
      [
       126.9343066791518,
       37.52111934562073
      ],
      [
       126.93412210355518,
       37.52100099626246
      ],
      [
       126.9324910127233,
       37.52261474673583
      ],
      [
       126.93267558971118,
       37.52273309861205
      ]
     ]
    ]
   },
   "properties": {
    "id": "P-S1",
    "dong": "저층부",
    "part": "남측 저층부(근린생활시설)",
    "use": "근린생활시설",
    "floors": 1,
    "floor_h_m": 4.5,
    "roof_m": 0.0,
    "height_m": 4.5,
    "base_elev_m": 13.3,
    "top_elev_m": 17.8,
    "source": "배치도 트레이싱(개략)",
    "area_m2": 4816.4,
    "gfa_m2": 4816.4
   }
  }
 ]
}