{
 "type": "FeatureCollection",
 "features": [
  {
   "type": "Feature",
   "geometry": {
    "type": "Polygon",
    "coordinates": [
     [
      [
       126.93342336344932,
       37.52329054688188
      ],
      [
       126.93521328389096,
       37.52151963067594
      ],
      [
       126.9342437254259,
       37.52089796069082
      ],
      [
       126.93231032575164,
       37.52281080368344
      ],
      [
       126.9327176692805,
       37.523071994259276
      ],
      [
       126.93286114022264,
       37.522930052469356
      ],
      [
       126.93342336344932,
       37.52329054688188
      ]
     ]
    ]
   },
   "properties": {
    "name": "대지경계선(사업시행인가 대지)",
    "area_m2": 28698.4
   }
  }
 ]
}