{
 "type": "FeatureCollection",
 "features": [
  {
   "type": "Feature",
   "geometry": {
    "type": "Polygon",
    "coordinates": [
     [
      [
       194026.27469465652,
       547094.7867080153
      ],
      [
       194045.88509541986,
       547070.391860687
      ],
      [
       193987.71276717557,
       547023.6285973283
      ],
      [
       193968.10236641223,
       547048.0234446565
      ],
      [
       194026.27469465652,
       547094.7867080153
      ]
     ]
    ]
   },
   "properties": {
    "id": "CTX-SAMBU",
    "dong": "삼부아파트(기존)",
    "part": "주변 참고 건물",
    "use": "참고(주변현황)",
    "floors": 12,
    "floor_h_m": 2.95,
    "roof_m": 4.0,
    "height_m": 39.4,
    "base_elev_m": 13.3,
    "top_elev_m": 52.7,
    "source": "배치도 참고표기(개략) - 실측 대체 필요",
    "area_m2": 2336.2,
    "gfa_m2": 28033.8
   }
  },
  {
   "type": "Feature",
   "geometry": {
    "type": "Polygon",
    "coordinates": [
     [
      [
       194163.0385305344,
       547139.8552194657
      ],
      [
       194212.81877862598,
       547077.9298377862
      ],
      [
       194194.05351145042,
       547062.8449141221
      ],
      [
       194144.2732633588,
       547124.7702958016
      ],
      [
       194163.0385305344,
       547139.8552194657
      ]
     ]
    ]
   },
   "properties": {
    "id": "CTX-JANGMI",
    "dong": "장미아파트(기존)",
    "part": "주변 참고 건물",
    "use": "참고(주변현황)",
    "floors": 13,
    "floor_h_m": 2.95,
    "roof_m": 4.0,
    "height_m": 42.35,
    "base_elev_m": 13.3,
    "top_elev_m": 55.65,
    "source": "배치도 참고표기(개략) - 실측 대체 필요",
    "area_m2": 1913.0,
    "gfa_m2": 24868.7
   }
  },
  {
   "type": "Feature",
   "geometry": {
    "type": "Polygon",
    "coordinates": [
     [
      [
       194233.93767175576,
       547051.6584637405
      ],
      [
       194273.15847328247,
       547002.868769084
      ],
      [
       194246.88709923666,
       546981.7498759542
      ],
      [
       194207.66629770995,
       547030.5395706107
      ],
      [
       194233.93767175576,
       547051.6584637405
      ]
     ]
    ]
   },
   "properties": {
    "id": "CTX-YEOGO",
    "dong": "여의도여자고등학교",
    "part": "주변 참고 건물",
    "use": "참고(주변현황)",
    "floors": 5,
    "floor_h_m": 2.95,
    "roof_m": 4.0,
    "height_m": 18.75,
    "base_elev_m": 13.3,
    "top_elev_m": 32.05,
    "source": "배치도 참고표기(개략) - 실측 대체 필요",
    "area_m2": 2110.1,
    "gfa_m2": 10550.4
   }
  },
  {
   "type": "Feature",
   "geometry": {
    "type": "Polygon",
    "coordinates": [
     [
      [
       194288.2433969466,
       546984.1035019084
      ],
      [
       194328.97269083973,
       546933.4372805343
      ],
      [
       194308.3308969466,
       546916.8438645038
      ],
      [
       194267.60160305345,
       546967.5100858778
      ],
      [
       194288.2433969466,
       546984.1035019084
      ]
     ]
    ]
   },
   "properties": {
    "id": "CTX-HWARANG",
    "dong": "화랑아파트(기존, 여의도동 40-4)",
    "part": "주변 참고 건물",
    "use": "참고(주변현황)",
    "floors": 10,
    "floor_h_m": 2.95,
    "roof_m": 4.0,
    "height_m": 33.5,
    "base_elev_m": 13.3,
    "top_elev_m": 46.8,
    "source": "배치도 참고표기(개략) - 실측 대체 필요",
    "area_m2": 1721.7,
    "gfa_m2": 17216.8
   }
  },
  {
   "type": "Feature",
   "geometry": {
    "type": "Polygon",
    "coordinates": [
     [
      [
       194072.2246946565,
       546903.1264980916
      ],
      [
       194115.97097328244,
       546848.7072232824
      ],
      [
       194082.1934923664,
       546821.554360687
      ],
      [
       194038.44721374047,
       546875.9736354962
      ],
      [
       194072.2246946565,
       546903.1264980916
      ]
     ]
    ]
   },
   "properties": {
    "id": "CTX-HANYANG",
    "dong": "한양아파트(기존)",
    "part": "주변 참고 건물",
    "use": "참고(주변현황)",
    "floors": 12,
    "floor_h_m": 2.95,
    "roof_m": 4.0,
    "height_m": 39.4,
    "base_elev_m": 13.3,
    "top_elev_m": 52.7,
    "source": "배치도 참고표기(개략) - 실측 대체 필요",
    "area_m2": 3026.0,
    "gfa_m2": 36311.8
   }
  },
  {
   "type": "Feature",
   "geometry": {
    "type": "Polygon",
    "coordinates": [
     [
      [
       194034.14435114505,
       546946.6546469466
      ],
      [
       194061.29721374047,
       546912.8771660306
      ],
      [
       194035.02583969466,
       546891.7582729008
      ],
      [
       194007.87297709924,
       546925.5357538168
      ],
      [
       194034.14435114505,
       546946.6546469466
      ]
     ]
    ]
   },
   "properties": {
    "id": "CTX-HANYANG-102",
    "dong": "한양아파트 재건축(안) 102동",
    "part": "주변 참고 건물",
    "use": "참고(주변현황)",
    "floors": 54,
    "floor_h_m": 2.95,
    "roof_m": 4.0,
    "height_m": 163.3,
    "base_elev_m": 13.3,
    "top_elev_m": 176.6,
    "source": "배치도 참고표기(개략) - 실측 대체 필요",
    "area_m2": 1460.8,
    "gfa_m2": 78884.2
   }
  },
  {
   "type": "Feature",
   "geometry": {
    "type": "Polygon",
    "coordinates": [
     [
      [
       194126.4940648855,
       546850.988139313
      ],
      [
       194153.6469274809,
       546817.210658397
      ],
      [
       194112.36333969465,
       546784.0238263359
      ],
      [
       194085.21047709923,
       546817.8013072519
      ],
      [
       194126.4940648855,
       546850.988139313
      ]
     ]
    ]
   },
   "properties": {
    "id": "CTX-HANYANG-103",
    "dong": "한양아파트 재건축(안) 103동",
    "part": "주변 참고 건물",
    "use": "참고(주변현황)",
    "floors": 51,
    "floor_h_m": 2.95,
    "roof_m": 4.0,
    "height_m": 154.45,
    "base_elev_m": 13.3,
    "top_elev_m": 167.75,
    "source": "배치도 참고표기(개략) - 실측 대체 필요",
    "area_m2": 2295.6,
    "gfa_m2": 117074.2
   }
  }
 ],
 "crs": {
  "type": "name",
  "properties": {
   "name": "urn:ogc:def:crs:EPSG::5186"
  }
 }
}