{
 "type": "FeatureCollection",
 "features": [
  {
   "type": "Feature",
   "geometry": {
    "type": "Polygon",
    "coordinates": [
     [
      [
       194114.76,
       547091.16
      ],
      [
       194272.85,
       546894.5
      ],
      [
       194187.09272900765,
       546825.5618988549
      ],
      [
       194016.33139312977,
       547037.9847232825
      ],
      [
       194052.36070610688,
       547066.9477767176
      ],
      [
       194065.03204198476,
       547051.1849522901
      ],
      [
       194114.76,
       547091.16
      ]
     ]
    ]
   },
   "properties": {
    "name": "대지경계선(사업시행인가 대지)",
    "area_m2": 28698.4
   }
  }
 ],
 "crs": {
  "type": "name",
  "properties": {
   "name": "urn:ogc:def:crs:EPSG::5186"
  }
 }
}