{
 "type": "FeatureCollection",
 "features": [
  {
   "type": "Feature",
   "geometry": {
    "type": "Polygon",
    "coordinates": [
     [
      [
       194047.28228053436,
       547035.9896183206
      ],
      [
       194060.10446564885,
       547020.0391412214
      ],
      [
       194046.0305152672,
       547008.7254484734
      ],
      [
       194033.20833015267,
       547024.6759255725
      ],
      [
       194047.28228053436,
       547035.9896183206
      ]
     ]
    ]
   },
   "properties": {
    "id": "101-A",
    "dong": "101동",
    "part": "A(주동 서측)",
    "use": "공동주택",
    "floors": 48,
    "floor_h_m": 2.95,
    "roof_m": 4.0,
    "height_m": 145.6,
    "base_elev_m": 13.3,
    "top_elev_m": 158.9,
    "source": "배치도 트레이싱(개략)",
    "area_m2": 369.6,
    "gfa_m2": 17738.5
   }
  },
  {
   "type": "Feature",
   "geometry": {
    "type": "Polygon",
    "coordinates": [
     [
      [
       194055.41314885498,
       547016.2679103054
      ],
      [
       194063.70985687023,
       547005.9470133588
      ],
      [
       194054.32722328245,
       546998.4045515268
      ],
      [
       194046.0305152672,
       547008.7254484734
      ],
      [
       194055.41314885498,
       547016.2679103054
      ]
     ]
    ]
   },
   "properties": {
    "id": "101-B",
    "dong": "101동",
    "part": "B(주동 동측)",
    "use": "공동주택",
    "floors": 43,
    "floor_h_m": 2.95,
    "roof_m": 4.0,
    "height_m": 130.85,
    "base_elev_m": 13.3,
    "top_elev_m": 144.15,
    "source": "배치도 트레이싱(개략)",
    "area_m2": 159.4,
    "gfa_m2": 6854.8
   }
  },
  {
   "type": "Feature",
   "geometry": {
    "type": "Polygon",
    "coordinates": [
     [
      [
       194065.73404580154,
       547024.5646183207
      ],
      [
       194074.0307538168,
       547014.2437213741
      ],
      [
       194063.70985687023,
       547005.9470133588
      ],
      [
       194055.41314885498,
       547016.2679103054
      ],
      [
       194065.73404580154,
       547024.5646183207
      ]
     ]
    ]
   },
   "properties": {
    "id": "101-C",
    "dong": "101동",
    "part": "C(저층 연결부)",
    "use": "공동주택",
    "floors": 34,
    "floor_h_m": 2.95,
    "roof_m": 4.0,
    "height_m": 104.3,
    "base_elev_m": 13.3,
    "top_elev_m": 117.6,
    "source": "배치도 트레이싱(개략)",
    "area_m2": 175.4,
    "gfa_m2": 5962.1
   }
  },
  {
   "type": "Feature",
   "geometry": {
    "type": "Polygon",
    "coordinates": [
     [
      [
       194131.76009541986,
       547009.6796469466
      ],
      [
       194143.82803435117,
       546994.6674332061
      ],
      [
       194129.75408396948,
       546983.353740458
      ],
      [
       194117.68614503817,
       546998.3659541985
      ],
      [
       194131.76009541986,
       547009.6796469466
      ]
     ]
    ]
   },
   "properties": {
    "id": "102-A",
    "dong": "102동",
    "part": "A(주동 서측)",
    "use": "공동주택",
    "floors": 48,
    "floor_h_m": 2.95,
    "roof_m": 4.0,
    "height_m": 145.6,
    "base_elev_m": 13.3,
    "top_elev_m": 158.9,
    "source": "배치도 트레이싱(개략)",
    "area_m2": 347.8,
    "gfa_m2": 16695.1
   }
  },
  {
   "type": "Feature",
   "geometry": {
    "type": "Polygon",
    "coordinates": [
     [
      [
       194143.82803435117,
       546994.6674332061
      ],
      [
       194151.37049618323,
       546985.2847996183
      ],
      [
       194140.11133587788,
       546976.2338454198
      ],
      [
       194132.56887404583,
       546985.6164790076
      ],
      [
       194143.82803435117,
       546994.6674332061
      ]
     ]
    ]
   },
   "properties": {
    "id": "102-B",
    "dong": "102동",
    "part": "B(주동 동측)",
    "use": "공동주택",
    "floors": 46,
    "floor_h_m": 2.95,
    "roof_m": 4.0,
    "height_m": 139.7,
    "base_elev_m": 13.3,
    "top_elev_m": 153.0,
    "source": "배치도 트레이싱(개략)",
    "area_m2": 173.9,
    "gfa_m2": 7999.7
   }
  },
  {
   "type": "Feature",
   "geometry": {
    "type": "Polygon",
    "coordinates": [
     [
      [
       194118.44039122137,
       546997.4276908397
      ],
      [
       194127.49134541987,
       546986.1685305344
      ],
      [
       194118.1087118321,
       546978.6260687023
      ],
      [
       194109.0577576336,
       546989.8852290077
      ],
      [
       194118.44039122137,
       546997.4276908397
      ]
     ]
    ]
   },
   "properties": {
    "id": "102-C",
    "dong": "102동",
    "part": "C(저층 연결부)",
    "use": "공동주택",
    "floors": 34,
    "floor_h_m": 2.95,
    "roof_m": 4.0,
    "height_m": 104.3,
    "base_elev_m": 13.3,
    "top_elev_m": 117.6,
    "source": "배치도 트레이싱(개략)",
    "area_m2": 173.9,
    "gfa_m2": 5912.8
   }
  },
  {
   "type": "Feature",
   "geometry": {
    "type": "Polygon",
    "coordinates": [
     [
      [
       194139.09812022903,
       546927.5372805344
      ],
      [
       194150.4118129771,
       546913.4633301527
      ],
      [
       194134.46133587786,
       546900.6411450382
      ],
      [
       194123.14764312978,
       546914.7150954199
      ],
      [
       194139.09812022903,
       546927.5372805344
      ]
     ]
    ]
   },
   "properties": {
    "id": "103-A",
    "dong": "103동",
    "part": "A(주동 서측)",
    "use": "공동주택",
    "floors": 42,
    "floor_h_m": 2.95,
    "roof_m": 4.0,
    "height_m": 127.9,
    "base_elev_m": 13.3,
    "top_elev_m": 141.2,
    "source": "배치도 트레이싱(개략)",
    "area_m2": 369.6,
    "gfa_m2": 15521.2
   }
  },
  {
   "type": "Feature",
   "geometry": {
    "type": "Polygon",
    "coordinates": [
     [
      [
       194144.78223282442,
       546908.9378530534
      ],
      [
       194153.0789408397,
       546898.6169561069
      ],
      [
       194142.75804389315,
       546890.3202480916
      ],
      [
       194134.46133587786,
       546900.6411450382
      ],
      [
       194144.78223282442,
       546908.9378530534
      ]
     ]
    ]
   },
   "properties": {
    "id": "103-B",
    "dong": "103동",
    "part": "B(주동 동측)",
    "use": "공동주택",
    "floors": 42,
    "floor_h_m": 2.95,
    "roof_m": 4.0,
    "height_m": 127.9,
    "base_elev_m": 13.3,
    "top_elev_m": 141.2,
    "source": "배치도 트레이싱(개략)",
    "area_m2": 175.4,
    "gfa_m2": 7365.0
   }
  },
  {
   "type": "Feature",
   "geometry": {
    "type": "Polygon",
    "coordinates": [
     [
      [
       194155.103129771,
       546917.2345610687
      ],
      [
       194163.39983778627,
       546906.9136641221
      ],
      [
       194153.0789408397,
       546898.6169561069
      ],
      [
       194144.78223282442,
       546908.9378530534
      ],
      [
       194155.103129771,
       546917.2345610687
      ]
     ]
    ]
   },
   "properties": {
    "id": "103-C",
    "dong": "103동",
    "part": "C(저층 연결부)",
    "use": "공동주택",
    "floors": 34,
    "floor_h_m": 2.95,
    "roof_m": 4.0,
    "height_m": 104.3,
    "base_elev_m": 13.3,
    "top_elev_m": 117.6,
    "source": "배치도 트레이싱(개략)",
    "area_m2": 175.4,
    "gfa_m2": 5962.1
   }
  },
  {
   "type": "Feature",
   "geometry": {
    "type": "Polygon",
    "coordinates": [
     [
      [
       194208.6932061069,
       546913.9767843512
      ],
      [
       194220.76114503818,
       546898.9645706107
      ],
      [
       194206.6871946565,
       546887.6508778626
      ],
      [
       194194.6192557252,
       546902.6630916031
      ],
      [
       194208.6932061069,
       546913.9767843512
      ]
     ]
    ]
   },
   "properties": {
    "id": "104-A",
    "dong": "104동",
    "part": "A(주동 서측)",
    "use": "공동주택",
    "floors": 43,
    "floor_h_m": 2.95,
    "roof_m": 4.0,
    "height_m": 130.85,
    "base_elev_m": 13.3,
    "top_elev_m": 144.15,
    "source": "배치도 트레이싱(개략)",
    "area_m2": 347.8,
    "gfa_m2": 14956.0
   }
  },
  {
   "type": "Feature",
   "geometry": {
    "type": "Polygon",
    "coordinates": [
     [
      [
       194220.76114503818,
       546898.9645706107
      ],
      [
       194228.30360687023,
       546889.5819370229
      ],
      [
       194217.0444465649,
       546880.5309828244
      ],
      [
       194209.50198473284,
       546889.9136164122
      ],
      [
       194220.76114503818,
       546898.9645706107
      ]
     ]
    ]
   },
   "properties": {
    "id": "104-B",
    "dong": "104동",
    "part": "B(주동 동측)",
    "use": "공동주택",
    "floors": 43,
    "floor_h_m": 2.95,
    "roof_m": 4.0,
    "height_m": 130.85,
    "base_elev_m": 13.3,
    "top_elev_m": 144.15,
    "source": "배치도 트레이싱(개략)",
    "area_m2": 173.9,
    "gfa_m2": 7478.0
   }
  },
  {
   "type": "Feature",
   "geometry": {
    "type": "Polygon",
    "coordinates": [
     [
      [
       194194.6192557252,
       546902.6630916031
      ],
      [
       194203.67020992367,
       546891.4039312977
      ],
      [
       194194.2875763359,
       546883.8614694657
      ],
      [
       194185.23662213743,
       546895.120629771
      ],
      [
       194194.6192557252,
       546902.6630916031
      ]
     ]
    ]
   },
   "properties": {
    "id": "104-C",
    "dong": "104동",
    "part": "C(저층 연결부)",
    "use": "공동주택",
    "floors": 34,
    "floor_h_m": 2.95,
    "roof_m": 4.0,
    "height_m": 104.3,
    "base_elev_m": 13.3,
    "top_elev_m": 117.6,
    "source": "배치도 트레이싱(개략)",
    "area_m2": 173.9,
    "gfa_m2": 5912.8
   }
  },
  {
   "type": "Feature",
   "geometry": {
    "type": "Polygon",
    "coordinates": [
     [
      [
       194118.24043893133,
       547082.2190076336
      ],
      [
       194260.03872137406,
       546905.8254961832
      ],
      [
       194242.21171755728,
       546891.4948187022
      ],
      [
       194100.41343511452,
       547067.8883301527
      ],
      [
       194118.24043893133,
       547082.2190076336
      ]
     ]
    ]
   },
   "properties": {
    "id": "P-N1",
    "dong": "저층부",
    "part": "북측 저층부(키즈카페·돌봄센터·경로당·공공기여)",
    "use": "근린생활시설/공공시설",
    "floors": 1,
    "floor_h_m": 4.5,
    "roof_m": 0.0,
    "height_m": 4.5,
    "base_elev_m": 13.3,
    "top_elev_m": 17.8,
    "source": "배치도 트레이싱(개략)",
    "area_m2": 5176.6,
    "gfa_m2": 5176.6
   }
  },
  {
   "type": "Feature",
   "geometry": {
    "type": "Polygon",
    "coordinates": [
     [
      [
       194099.8432061069,
       547070.5191030535
      ],
      [
       194142.08099236642,
       547017.9763549619
      ],
      [
       194125.19225190842,
       547004.3999236642
      ],
      [
       194082.95446564886,
       547056.9426717558
      ],
      [
       194099.8432061069,
       547070.5191030535
      ]
     ]
    ]
   },
   "properties": {
    "id": "P-N2",
    "dong": "저층부",
    "part": "북서측 저층부(어린이집·유아돌봄)",
    "use": "주민공동시설",
    "floors": 1,
    "floor_h_m": 4.5,
    "roof_m": 0.0,
    "height_m": 4.5,
    "base_elev_m": 13.3,
    "top_elev_m": 17.8,
    "source": "배치도 트레이싱(개략)",
    "area_m2": 1460.8,
    "gfa_m2": 1460.8
   }
  },
  {
   "type": "Feature",
   "geometry": {
    "type": "Polygon",
    "coordinates": [
     [
      [
       194133.91152671757,
       546974.3391412214
      ],
      [
       194182.18328244277,
       546914.2902862595
      ],
      [
       194161.5414885496,
       546897.696870229
      ],
      [
       194113.26973282444,
       546957.7457251908
      ],
      [
       194133.91152671757,
       546974.3391412214
      ]
     ]
    ]
   },
   "properties": {
    "id": "P-C1",
    "dong": "저층부",
    "part": "중앙 저층부(작은도서관·피트니스·공유주방)",
    "use": "주민공동시설",
    "floors": 1,
    "floor_h_m": 4.5,
    "roof_m": 0.0,
    "height_m": 4.5,
    "base_elev_m": 13.3,
    "top_elev_m": 17.8,
    "source": "배치도 트레이싱(개략)",
    "area_m2": 2040.5,
    "gfa_m2": 2040.5
   }
  },
  {
   "type": "Feature",
   "geometry": {
    "type": "Polygon",
    "coordinates": [
     [
      [
       194177.69416030534,
       546904.5032633587
      ],
      [
       194210.1267461832,
       546864.1579389313
      ],
      [
       194192.29974236642,
       546849.8272614504
      ],
      [
       194159.86715648856,
       546890.1725858778
      ],
      [
       194177.69416030534,
       546904.5032633587
      ]
     ]
    ]
   },
   "properties": {
    "id": "P-E1",
    "dong": "저층부",
    "part": "동측 저층부(복합문화체육센터·노인복지시설)",
    "use": "공공기여시설",
    "floors": 2,
    "floor_h_m": 4.5,
    "roof_m": 0.0,
    "height_m": 9.0,
    "base_elev_m": 13.3,
    "top_elev_m": 22.3,
    "source": "배치도 트레이싱(개략)",
    "area_m2": 1184.0,
    "gfa_m2": 2368.0
   }
  },
  {
   "type": "Feature",
   "geometry": {
    "type": "Polygon",
    "coordinates": [
     [
      [
       194048.61402671758,
       547029.3372614504
      ],
      [
       194192.67504770993,
       546850.1289599236
      ],
      [
       194176.34926526717,
       546837.0050763359
      ],
      [
       194032.28824427482,
       547016.2133778626
      ],
      [
       194048.61402671758,
       547029.3372614504
      ]
     ]
    ]
   },
   "properties": {
    "id": "P-S1",
    "dong": "저층부",
    "part": "남측 저층부(근린생활시설)",
    "use": "근린생활시설",
    "floors": 1,
    "floor_h_m": 4.5,
    "roof_m": 0.0,
    "height_m": 4.5,
    "base_elev_m": 13.3,
    "top_elev_m": 17.8,
    "source": "배치도 트레이싱(개략)",
    "area_m2": 4816.4,
    "gfa_m2": 4816.4
   }
  }
 ],
 "crs": {
  "type": "name",
  "properties": {
   "name": "urn:ogc:def:crs:EPSG::5186"
  }
 }
}