{
 "type": "FeatureCollection",
 "features": [
  {
   "type": "Feature",
   "geometry": {
    "type": "Polygon",
    "coordinates": [
     [
      [
       126.93242234671145,
       37.52332265509704
      ],
      [
       126.93264438645288,
       37.52310298376989
      ],
      [
       126.93198669793102,
       37.5226812687122
      ],
      [
       126.93176465751489,
       37.522900938817976
      ],
      [
       126.93242234671145,
       37.52332265509704
      ]
     ]
    ]
   },
   "properties": {
    "id": "CTX-SAMBU",
    "dong": "삼부아파트(기존)",
    "part": "주변 참고 건물",
    "use": "참고(주변현황)",
    "floors": 12,
    "floor_h_m": 2.95,
    "roof_m": 4.0,
    "height_m": 39.4,
    "base_elev_m": 13.3,
    "top_elev_m": 52.7,
    "source": "배치도 참고표기(개략) - 실측 대체 필요",
    "area_m2": 2336.2,
    "gfa_m2": 28033.8
   }
  },
  {
   "type": "Feature",
   "geometry": {
    "type": "Polygon",
    "coordinates": [
     [
      [
       126.9339691261599,
       37.523729598348815
      ],
      [
       126.93453275452525,
       37.52317196294905
      ],
      [
       126.9343205924995,
       37.52303592962658
      ],
      [
       126.93375696358144,
       37.5235935640262
      ],
      [
       126.9339691261599,
       37.523729598348815
      ]
     ]
    ]
   },
   "properties": {
    "id": "CTX-JANGMI",
    "dong": "장미아파트(기존)",
    "part": "주변 참고 건물",
    "use": "참고(주변현황)",
    "floors": 13,
    "floor_h_m": 2.95,
    "roof_m": 4.0,
    "height_m": 42.35,
    "base_elev_m": 13.3,
    "top_elev_m": 55.65,
    "source": "배치도 참고표기(개략) - 실측 대체 필요",
    "area_m2": 1913.0,
    "gfa_m2": 24868.7
   }
  },
  {
   "type": "Feature",
   "geometry": {
    "type": "Polygon",
    "coordinates": [
     [
      [
       126.934771867054,
       37.522935389524285
      ],
      [
       126.93521592917162,
       37.52249603756499
      ],
      [
       126.93491890348935,
       37.522305592503294
      ],
      [
       126.934474840762,
       37.52274494335943
      ],
      [
       126.934771867054,
       37.522935389524285
      ]
     ]
    ]
   },
   "properties": {
    "id": "CTX-YEOGO",
    "dong": "여의도여자고등학교",
    "part": "주변 참고 건물",
    "use": "참고(주변현황)",
    "floors": 5,
    "floor_h_m": 2.95,
    "roof_m": 4.0,
    "height_m": 18.75,
    "base_elev_m": 13.3,
    "top_elev_m": 32.05,
    "source": "배치도 참고표기(개략) - 실측 대체 필요",
    "area_m2": 2110.1,
    "gfa_m2": 10550.4
   }
  },
  {
   "type": "Feature",
   "geometry": {
    "type": "Polygon",
    "coordinates": [
     [
      [
       126.93538672090673,
       37.52232705558762
      ],
      [
       126.93584785474248,
       37.52187080298729
      ],
      [
       126.9356144779753,
       37.52172116887835
      ],
      [
       126.93515334364206,
       37.52217742057862
      ],
      [
       126.93538672090673,
       37.52232705558762
      ]
     ]
    ]
   },
   "properties": {
    "id": "CTX-HWARANG",
    "dong": "화랑아파트(기존)",
    "part": "주변 참고 건물",
    "use": "참고(주변현황)",
    "floors": 12,
    "floor_h_m": 2.95,
    "roof_m": 4.0,
    "height_m": 39.4,
    "base_elev_m": 13.3,
    "top_elev_m": 52.7,
    "source": "배치도 참고표기(개략) - 실측 대체 필요",
    "area_m2": 1721.7,
    "gfa_m2": 20660.2
   }
  },
  {
   "type": "Feature",
   "geometry": {
    "type": "Polygon",
    "coordinates": [
     [
      [
       126.93294370040397,
       37.52159608890894
      ],
      [
       126.93343900320183,
       37.52110604994111
      ],
      [
       126.93305712620946,
       37.52086118607569
      ],
      [
       126.93256182253761,
       37.52135122346159
      ],
      [
       126.93294370040397,
       37.52159608890894
      ]
     ]
    ]
   },
   "properties": {
    "id": "CTX-HANYANG",
    "dong": "한양아파트(기존)",
    "part": "주변 참고 건물",
    "use": "참고(주변현황)",
    "floors": 12,
    "floor_h_m": 2.95,
    "roof_m": 4.0,
    "height_m": 39.4,
    "base_elev_m": 13.3,
    "top_elev_m": 52.7,
    "source": "배치도 참고표기(개략) - 실측 대체 필요",
    "area_m2": 3026.0,
    "gfa_m2": 36311.8
   }
  },
  {
   "type": "Feature",
   "geometry": {
    "type": "Polygon",
    "coordinates": [
     [
      [
       126.93251257419668,
       37.521988033117076
      ],
      [
       126.93282000764137,
       37.52168387239484
      ],
      [
       126.93252299127457,
       37.52149342129047
      ],
      [
       126.932215557408,
       37.52179758124901
      ],
      [
       126.93251257419668,
       37.521988033117076
      ]
     ]
    ]
   },
   "properties": {
    "id": "CTX-HANYANG-102",
    "dong": "한양아파트 재건축(안) 102동",
    "part": "주변 참고 건물",
    "use": "참고(주변현황)",
    "floors": 54,
    "floor_h_m": 2.95,
    "roof_m": 4.0,
    "height_m": 163.3,
    "base_elev_m": 13.3,
    "top_elev_m": 176.6,
    "source": "배치도 참고표기(개략) - 실측 대체 필요",
    "area_m2": 1460.8,
    "gfa_m2": 78884.2
   }
  },
  {
   "type": "Feature",
   "geometry": {
    "type": "Polygon",
    "coordinates": [
     [
      [
       126.93355802365609,
       37.52112666807128
      ],
      [
       126.93386544932152,
       37.52082250457587
      ],
      [
       126.93339871117301,
       37.520523228020245
      ],
      [
       126.9330912848445,
       37.52082739031562
      ],
      [
       126.93355802365609,
       37.52112666807128
      ]
     ]
    ]
   },
   "properties": {
    "id": "CTX-HANYANG-103",
    "dong": "한양아파트 재건축(안) 103동",
    "part": "주변 참고 건물",
    "use": "참고(주변현황)",
    "floors": 51,
    "floor_h_m": 2.95,
    "roof_m": 4.0,
    "height_m": 154.45,
    "base_elev_m": 13.3,
    "top_elev_m": 167.75,
    "source": "배치도 참고표기(개략) - 실측 대체 필요",
    "area_m2": 2295.6,
    "gfa_m2": 117074.2
   }
  }
 ]
}