{
 "type": "FeatureCollection",
 "features": [
  {
   "type": "Feature",
   "geometry": {
    "type": "Polygon",
    "coordinates": [
     [
      [
       126.93545425,
       37.52222299
      ],
      [
       126.93533,
       37.52234947
      ],
      [
       126.93510515,
       37.52220935
      ],
      [
       126.9352294,
       37.52208287
      ],
      [
       126.93545425,
       37.52222299
      ]
     ]
    ]
   },
   "properties": {
    "label": "타워1 외형선",
    "kind": "타워1 외형선",
    "height_m": 129.4
   }
  },
  {
   "type": "Feature",
   "geometry": {
    "type": "Polygon",
    "coordinates": [
     [
      [
       126.93562032,
       37.52205392
      ],
      [
       126.93549607,
       37.52218041
      ],
      [
       126.93527123,
       37.52204029
      ],
      [
       126.93539548,
       37.5219138
      ],
      [
       126.93562032,
       37.52205392
      ]
     ]
    ]
   },
   "properties": {
    "label": "타워2 외형선",
    "kind": "타워2 외형선",
    "height_m": 129.4
   }
  },
  {
   "type": "Feature",
   "geometry": {
    "type": "Polygon",
    "coordinates": [
     [
      [
       126.9357864,
       37.52188486
      ],
      [
       126.93566215,
       37.52201135
      ],
      [
       126.9354373,
       37.52187123
      ],
      [
       126.93556155,
       37.52174474
      ],
      [
       126.9357864,
       37.52188486
      ]
     ]
    ]
   },
   "properties": {
    "label": "타워3 외형선",
    "kind": "타워3 외형선",
    "height_m": 129.4
   }
  },
  {
   "type": "Feature",
   "geometry": {
    "type": "Polygon",
    "coordinates": [
     [
      [
       126.93527217,
       37.52150157
      ],
      [
       126.93473908,
       37.52204503
      ],
      [
       126.93583321,
       37.52272589
      ],
      [
       126.93636631,
       37.52218242
      ],
      [
       126.93527217,
       37.52150157
      ]
     ]
    ]
   },
   "properties": {
    "label": "화랑 대지",
    "kind": "대지",
    "area_m2": 9395
   }
  }
 ]
}