{
 "type": "FeatureCollection",
 "features": [
  {
   "type": "Feature",
   "geometry": {
    "type": "Polygon",
    "coordinates": [
     [
      [
       194267.592,
       546913.109
      ],
      [
       194283.243,
       546925.336
      ],
      [
       194252.808,
       546964.291
      ],
      [
       194237.157,
       546952.064
      ],
      [
       194267.592,
       546913.109
      ]
     ]
    ]
   },
   "properties": {
    "label": "타워1 외형선",
    "kind": "타워1 외형선",
    "height_m": 162.4
   }
  },
  {
   "type": "Feature",
   "geometry": {
    "type": "Polygon",
    "coordinates": [
     [
      [
       194278.054,
       546892.492
      ],
      [
       194230.971,
       546952.842
      ],
      [
       194327.743,
       547028.342
      ],
      [
       194374.827,
       546967.992
      ],
      [
       194278.054,
       546892.492
      ]
     ]
    ]
   },
   "properties": {
    "label": "화랑 대지",
    "kind": "대지",
    "area_m2": 9395
   }
  }
 ],
 "crs": {
  "type": "name",
  "properties": {
   "name": "urn:ogc:def:crs:EPSG::5186"
  }
 }
}