{
 "type": "FeatureCollection",
 "features": [
  {
   "type": "Feature",
   "geometry": {
    "type": "Polygon",
    "coordinates": [
     [
      [
       126.93578478,
       37.52207054
      ],
      [
       126.93594742,
       37.52209347
      ],
      [
       126.93587925,
       37.52240019
      ],
      [
       126.93571661,
       37.52237726
      ],
      [
       126.93578478,
       37.52207054
      ]
     ]
    ]
   },
   "properties": {
    "label": "타워1 외형선",
    "kind": "타워1 외형선",
    "height_m": 178.9
   }
  },
  {
   "type": "Feature",
   "geometry": {
    "type": "Polygon",
    "coordinates": [
     [
      [
       126.93616773,
       37.52211017
      ],
      [
       126.93581876,
       37.52246594
      ],
      [
       126.93503508,
       37.52197828
      ],
      [
       126.93538405,
       37.52162251
      ],
      [
       126.93616773,
       37.52211017
      ]
     ]
    ]
   },
   "properties": {
    "label": "저층부 외형선",
    "kind": "저층부 외형선",
    "height_m": 16.5
   }
  },
  {
   "type": "Feature",
   "geometry": {
    "type": "Polygon",
    "coordinates": [
     [
      [
       126.93527217,
       37.52150157
      ],
      [
       126.93473908,
       37.52204503
      ],
      [
       126.93583321,
       37.52272589
      ],
      [
       126.93636631,
       37.52218242
      ],
      [
       126.93527217,
       37.52150157
      ]
     ]
    ]
   },
   "properties": {
    "label": "화랑 대지",
    "kind": "대지",
    "area_m2": 9395
   }
  }
 ]
}