{
 "type": "FeatureCollection",
 "crs": {
  "type": "name",
  "properties": {
   "name": "urn:ogc:def:crs:EPSG::5186"
  }
 },
 "features": [
  {
   "type": "Feature",
   "geometry": {
    "type": "Point",
    "coordinates": [
     194201.91261079838,
     547016.172118857
    ]
   },
   "properties": {
    "school": "여의도여자고등학교",
    "building": "본관동 저층부(4층)",
    "facade": "본관동 저층부(4층)",
    "floor": 3,
    "z_m": 9.4,
    "normal_az": 141.9
   }
  },
  {
   "type": "Feature",
   "geometry": {
    "type": "Point",
    "coordinates": [
     194201.91261079838,
     547016.172118857
    ]
   },
   "properties": {
    "school": "여의도여자고등학교",
    "building": "본관동 저층부(4층)",
    "facade": "본관동 저층부(4층)",
    "floor": 4,
    "z_m": 13.1,
    "normal_az": 141.9
   }
  },
  {
   "type": "Feature",
   "geometry": {
    "type": "Point",
    "coordinates": [
     194204.74622518773,
     547018.3926211868
    ]
   },
   "properties": {
    "school": "여의도여자고등학교",
    "building": "본관동 저층부(4층)",
    "facade": "본관동 저층부(4층)",
    "floor": 3,
    "z_m": 9.4,
    "normal_az": 141.9
   }
  },
  {
   "type": "Feature",
   "geometry": {
    "type": "Point",
    "coordinates": [
     194204.74622518773,
     547018.3926211868
    ]
   },
   "properties": {
    "school": "여의도여자고등학교",
    "building": "본관동 저층부(4층)",
    "facade": "본관동 저층부(4층)",
    "floor": 4,
    "z_m": 13.1,
    "normal_az": 141.9
   }
  },
  {
   "type": "Feature",
   "geometry": {
    "type": "Point",
    "coordinates": [
     194208.9966467718,
     547021.7233746814
    ]
   },
   "properties": {
    "school": "여의도여자고등학교",
    "building": "본관동 저층부(4층)",
    "facade": "본관동 저층부(4층)",
    "floor": 2,
    "z_m": 5.7,
    "normal_az": 141.9
   }
  },
  {
   "type": "Feature",
   "geometry": {
    "type": "Point",
    "coordinates": [
     194208.9966467718,
     547021.7233746814
    ]
   },
   "properties": {
    "school": "여의도여자고등학교",
    "building": "본관동 저층부(4층)",
    "facade": "본관동 저층부(4층)",
    "floor": 3,
    "z_m": 9.4,
    "normal_az": 141.9
   }
  },
  {
   "type": "Feature",
   "geometry": {
    "type": "Point",
    "coordinates": [
     194208.9966467718,
     547021.7233746814
    ]
   },
   "properties": {
    "school": "여의도여자고등학교",
    "building": "본관동 저층부(4층)",
    "facade": "본관동 저층부(4층)",
    "floor": 4,
    "z_m": 13.1,
    "normal_az": 141.9
   }
  },
  {
   "type": "Feature",
   "geometry": {
    "type": "Point",
    "coordinates": [
     194211.83026116114,
     547023.9438770112
    ]
   },
   "properties": {
    "school": "여의도여자고등학교",
    "building": "본관동 저층부(4층)",
    "facade": "본관동 저층부(4층)",
    "floor": 2,
    "z_m": 5.7,
    "normal_az": 141.9
   }
  },
  {
   "type": "Feature",
   "geometry": {
    "type": "Point",
    "coordinates": [
     194211.83026116114,
     547023.9438770112
    ]
   },
   "properties": {
    "school": "여의도여자고등학교",
    "building": "본관동 저층부(4층)",
    "facade": "본관동 저층부(4층)",
    "floor": 3,
    "z_m": 9.4,
    "normal_az": 141.9
   }
  },
  {
   "type": "Feature",
   "geometry": {
    "type": "Point",
    "coordinates": [
     194211.83026116114,
     547023.9438770112
    ]
   },
   "properties": {
    "school": "여의도여자고등학교",
    "building": "본관동 저층부(4층)",
    "facade": "본관동 저층부(4층)",
    "floor": 4,
    "z_m": 13.1,
    "normal_az": 141.9
   }
  },
  {
   "type": "Feature",
   "geometry": {
    "type": "Point",
    "coordinates": [
     194216.0806827452,
     547027.2746305058
    ]
   },
   "properties": {
    "school": "여의도여자고등학교",
    "building": "본관동 저층부(4층)",
    "facade": "본관동 저층부(4층)",
    "floor": 2,
    "z_m": 5.7,
    "normal_az": 141.9
   }
  },
  {
   "type": "Feature",
   "geometry": {
    "type": "Point",
    "coordinates": [
     194216.0806827452,
     547027.2746305058
    ]
   },
   "properties": {
    "school": "여의도여자고등학교",
    "building": "본관동 저층부(4층)",
    "facade": "본관동 저층부(4층)",
    "floor": 3,
    "z_m": 9.4,
    "normal_az": 141.9
   }
  },
  {
   "type": "Feature",
   "geometry": {
    "type": "Point",
    "coordinates": [
     194216.0806827452,
     547027.2746305058
    ]
   },
   "properties": {
    "school": "여의도여자고등학교",
    "building": "본관동 저층부(4층)",
    "facade": "본관동 저층부(4층)",
    "floor": 4,
    "z_m": 13.1,
    "normal_az": 141.9
   }
  },
  {
   "type": "Feature",
   "geometry": {
    "type": "Point",
    "coordinates": [
     194218.91429713456,
     547029.4951328355
    ]
   },
   "properties": {
    "school": "여의도여자고등학교",
    "building": "본관동 저층부(4층)",
    "facade": "본관동 저층부(4층)",
    "floor": 2,
    "z_m": 5.7,
    "normal_az": 141.9
   }
  },
  {
   "type": "Feature",
   "geometry": {
    "type": "Point",
    "coordinates": [
     194218.91429713456,
     547029.4951328355
    ]
   },
   "properties": {
    "school": "여의도여자고등학교",
    "building": "본관동 저층부(4층)",
    "facade": "본관동 저층부(4층)",
    "floor": 3,
    "z_m": 9.4,
    "normal_az": 141.9
   }
  },
  {
   "type": "Feature",
   "geometry": {
    "type": "Point",
    "coordinates": [
     194218.91429713456,
     547029.4951328355
    ]
   },
   "properties": {
    "school": "여의도여자고등학교",
    "building": "본관동 저층부(4층)",
    "facade": "본관동 저층부(4층)",
    "floor": 4,
    "z_m": 13.1,
    "normal_az": 141.9
   }
  },
  {
   "type": "Feature",
   "geometry": {
    "type": "Point",
    "coordinates": [
     194222.963420466,
     547033.317683701
    ]
   },
   "properties": {
    "school": "여의도여자고등학교",
    "building": "본관동 고층부(5층)",
    "facade": "본관동 고층부(5층)",
    "floor": 1,
    "z_m": 2.0,
    "normal_az": 141.9
   }
  },
  {
   "type": "Feature",
   "geometry": {
    "type": "Point",
    "coordinates": [
     194222.963420466,
     547033.317683701
    ]
   },
   "properties": {
    "school": "여의도여자고등학교",
    "building": "본관동 고층부(5층)",
    "facade": "본관동 고층부(5층)",
    "floor": 2,
    "z_m": 5.7,
    "normal_az": 141.9
   }
  },
  {
   "type": "Feature",
   "geometry": {
    "type": "Point",
    "coordinates": [
     194222.963420466,
     547033.317683701
    ]
   },
   "properties": {
    "school": "여의도여자고등학교",
    "building": "본관동 고층부(5층)",
    "facade": "본관동 고층부(5층)",
    "floor": 3,
    "z_m": 9.4,
    "normal_az": 141.9
   }
  },
  {
   "type": "Feature",
   "geometry": {
    "type": "Point",
    "coordinates": [
     194222.963420466,
     547033.317683701
    ]
   },
   "properties": {
    "school": "여의도여자고등학교",
    "building": "본관동 고층부(5층)",
    "facade": "본관동 고층부(5층)",
    "floor": 4,
    "z_m": 13.1,
    "normal_az": 141.9
   }
  },
  {
   "type": "Feature",
   "geometry": {
    "type": "Point",
    "coordinates": [
     194222.963420466,
     547033.317683701
    ]
   },
   "properties": {
    "school": "여의도여자고등학교",
    "building": "본관동 고층부(5층)",
    "facade": "본관동 고층부(5층)",
    "floor": 5,
    "z_m": 16.8,
    "normal_az": 141.9
   }
  },
  {
   "type": "Feature",
   "geometry": {
    "type": "Point",
    "coordinates": [
     194225.79521240757,
     547035.5405137807
    ]
   },
   "properties": {
    "school": "여의도여자고등학교",
    "building": "본관동 고층부(5층)",
    "facade": "본관동 고층부(5층)",
    "floor": 1,
    "z_m": 2.0,
    "normal_az": 141.9
   }
  },
  {
   "type": "Feature",
   "geometry": {
    "type": "Point",
    "coordinates": [
     194225.79521240757,
     547035.5405137807
    ]
   },
   "properties": {
    "school": "여의도여자고등학교",
    "building": "본관동 고층부(5층)",
    "facade": "본관동 고층부(5층)",
    "floor": 2,
    "z_m": 5.7,
    "normal_az": 141.9
   }
  },
  {
   "type": "Feature",
   "geometry": {
    "type": "Point",
    "coordinates": [
     194225.79521240757,
     547035.5405137807
    ]
   },
   "properties": {
    "school": "여의도여자고등학교",
    "building": "본관동 고층부(5층)",
    "facade": "본관동 고층부(5층)",
    "floor": 3,
    "z_m": 9.4,
    "normal_az": 141.9
   }
  },
  {
   "type": "Feature",
   "geometry": {
    "type": "Point",
    "coordinates": [
     194225.79521240757,
     547035.5405137807
    ]
   },
   "properties": {
    "school": "여의도여자고등학교",
    "building": "본관동 고층부(5층)",
    "facade": "본관동 고층부(5층)",
    "floor": 4,
    "z_m": 13.1,
    "normal_az": 141.9
   }
  },
  {
   "type": "Feature",
   "geometry": {
    "type": "Point",
    "coordinates": [
     194225.79521240757,
     547035.5405137807
    ]
   },
   "properties": {
    "school": "여의도여자고등학교",
    "building": "본관동 고층부(5층)",
    "facade": "본관동 고층부(5층)",
    "floor": 5,
    "z_m": 16.8,
    "normal_az": 141.9
   }
  },
  {
   "type": "Feature",
   "geometry": {
    "type": "Point",
    "coordinates": [
     194230.0416274068,
     547038.8768068757
    ]
   },
   "properties": {
    "school": "여의도여자고등학교",
    "building": "본관동 고층부(5층)",
    "facade": "본관동 고층부(5층)",
    "floor": 1,
    "z_m": 2.0,
    "normal_az": 141.8
   }
  },
  {
   "type": "Feature",
   "geometry": {
    "type": "Point",
    "coordinates": [
     194230.0416274068,
     547038.8768068757
    ]
   },
   "properties": {
    "school": "여의도여자고등학교",
    "building": "본관동 고층부(5층)",
    "facade": "본관동 고층부(5층)",
    "floor": 2,
    "z_m": 5.7,
    "normal_az": 141.8
   }
  },
  {
   "type": "Feature",
   "geometry": {
    "type": "Point",
    "coordinates": [
     194230.0416274068,
     547038.8768068757
    ]
   },
   "properties": {
    "school": "여의도여자고등학교",
    "building": "본관동 고층부(5층)",
    "facade": "본관동 고층부(5층)",
    "floor": 3,
    "z_m": 9.4,
    "normal_az": 141.8
   }
  },
  {
   "type": "Feature",
   "geometry": {
    "type": "Point",
    "coordinates": [
     194230.0416274068,
     547038.8768068757
    ]
   },
   "properties": {
    "school": "여의도여자고등학교",
    "building": "본관동 고층부(5층)",
    "facade": "본관동 고층부(5층)",
    "floor": 4,
    "z_m": 13.1,
    "normal_az": 141.8
   }
  },
  {
   "type": "Feature",
   "geometry": {
    "type": "Point",
    "coordinates": [
     194230.0416274068,
     547038.8768068757
    ]
   },
   "properties": {
    "school": "여의도여자고등학교",
    "building": "본관동 고층부(5층)",
    "facade": "본관동 고층부(5층)",
    "floor": 5,
    "z_m": 16.8,
    "normal_az": 141.8
   }
  },
  {
   "type": "Feature",
   "geometry": {
    "type": "Point",
    "coordinates": [
     194232.87193799857,
     547041.1015194152
    ]
   },
   "properties": {
    "school": "여의도여자고등학교",
    "building": "본관동 고층부(5층)",
    "facade": "본관동 고층부(5층)",
    "floor": 1,
    "z_m": 2.0,
    "normal_az": 141.8
   }
  },
  {
   "type": "Feature",
   "geometry": {
    "type": "Point",
    "coordinates": [
     194232.87193799857,
     547041.1015194152
    ]
   },
   "properties": {
    "school": "여의도여자고등학교",
    "building": "본관동 고층부(5층)",
    "facade": "본관동 고층부(5층)",
    "floor": 2,
    "z_m": 5.7,
    "normal_az": 141.8
   }
  },
  {
   "type": "Feature",
   "geometry": {
    "type": "Point",
    "coordinates": [
     194232.87193799857,
     547041.1015194152
    ]
   },
   "properties": {
    "school": "여의도여자고등학교",
    "building": "본관동 고층부(5층)",
    "facade": "본관동 고층부(5층)",
    "floor": 3,
    "z_m": 9.4,
    "normal_az": 141.8
   }
  },
  {
   "type": "Feature",
   "geometry": {
    "type": "Point",
    "coordinates": [
     194232.87193799857,
     547041.1015194152
    ]
   },
   "properties": {
    "school": "여의도여자고등학교",
    "building": "본관동 고층부(5층)",
    "facade": "본관동 고층부(5층)",
    "floor": 4,
    "z_m": 13.1,
    "normal_az": 141.8
   }
  },
  {
   "type": "Feature",
   "geometry": {
    "type": "Point",
    "coordinates": [
     194232.87193799857,
     547041.1015194152
    ]
   },
   "properties": {
    "school": "여의도여자고등학교",
    "building": "본관동 고층부(5층)",
    "facade": "본관동 고층부(5층)",
    "floor": 5,
    "z_m": 16.8,
    "normal_az": 141.8
   }
  },
  {
   "type": "Feature",
   "geometry": {
    "type": "Point",
    "coordinates": [
     194237.11740388622,
     547044.4385882242
    ]
   },
   "properties": {
    "school": "여의도여자고등학교",
    "building": "본관동 고층부(5층)",
    "facade": "본관동 고층부(5층)",
    "floor": 1,
    "z_m": 2.0,
    "normal_az": 141.8
   }
  },
  {
   "type": "Feature",
   "geometry": {
    "type": "Point",
    "coordinates": [
     194237.11740388622,
     547044.4385882242
    ]
   },
   "properties": {
    "school": "여의도여자고등학교",
    "building": "본관동 고층부(5층)",
    "facade": "본관동 고층부(5층)",
    "floor": 2,
    "z_m": 5.7,
    "normal_az": 141.8
   }
  },
  {
   "type": "Feature",
   "geometry": {
    "type": "Point",
    "coordinates": [
     194237.11740388622,
     547044.4385882242
    ]
   },
   "properties": {
    "school": "여의도여자고등학교",
    "building": "본관동 고층부(5층)",
    "facade": "본관동 고층부(5층)",
    "floor": 3,
    "z_m": 9.4,
    "normal_az": 141.8
   }
  },
  {
   "type": "Feature",
   "geometry": {
    "type": "Point",
    "coordinates": [
     194237.11740388622,
     547044.4385882242
    ]
   },
   "properties": {
    "school": "여의도여자고등학교",
    "building": "본관동 고층부(5층)",
    "facade": "본관동 고층부(5층)",
    "floor": 4,
    "z_m": 13.1,
    "normal_az": 141.8
   }
  },
  {
   "type": "Feature",
   "geometry": {
    "type": "Point",
    "coordinates": [
     194237.11740388622,
     547044.4385882242
    ]
   },
   "properties": {
    "school": "여의도여자고등학교",
    "building": "본관동 고층부(5층)",
    "facade": "본관동 고층부(5층)",
    "floor": 5,
    "z_m": 16.8,
    "normal_az": 141.8
   }
  },
  {
   "type": "Feature",
   "geometry": {
    "type": "Point",
    "coordinates": [
     194239.94771447798,
     547046.6633007637
    ]
   },
   "properties": {
    "school": "여의도여자고등학교",
    "building": "본관동 고층부(5층)",
    "facade": "본관동 고층부(5층)",
    "floor": 1,
    "z_m": 2.0,
    "normal_az": 141.8
   }
  },
  {
   "type": "Feature",
   "geometry": {
    "type": "Point",
    "coordinates": [
     194239.94771447798,
     547046.6633007637
    ]
   },
   "properties": {
    "school": "여의도여자고등학교",
    "building": "본관동 고층부(5층)",
    "facade": "본관동 고층부(5층)",
    "floor": 2,
    "z_m": 5.7,
    "normal_az": 141.8
   }
  },
  {
   "type": "Feature",
   "geometry": {
    "type": "Point",
    "coordinates": [
     194239.94771447798,
     547046.6633007637
    ]
   },
   "properties": {
    "school": "여의도여자고등학교",
    "building": "본관동 고층부(5층)",
    "facade": "본관동 고층부(5층)",
    "floor": 3,
    "z_m": 9.4,
    "normal_az": 141.8
   }
  },
  {
   "type": "Feature",
   "geometry": {
    "type": "Point",
    "coordinates": [
     194239.94771447798,
     547046.6633007637
    ]
   },
   "properties": {
    "school": "여의도여자고등학교",
    "building": "본관동 고층부(5층)",
    "facade": "본관동 고층부(5층)",
    "floor": 4,
    "z_m": 13.1,
    "normal_az": 141.8
   }
  },
  {
   "type": "Feature",
   "geometry": {
    "type": "Point",
    "coordinates": [
     194239.94771447798,
     547046.6633007637
    ]
   },
   "properties": {
    "school": "여의도여자고등학교",
    "building": "본관동 고층부(5층)",
    "facade": "본관동 고층부(5층)",
    "floor": 5,
    "z_m": 16.8,
    "normal_az": 141.8
   }
  },
  {
   "type": "Feature",
   "geometry": {
    "type": "Point",
    "coordinates": [
     194244.19318036563,
     547050.0003695728
    ]
   },
   "properties": {
    "school": "여의도여자고등학교",
    "building": "본관동 고층부(5층)",
    "facade": "본관동 고층부(5층)",
    "floor": 1,
    "z_m": 2.0,
    "normal_az": 141.8
   }
  },
  {
   "type": "Feature",
   "geometry": {
    "type": "Point",
    "coordinates": [
     194244.19318036563,
     547050.0003695728
    ]
   },
   "properties": {
    "school": "여의도여자고등학교",
    "building": "본관동 고층부(5층)",
    "facade": "본관동 고층부(5층)",
    "floor": 2,
    "z_m": 5.7,
    "normal_az": 141.8
   }
  },
  {
   "type": "Feature",
   "geometry": {
    "type": "Point",
    "coordinates": [
     194244.19318036563,
     547050.0003695728
    ]
   },
   "properties": {
    "school": "여의도여자고등학교",
    "building": "본관동 고층부(5층)",
    "facade": "본관동 고층부(5층)",
    "floor": 3,
    "z_m": 9.4,
    "normal_az": 141.8
   }
  },
  {
   "type": "Feature",
   "geometry": {
    "type": "Point",
    "coordinates": [
     194244.19318036563,
     547050.0003695728
    ]
   },
   "properties": {
    "school": "여의도여자고등학교",
    "building": "본관동 고층부(5층)",
    "facade": "본관동 고층부(5층)",
    "floor": 4,
    "z_m": 13.1,
    "normal_az": 141.8
   }
  },
  {
   "type": "Feature",
   "geometry": {
    "type": "Point",
    "coordinates": [
     194244.19318036563,
     547050.0003695728
    ]
   },
   "properties": {
    "school": "여의도여자고등학교",
    "building": "본관동 고층부(5층)",
    "facade": "본관동 고층부(5층)",
    "floor": 5,
    "z_m": 16.8,
    "normal_az": 141.8
   }
  },
  {
   "type": "Feature",
   "geometry": {
    "type": "Point",
    "coordinates": [
     194247.0234909574,
     547052.2250821122
    ]
   },
   "properties": {
    "school": "여의도여자고등학교",
    "building": "본관동 고층부(5층)",
    "facade": "본관동 고층부(5층)",
    "floor": 1,
    "z_m": 2.0,
    "normal_az": 141.8
   }
  },
  {
   "type": "Feature",
   "geometry": {
    "type": "Point",
    "coordinates": [
     194247.0234909574,
     547052.2250821122
    ]
   },
   "properties": {
    "school": "여의도여자고등학교",
    "building": "본관동 고층부(5층)",
    "facade": "본관동 고층부(5층)",
    "floor": 2,
    "z_m": 5.7,
    "normal_az": 141.8
   }
  },
  {
   "type": "Feature",
   "geometry": {
    "type": "Point",
    "coordinates": [
     194247.0234909574,
     547052.2250821122
    ]
   },
   "properties": {
    "school": "여의도여자고등학교",
    "building": "본관동 고층부(5층)",
    "facade": "본관동 고층부(5층)",
    "floor": 3,
    "z_m": 9.4,
    "normal_az": 141.8
   }
  },
  {
   "type": "Feature",
   "geometry": {
    "type": "Point",
    "coordinates": [
     194247.0234909574,
     547052.2250821122
    ]
   },
   "properties": {
    "school": "여의도여자고등학교",
    "building": "본관동 고층부(5층)",
    "facade": "본관동 고층부(5층)",
    "floor": 4,
    "z_m": 13.1,
    "normal_az": 141.8
   }
  },
  {
   "type": "Feature",
   "geometry": {
    "type": "Point",
    "coordinates": [
     194247.0234909574,
     547052.2250821122
    ]
   },
   "properties": {
    "school": "여의도여자고등학교",
    "building": "본관동 고층부(5층)",
    "facade": "본관동 고층부(5층)",
    "floor": 5,
    "z_m": 16.8,
    "normal_az": 141.8
   }
  },
  {
   "type": "Feature",
   "geometry": {
    "type": "Point",
    "coordinates": [
     194251.26895684504,
     547055.5621509213
    ]
   },
   "properties": {
    "school": "여의도여자고등학교",
    "building": "본관동 고층부(5층)",
    "facade": "본관동 고층부(5층)",
    "floor": 1,
    "z_m": 2.0,
    "normal_az": 141.8
   }
  },
  {
   "type": "Feature",
   "geometry": {
    "type": "Point",
    "coordinates": [
     194251.26895684504,
     547055.5621509213
    ]
   },
   "properties": {
    "school": "여의도여자고등학교",
    "building": "본관동 고층부(5층)",
    "facade": "본관동 고층부(5층)",
    "floor": 2,
    "z_m": 5.7,
    "normal_az": 141.8
   }
  },
  {
   "type": "Feature",
   "geometry": {
    "type": "Point",
    "coordinates": [
     194251.26895684504,
     547055.5621509213
    ]
   },
   "properties": {
    "school": "여의도여자고등학교",
    "building": "본관동 고층부(5층)",
    "facade": "본관동 고층부(5층)",
    "floor": 3,
    "z_m": 9.4,
    "normal_az": 141.8
   }
  },
  {
   "type": "Feature",
   "geometry": {
    "type": "Point",
    "coordinates": [
     194251.26895684504,
     547055.5621509213
    ]
   },
   "properties": {
    "school": "여의도여자고등학교",
    "building": "본관동 고층부(5층)",
    "facade": "본관동 고층부(5층)",
    "floor": 4,
    "z_m": 13.1,
    "normal_az": 141.8
   }
  },
  {
   "type": "Feature",
   "geometry": {
    "type": "Point",
    "coordinates": [
     194251.26895684504,
     547055.5621509213
    ]
   },
   "properties": {
    "school": "여의도여자고등학교",
    "building": "본관동 고층부(5층)",
    "facade": "본관동 고층부(5층)",
    "floor": 5,
    "z_m": 16.8,
    "normal_az": 141.8
   }
  },
  {
   "type": "Feature",
   "geometry": {
    "type": "Point",
    "coordinates": [
     194254.0992674368,
     547057.7868634608
    ]
   },
   "properties": {
    "school": "여의도여자고등학교",
    "building": "본관동 고층부(5층)",
    "facade": "본관동 고층부(5층)",
    "floor": 1,
    "z_m": 2.0,
    "normal_az": 141.8
   }
  },
  {
   "type": "Feature",
   "geometry": {
    "type": "Point",
    "coordinates": [
     194254.0992674368,
     547057.7868634608
    ]
   },
   "properties": {
    "school": "여의도여자고등학교",
    "building": "본관동 고층부(5층)",
    "facade": "본관동 고층부(5층)",
    "floor": 2,
    "z_m": 5.7,
    "normal_az": 141.8
   }
  },
  {
   "type": "Feature",
   "geometry": {
    "type": "Point",
    "coordinates": [
     194254.0992674368,
     547057.7868634608
    ]
   },
   "properties": {
    "school": "여의도여자고등학교",
    "building": "본관동 고층부(5층)",
    "facade": "본관동 고층부(5층)",
    "floor": 3,
    "z_m": 9.4,
    "normal_az": 141.8
   }
  },
  {
   "type": "Feature",
   "geometry": {
    "type": "Point",
    "coordinates": [
     194254.0992674368,
     547057.7868634608
    ]
   },
   "properties": {
    "school": "여의도여자고등학교",
    "building": "본관동 고층부(5층)",
    "facade": "본관동 고층부(5층)",
    "floor": 4,
    "z_m": 13.1,
    "normal_az": 141.8
   }
  },
  {
   "type": "Feature",
   "geometry": {
    "type": "Point",
    "coordinates": [
     194254.0992674368,
     547057.7868634608
    ]
   },
   "properties": {
    "school": "여의도여자고등학교",
    "building": "본관동 고층부(5층)",
    "facade": "본관동 고층부(5층)",
    "floor": 5,
    "z_m": 16.8,
    "normal_az": 141.8
   }
  },
  {
   "type": "Feature",
   "geometry": {
    "type": "Point",
    "coordinates": [
     194281.0503474531,
     547027.3743902874
    ]
   },
   "properties": {
    "school": "여의도여자고등학교",
    "building": "A동(3층)",
    "facade": "A동 남서면",
    "floor": 1,
    "z_m": 2.3,
    "normal_az": 232.1
   }
  },
  {
   "type": "Feature",
   "geometry": {
    "type": "Point",
    "coordinates": [
     194281.0503474531,
     547027.3743902874
    ]
   },
   "properties": {
    "school": "여의도여자고등학교",
    "building": "A동(3층)",
    "facade": "A동 남서면",
    "floor": 2,
    "z_m": 6.3,
    "normal_az": 232.1
   }
  },
  {
   "type": "Feature",
   "geometry": {
    "type": "Point",
    "coordinates": [
     194283.81583899807,
     547023.8244524205
    ]
   },
   "properties": {
    "school": "여의도여자고등학교",
    "building": "A동(3층)",
    "facade": "A동 남서면",
    "floor": 1,
    "z_m": 2.3,
    "normal_az": 232.1
   }
  },
  {
   "type": "Feature",
   "geometry": {
    "type": "Point",
    "coordinates": [
     194283.81583899807,
     547023.8244524205
    ]
   },
   "properties": {
    "school": "여의도여자고등학교",
    "building": "A동(3층)",
    "facade": "A동 남서면",
    "floor": 2,
    "z_m": 6.3,
    "normal_az": 232.1
   }
  },
  {
   "type": "Feature",
   "geometry": {
    "type": "Point",
    "coordinates": [
     194286.58133054303,
     547020.2745145536
    ]
   },
   "properties": {
    "school": "여의도여자고등학교",
    "building": "A동(3층)",
    "facade": "A동 남서면",
    "floor": 1,
    "z_m": 2.3,
    "normal_az": 232.1
   }
  },
  {
   "type": "Feature",
   "geometry": {
    "type": "Point",
    "coordinates": [
     194286.58133054303,
     547020.2745145536
    ]
   },
   "properties": {
    "school": "여의도여자고등학교",
    "building": "A동(3층)",
    "facade": "A동 남서면",
    "floor": 2,
    "z_m": 6.3,
    "normal_az": 232.1
   }
  },
  {
   "type": "Feature",
   "geometry": {
    "type": "Point",
    "coordinates": [
     194289.34682208797,
     547016.7245766866
    ]
   },
   "properties": {
    "school": "여의도여자고등학교",
    "building": "A동(3층)",
    "facade": "A동 남서면",
    "floor": 1,
    "z_m": 2.3,
    "normal_az": 232.1
   }
  },
  {
   "type": "Feature",
   "geometry": {
    "type": "Point",
    "coordinates": [
     194289.34682208797,
     547016.7245766866
    ]
   },
   "properties": {
    "school": "여의도여자고등학교",
    "building": "A동(3층)",
    "facade": "A동 남서면",
    "floor": 2,
    "z_m": 6.3,
    "normal_az": 232.1
   }
  },
  {
   "type": "Feature",
   "geometry": {
    "type": "Point",
    "coordinates": [
     194292.11231363294,
     547013.1746388198
    ]
   },
   "properties": {
    "school": "여의도여자고등학교",
    "building": "A동(3층)",
    "facade": "A동 남서면",
    "floor": 1,
    "z_m": 2.3,
    "normal_az": 232.1
   }
  },
  {
   "type": "Feature",
   "geometry": {
    "type": "Point",
    "coordinates": [
     194292.11231363294,
     547013.1746388198
    ]
   },
   "properties": {
    "school": "여의도여자고등학교",
    "building": "A동(3층)",
    "facade": "A동 남서면",
    "floor": 2,
    "z_m": 6.3,
    "normal_az": 232.1
   }
  },
  {
   "type": "Feature",
   "geometry": {
    "type": "Point",
    "coordinates": [
     194282.03363333576,
     547026.112190157
    ]
   },
   "properties": {
    "school": "여의도여자고등학교",
    "building": "A동(3층)",
    "facade": "A동 남서면",
    "floor": 3,
    "z_m": 10.3,
    "normal_az": 232.1
   }
  },
  {
   "type": "Feature",
   "geometry": {
    "type": "Point",
    "coordinates": [
     194286.765696646,
     547020.0378520291
    ]
   },
   "properties": {
    "school": "여의도여자고등학교",
    "building": "A동(3층)",
    "facade": "A동 남서면",
    "floor": 3,
    "z_m": 10.3,
    "normal_az": 232.1
   }
  },
  {
   "type": "Feature",
   "geometry": {
    "type": "Point",
    "coordinates": [
     194291.49775995628,
     547013.9635139013
    ]
   },
   "properties": {
    "school": "여의도여자고등학교",
    "building": "A동(3층)",
    "facade": "A동 남서면",
    "floor": 3,
    "z_m": 10.3,
    "normal_az": 232.1
   }
  },
  {
   "type": "Feature",
   "geometry": {
    "type": "Point",
    "coordinates": [
     194296.17434108286,
     547012.2723328151
    ]
   },
   "properties": {
    "school": "여의도여자고등학교",
    "building": "A동(3층)",
    "facade": "A동 남동면",
    "floor": 1,
    "z_m": 2.3,
    "normal_az": 142.1
   }
  },
  {
   "type": "Feature",
   "geometry": {
    "type": "Point",
    "coordinates": [
     194296.17434108286,
     547012.2723328151
    ]
   },
   "properties": {
    "school": "여의도여자고등학교",
    "building": "A동(3층)",
    "facade": "A동 남동면",
    "floor": 2,
    "z_m": 6.3,
    "normal_az": 142.1
   }
  },
  {
   "type": "Feature",
   "geometry": {
    "type": "Point",
    "coordinates": [
     194299.72485503316,
     547015.0370843484
    ]
   },
   "properties": {
    "school": "여의도여자고등학교",
    "building": "A동(3층)",
    "facade": "A동 남동면",
    "floor": 1,
    "z_m": 2.3,
    "normal_az": 142.1
   }
  },
  {
   "type": "Feature",
   "geometry": {
    "type": "Point",
    "coordinates": [
     194299.72485503316,
     547015.0370843484
    ]
   },
   "properties": {
    "school": "여의도여자고등학교",
    "building": "A동(3층)",
    "facade": "A동 남동면",
    "floor": 2,
    "z_m": 6.3,
    "normal_az": 142.1
   }
  },
  {
   "type": "Feature",
   "geometry": {
    "type": "Point",
    "coordinates": [
     194303.27536898348,
     547017.8018358815
    ]
   },
   "properties": {
    "school": "여의도여자고등학교",
    "building": "A동(3층)",
    "facade": "A동 남동면",
    "floor": 1,
    "z_m": 2.3,
    "normal_az": 142.1
   }
  },
  {
   "type": "Feature",
   "geometry": {
    "type": "Point",
    "coordinates": [
     194303.27536898348,
     547017.8018358815
    ]
   },
   "properties": {
    "school": "여의도여자고등학교",
    "building": "A동(3층)",
    "facade": "A동 남동면",
    "floor": 2,
    "z_m": 6.3,
    "normal_az": 142.1
   }
  },
  {
   "type": "Feature",
   "geometry": {
    "type": "Point",
    "coordinates": [
     194306.82588293377,
     547020.5665874148
    ]
   },
   "properties": {
    "school": "여의도여자고등학교",
    "building": "A동(3층)",
    "facade": "A동 남동면",
    "floor": 1,
    "z_m": 2.3,
    "normal_az": 142.1
   }
  },
  {
   "type": "Feature",
   "geometry": {
    "type": "Point",
    "coordinates": [
     194306.82588293377,
     547020.5665874148
    ]
   },
   "properties": {
    "school": "여의도여자고등학교",
    "building": "A동(3층)",
    "facade": "A동 남동면",
    "floor": 2,
    "z_m": 6.3,
    "normal_az": 142.1
   }
  },
  {
   "type": "Feature",
   "geometry": {
    "type": "Point",
    "coordinates": [
     194310.37639688406,
     547023.3313389481
    ]
   },
   "properties": {
    "school": "여의도여자고등학교",
    "building": "A동(3층)",
    "facade": "A동 남동면",
    "floor": 1,
    "z_m": 2.3,
    "normal_az": 142.1
   }
  },
  {
   "type": "Feature",
   "geometry": {
    "type": "Point",
    "coordinates": [
     194310.37639688406,
     547023.3313389481
    ]
   },
   "properties": {
    "school": "여의도여자고등학교",
    "building": "A동(3층)",
    "facade": "A동 남동면",
    "floor": 2,
    "z_m": 6.3,
    "normal_az": 142.1
   }
  },
  {
   "type": "Feature",
   "geometry": {
    "type": "Point",
    "coordinates": [
     194313.9269108344,
     547026.0960904814
    ]
   },
   "properties": {
    "school": "여의도여자고등학교",
    "building": "A동(3층)",
    "facade": "A동 남동면",
    "floor": 1,
    "z_m": 2.3,
    "normal_az": 142.1
   }
  },
  {
   "type": "Feature",
   "geometry": {
    "type": "Point",
    "coordinates": [
     194313.9269108344,
     547026.0960904814
    ]
   },
   "properties": {
    "school": "여의도여자고등학교",
    "building": "A동(3층)",
    "facade": "A동 남동면",
    "floor": 2,
    "z_m": 6.3,
    "normal_az": 142.1
   }
  },
  {
   "type": "Feature",
   "geometry": {
    "type": "Point",
    "coordinates": [
     194317.47742478468,
     547028.8608420147
    ]
   },
   "properties": {
    "school": "여의도여자고등학교",
    "building": "A동(3층)",
    "facade": "A동 남동면",
    "floor": 1,
    "z_m": 2.3,
    "normal_az": 142.1
   }
  },
  {
   "type": "Feature",
   "geometry": {
    "type": "Point",
    "coordinates": [
     194317.47742478468,
     547028.8608420147
    ]
   },
   "properties": {
    "school": "여의도여자고등학교",
    "building": "A동(3층)",
    "facade": "A동 남동면",
    "floor": 2,
    "z_m": 6.3,
    "normal_az": 142.1
   }
  },
  {
   "type": "Feature",
   "geometry": {
    "type": "Point",
    "coordinates": [
     194296.68719309793,
     547012.6716858144
    ]
   },
   "properties": {
    "school": "여의도여자고등학교",
    "building": "A동(3층)",
    "facade": "A동 남동면",
    "floor": 3,
    "z_m": 10.3,
    "normal_az": 142.1
   }
  },
  {
   "type": "Feature",
   "geometry": {
    "type": "Point",
    "coordinates": [
     194301.2634110783,
     547016.2351433461
    ]
   },
   "properties": {
    "school": "여의도여자고등학교",
    "building": "A동(3층)",
    "facade": "A동 남동면",
    "floor": 3,
    "z_m": 10.3,
    "normal_az": 142.1
   }
  },
  {
   "type": "Feature",
   "geometry": {
    "type": "Point",
    "coordinates": [
     194305.8396290587,
     547019.7986008779
    ]
   },
   "properties": {
    "school": "여의도여자고등학교",
    "building": "A동(3층)",
    "facade": "A동 남동면",
    "floor": 3,
    "z_m": 10.3,
    "normal_az": 142.1
   }
  },
  {
   "type": "Feature",
   "geometry": {
    "type": "Point",
    "coordinates": [
     194310.41584703908,
     547023.3620584096
    ]
   },
   "properties": {
    "school": "여의도여자고등학교",
    "building": "A동(3층)",
    "facade": "A동 남동면",
    "floor": 3,
    "z_m": 10.3,
    "normal_az": 142.1
   }
  },
  {
   "type": "Feature",
   "geometry": {
    "type": "Point",
    "coordinates": [
     194314.99206501947,
     547026.9255159413
    ]
   },
   "properties": {
    "school": "여의도여자고등학교",
    "building": "A동(3층)",
    "facade": "A동 남동면",
    "floor": 3,
    "z_m": 10.3,
    "normal_az": 142.1
   }
  },
  {
   "type": "Feature",
   "geometry": {
    "type": "Point",
    "coordinates": [
     194319.56828299986,
     547030.4889734731
    ]
   },
   "properties": {
    "school": "여의도여자고등학교",
    "building": "A동(3층)",
    "facade": "A동 남동면",
    "floor": 3,
    "z_m": 10.3,
    "normal_az": 142.1
   }
  }
 ]
}