{
 "type": "FeatureCollection",
 "features": [
  {
   "type": "Feature",
   "geometry": {
    "type": "Polygon",
    "coordinates": [
     [
      [
       194251.736,
       546932.51
      ],
      [
       194266.479,
       546939.074
      ],
      [
       194256.025,
       546962.554
      ],
      [
       194241.282,
       546955.99
      ],
      [
       194251.736,
       546932.51
      ]
     ]
    ]
   },
   "properties": {
    "label": "타워1 외형선",
    "kind": "타워1 외형선",
    "height_m": 181.0
   }
  },
  {
   "type": "Feature",
   "geometry": {
    "type": "Polygon",
    "coordinates": [
     [
      [
       194268.907,
       546909.809
      ],
      [
       194284.236,
       546916.634
      ],
      [
       194273.331,
       546941.126
      ],
      [
       194258.003,
       546934.302
      ],
      [
       194268.907,
       546909.809
      ]
     ]
    ]
   },
   "properties": {
    "label": "타워2 외형선",
    "kind": "타워2 외형선",
    "height_m": 181.0
   }
  },
  {
   "type": "Feature",
   "geometry": {
    "type": "Polygon",
    "coordinates": [
     [
      [
       194278.054,
       546892.492
      ],
      [
       194230.971,
       546952.842
      ],
      [
       194327.743,
       547028.342
      ],
      [
       194374.827,
       546967.992
      ],
      [
       194278.054,
       546892.492
      ]
     ]
    ]
   },
   "properties": {
    "label": "화랑 대지",
    "kind": "대지",
    "area_m2": 9395
   }
  }
 ],
 "crs": {
  "type": "name",
  "properties": {
   "name": "urn:ogc:def:crs:EPSG::5186"
  }
 }
}