{
 "type": "FeatureCollection",
 "features": [
  {
   "type": "Feature",
   "geometry": {
    "type": "Point",
    "coordinates": [
     194130.095,
     547229.936
    ]
   },
   "properties": {
    "pid": "여의도고등학교 운동장-51",
    "school": "여의도고등학교",
    "kind": "운동장 지반",
    "dong": "여의도고등학교 운동장",
    "floor": 0,
    "source": "배치도 경계(래스터 계측) + 분석지점도 격자",
    "z_m": 0.0,
    "base_pass_a": true,
    "plan_pass_a": false,
    "total_h": 3.67,
    "cont_h": 1.17,
    "change_cd": "new_fail",
    "변화": "신규 불충족"
   }
  },
  {
   "type": "Feature",
   "geometry": {
    "type": "Point",
    "coordinates": [
     194289.547,
     547087.932
    ]
   },
   "properties": {
    "pid": "체육관동 부속(원형부) 4층-2",
    "school": "여의도중학교",
    "kind": "교사동 창면",
    "dong": "체육관동 부속(원형부)",
    "floor": 4,
    "source": "도면기준",
    "z_m": 13.15,
    "base_pass_a": true,
    "plan_pass_a": false,
    "total_h": 1.33,
    "cont_h": 1.33,
    "change_cd": "new_fail",
    "변화": "신규 불충족"
   }
  },
  {
   "type": "Feature",
   "geometry": {
    "type": "Point",
    "coordinates": [
     194307.589,
     547144.529
    ]
   },
   "properties": {
    "pid": "여의도중학교 운동장-3",
    "school": "여의도중학교",
    "kind": "운동장 지반",
    "dong": "여의도중학교 운동장",
    "floor": 0,
    "source": "배치도 경계(래스터 계측) + 분석지점도 격자",
    "z_m": 0.0,
    "base_pass_a": true,
    "plan_pass_a": false,
    "total_h": 2.33,
    "cont_h": 1.33,
    "change_cd": "new_fail",
    "변화": "신규 불충족"
   }
  },
  {
   "type": "Feature",
   "geometry": {
    "type": "Point",
    "coordinates": [
     194304.998,
     547131.109
    ]
   },
   "properties": {
    "pid": "여의도중학교 운동장-14",
    "school": "여의도중학교",
    "kind": "운동장 지반",
    "dong": "여의도중학교 운동장",
    "floor": 0,
    "source": "배치도 경계(래스터 계측) + 분석지점도 격자",
    "z_m": 0.0,
    "base_pass_a": true,
    "plan_pass_a": false,
    "total_h": 2.33,
    "cont_h": 1.83,
    "change_cd": "new_fail",
    "변화": "신규 불충족"
   }
  },
  {
   "type": "Feature",
   "geometry": {
    "type": "Point",
    "coordinates": [
     194277.701,
     547132.574
    ]
   },
   "properties": {
    "pid": "여의도중학교 운동장-41",
    "school": "여의도중학교",
    "kind": "운동장 지반",
    "dong": "여의도중학교 운동장",
    "floor": 0,
    "source": "배치도 경계(래스터 계측) + 분석지점도 격자",
    "z_m": 0.0,
    "base_pass_a": true,
    "plan_pass_a": false,
    "total_h": 3.0,
    "cont_h": 1.67,
    "change_cd": "new_fail",
    "변화": "신규 불충족"
   }
  },
  {
   "type": "Feature",
   "geometry": {
    "type": "Point",
    "coordinates": [
     194250.404,
     547134.039
    ]
   },
   "properties": {
    "pid": "여의도중학교 운동장-69",
    "school": "여의도중학교",
    "kind": "운동장 지반",
    "dong": "여의도중학교 운동장",
    "floor": 0,
    "source": "배치도 경계(래스터 계측) + 분석지점도 격자",
    "z_m": 0.0,
    "base_pass_a": true,
    "plan_pass_a": false,
    "total_h": 2.17,
    "cont_h": 1.0,
    "change_cd": "new_fail",
    "변화": "신규 불충족"
   }
  },
  {
   "type": "Feature",
   "geometry": {
    "type": "Point",
    "coordinates": [
     194201.913,
     547016.172
    ]
   },
   "properties": {
    "pid": "본관동 저층부(4층) 3층-1",
    "school": "여의도여자고등학교",
    "kind": "교사동 창면",
    "dong": "본관동 저층부(4층)",
    "floor": 3,
    "source": "도면기준",
    "z_m": 9.4,
    "base_pass_a": true,
    "plan_pass_a": false,
    "total_h": 2.5,
    "cont_h": 1.33,
    "change_cd": "new_fail",
    "변화": "신규 불충족"
   }
  },
  {
   "type": "Feature",
   "geometry": {
    "type": "Point",
    "coordinates": [
     194201.913,
     547016.172
    ]
   },
   "properties": {
    "pid": "본관동 저층부(4층) 4층-1",
    "school": "여의도여자고등학교",
    "kind": "교사동 창면",
    "dong": "본관동 저층부(4층)",
    "floor": 4,
    "source": "도면기준",
    "z_m": 13.1,
    "base_pass_a": true,
    "plan_pass_a": false,
    "total_h": 2.67,
    "cont_h": 1.33,
    "change_cd": "new_fail",
    "변화": "신규 불충족"
   }
  },
  {
   "type": "Feature",
   "geometry": {
    "type": "Point",
    "coordinates": [
     194204.746,
     547018.393
    ]
   },
   "properties": {
    "pid": "본관동 저층부(4층) 3층-2",
    "school": "여의도여자고등학교",
    "kind": "교사동 창면",
    "dong": "본관동 저층부(4층)",
    "floor": 3,
    "source": "도면기준",
    "z_m": 9.4,
    "base_pass_a": true,
    "plan_pass_a": false,
    "total_h": 2.83,
    "cont_h": 1.33,
    "change_cd": "new_fail",
    "변화": "신규 불충족"
   }
  },
  {
   "type": "Feature",
   "geometry": {
    "type": "Point",
    "coordinates": [
     194204.746,
     547018.393
    ]
   },
   "properties": {
    "pid": "본관동 저층부(4층) 4층-2",
    "school": "여의도여자고등학교",
    "kind": "교사동 창면",
    "dong": "본관동 저층부(4층)",
    "floor": 4,
    "source": "도면기준",
    "z_m": 13.1,
    "base_pass_a": true,
    "plan_pass_a": false,
    "total_h": 3.0,
    "cont_h": 1.33,
    "change_cd": "new_fail",
    "변화": "신규 불충족"
   }
  },
  {
   "type": "Feature",
   "geometry": {
    "type": "Point",
    "coordinates": [
     194208.997,
     547021.723
    ]
   },
   "properties": {
    "pid": "본관동 저층부(4층) 2층-1",
    "school": "여의도여자고등학교",
    "kind": "교사동 창면",
    "dong": "본관동 저층부(4층)",
    "floor": 2,
    "source": "도면기준",
    "z_m": 5.7,
    "base_pass_a": true,
    "plan_pass_a": false,
    "total_h": 2.83,
    "cont_h": 1.33,
    "change_cd": "new_fail",
    "변화": "신규 불충족"
   }
  },
  {
   "type": "Feature",
   "geometry": {
    "type": "Point",
    "coordinates": [
     194208.997,
     547021.723
    ]
   },
   "properties": {
    "pid": "본관동 저층부(4층) 3층-3",
    "school": "여의도여자고등학교",
    "kind": "교사동 창면",
    "dong": "본관동 저층부(4층)",
    "floor": 3,
    "source": "도면기준",
    "z_m": 9.4,
    "base_pass_a": true,
    "plan_pass_a": false,
    "total_h": 3.17,
    "cont_h": 1.33,
    "change_cd": "new_fail",
    "변화": "신규 불충족"
   }
  },
  {
   "type": "Feature",
   "geometry": {
    "type": "Point",
    "coordinates": [
     194208.997,
     547021.723
    ]
   },
   "properties": {
    "pid": "본관동 저층부(4층) 4층-3",
    "school": "여의도여자고등학교",
    "kind": "교사동 창면",
    "dong": "본관동 저층부(4층)",
    "floor": 4,
    "source": "도면기준",
    "z_m": 13.1,
    "base_pass_a": true,
    "plan_pass_a": false,
    "total_h": 3.17,
    "cont_h": 1.33,
    "change_cd": "new_fail",
    "변화": "신규 불충족"
   }
  },
  {
   "type": "Feature",
   "geometry": {
    "type": "Point",
    "coordinates": [
     194211.83,
     547023.944
    ]
   },
   "properties": {
    "pid": "본관동 저층부(4층) 2층-2",
    "school": "여의도여자고등학교",
    "kind": "교사동 창면",
    "dong": "본관동 저층부(4층)",
    "floor": 2,
    "source": "도면기준",
    "z_m": 5.7,
    "base_pass_a": true,
    "plan_pass_a": false,
    "total_h": 3.33,
    "cont_h": 1.17,
    "change_cd": "new_fail",
    "변화": "신규 불충족"
   }
  },
  {
   "type": "Feature",
   "geometry": {
    "type": "Point",
    "coordinates": [
     194211.83,
     547023.944
    ]
   },
   "properties": {
    "pid": "본관동 저층부(4층) 3층-4",
    "school": "여의도여자고등학교",
    "kind": "교사동 창면",
    "dong": "본관동 저층부(4층)",
    "floor": 3,
    "source": "도면기준",
    "z_m": 9.4,
    "base_pass_a": true,
    "plan_pass_a": false,
    "total_h": 3.5,
    "cont_h": 1.17,
    "change_cd": "new_fail",
    "변화": "신규 불충족"
   }
  },
  {
   "type": "Feature",
   "geometry": {
    "type": "Point",
    "coordinates": [
     194211.83,
     547023.944
    ]
   },
   "properties": {
    "pid": "본관동 저층부(4층) 4층-4",
    "school": "여의도여자고등학교",
    "kind": "교사동 창면",
    "dong": "본관동 저층부(4층)",
    "floor": 4,
    "source": "도면기준",
    "z_m": 13.1,
    "base_pass_a": true,
    "plan_pass_a": false,
    "total_h": 3.5,
    "cont_h": 1.17,
    "change_cd": "new_fail",
    "변화": "신규 불충족"
   }
  },
  {
   "type": "Feature",
   "geometry": {
    "type": "Point",
    "coordinates": [
     194216.081,
     547027.275
    ]
   },
   "properties": {
    "pid": "본관동 저층부(4층) 2층-3",
    "school": "여의도여자고등학교",
    "kind": "교사동 창면",
    "dong": "본관동 저층부(4층)",
    "floor": 2,
    "source": "도면기준",
    "z_m": 5.7,
    "base_pass_a": true,
    "plan_pass_a": false,
    "total_h": 3.5,
    "cont_h": 1.17,
    "change_cd": "new_fail",
    "변화": "신규 불충족"
   }
  },
  {
   "type": "Feature",
   "geometry": {
    "type": "Point",
    "coordinates": [
     194216.081,
     547027.275
    ]
   },
   "properties": {
    "pid": "본관동 저층부(4층) 3층-5",
    "school": "여의도여자고등학교",
    "kind": "교사동 창면",
    "dong": "본관동 저층부(4층)",
    "floor": 3,
    "source": "도면기준",
    "z_m": 9.4,
    "base_pass_a": true,
    "plan_pass_a": false,
    "total_h": 3.67,
    "cont_h": 1.33,
    "change_cd": "new_fail",
    "변화": "신규 불충족"
   }
  },
  {
   "type": "Feature",
   "geometry": {
    "type": "Point",
    "coordinates": [
     194218.914,
     547029.495
    ]
   },
   "properties": {
    "pid": "본관동 저층부(4층) 2층-4",
    "school": "여의도여자고등학교",
    "kind": "교사동 창면",
    "dong": "본관동 저층부(4층)",
    "floor": 2,
    "source": "도면기준",
    "z_m": 5.7,
    "base_pass_a": true,
    "plan_pass_a": false,
    "total_h": 3.83,
    "cont_h": 1.5,
    "change_cd": "new_fail",
    "변화": "신규 불충족"
   }
  },
  {
   "type": "Feature",
   "geometry": {
    "type": "Point",
    "coordinates": [
     194273.591,
     547061.101
    ]
   },
   "properties": {
    "pid": "여의도여자고등학교 ②(5층) 1층-5",
    "school": "여의도여자고등학교",
    "kind": "교사동 창면",
    "dong": "여의도여자고등학교 ②(5층)",
    "floor": 1,
    "source": "일반식",
    "z_m": 1.2,
    "base_pass_a": true,
    "plan_pass_a": false,
    "total_h": 1.67,
    "cont_h": 1.0,
    "change_cd": "new_fail",
    "변화": "신규 불충족"
   }
  },
  {
   "type": "Feature",
   "geometry": {
    "type": "Point",
    "coordinates": [
     194295.023,
     547044.139
    ]
   },
   "properties": {
    "pid": "여의도여자고등학교 ②(5층) 4층-12",
    "school": "여의도여자고등학교",
    "kind": "교사동 창면",
    "dong": "여의도여자고등학교 ②(5층)",
    "floor": 4,
    "source": "일반식",
    "z_m": 11.7,
    "base_pass_a": true,
    "plan_pass_a": false,
    "total_h": 1.83,
    "cont_h": 1.5,
    "change_cd": "new_fail",
    "변화": "신규 불충족"
   }
  },
  {
   "type": "Feature",
   "geometry": {
    "type": "Point",
    "coordinates": [
     194240.641,
     547020.915
    ]
   },
   "properties": {
    "pid": "여의도여자고등학교 운동장-23",
    "school": "여의도여자고등학교",
    "kind": "운동장 지반",
    "dong": "여의도여자고등학교 운동장",
    "floor": 0,
    "source": "배치도 경계(래스터 계측) + 분석지점도 격자",
    "z_m": 0.0,
    "base_pass_a": true,
    "plan_pass_a": false,
    "total_h": 3.83,
    "cont_h": 1.83,
    "change_cd": "new_fail",
    "변화": "신규 불충족"
   }
  },
  {
   "type": "Feature",
   "geometry": {
    "type": "Point",
    "coordinates": [
     194249.679,
     546993.305
    ]
   },
   "properties": {
    "pid": "여의도여자고등학교 운동장-26",
    "school": "여의도여자고등학교",
    "kind": "운동장 지반",
    "dong": "여의도여자고등학교 운동장",
    "floor": 0,
    "source": "배치도 경계(래스터 계측) + 분석지점도 격자",
    "z_m": 0.0,
    "base_pass_a": true,
    "plan_pass_a": false,
    "total_h": 2.67,
    "cont_h": 1.83,
    "change_cd": "new_fail",
    "변화": "신규 불충족"
   }
  },
  {
   "type": "Feature",
   "geometry": {
    "type": "Point",
    "coordinates": [
     194244.072,
     547000.481
    ]
   },
   "properties": {
    "pid": "여의도여자고등학교 운동장-27",
    "school": "여의도여자고등학교",
    "kind": "운동장 지반",
    "dong": "여의도여자고등학교 운동장",
    "floor": 0,
    "source": "배치도 경계(래스터 계측) + 분석지점도 격자",
    "z_m": 0.0,
    "base_pass_a": true,
    "plan_pass_a": false,
    "total_h": 3.0,
    "cont_h": 1.83,
    "change_cd": "new_fail",
    "변화": "신규 불충족"
   }
  },
  {
   "type": "Feature",
   "geometry": {
    "type": "Point",
    "coordinates": [
     194232.858,
     547014.835
    ]
   },
   "properties": {
    "pid": "여의도여자고등학교 운동장-29",
    "school": "여의도여자고등학교",
    "kind": "운동장 지반",
    "dong": "여의도여자고등학교 운동장",
    "floor": 0,
    "source": "배치도 경계(래스터 계측) + 분석지점도 격자",
    "z_m": 0.0,
    "base_pass_a": true,
    "plan_pass_a": false,
    "total_h": 3.5,
    "cont_h": 1.5,
    "change_cd": "new_fail",
    "변화": "신규 불충족"
   }
  },
  {
   "type": "Feature",
   "geometry": {
    "type": "Point",
    "coordinates": [
     194227.251,
     547022.012
    ]
   },
   "properties": {
    "pid": "여의도여자고등학교 운동장-30",
    "school": "여의도여자고등학교",
    "kind": "운동장 지반",
    "dong": "여의도여자고등학교 운동장",
    "floor": 0,
    "source": "배치도 경계(래스터 계측) + 분석지점도 격자",
    "z_m": 0.0,
    "base_pass_a": true,
    "plan_pass_a": false,
    "total_h": 3.5,
    "cont_h": 1.5,
    "change_cd": "new_fail",
    "변화": "신규 불충족"
   }
  },
  {
   "type": "Feature",
   "geometry": {
    "type": "Point",
    "coordinates": [
     194215.118,
     546989.417
    ]
   },
   "properties": {
    "pid": "여의도여자고등학교 운동장-46",
    "school": "여의도여자고등학교",
    "kind": "운동장 지반",
    "dong": "여의도여자고등학교 운동장",
    "floor": 0,
    "source": "배치도 경계(래스터 계측) + 분석지점도 격자",
    "z_m": 0.0,
    "base_pass_a": true,
    "plan_pass_a": false,
    "total_h": 2.83,
    "cont_h": 1.83,
    "change_cd": "new_fail",
    "변화": "신규 불충족"
   }
  },
  {
   "type": "Feature",
   "geometry": {
    "type": "Point",
    "coordinates": [
     194209.511,
     546996.594
    ]
   },
   "properties": {
    "pid": "여의도여자고등학교 운동장-47",
    "school": "여의도여자고등학교",
    "kind": "운동장 지반",
    "dong": "여의도여자고등학교 운동장",
    "floor": 0,
    "source": "배치도 경계(래스터 계측) + 분석지점도 격자",
    "z_m": 0.0,
    "base_pass_a": true,
    "plan_pass_a": false,
    "total_h": 2.67,
    "cont_h": 1.67,
    "change_cd": "new_fail",
    "변화": "신규 불충족"
   }
  }
 ],
 "crs": {
  "type": "name",
  "properties": {
   "name": "urn:ogc:def:crs:EPSG::5186"
  }
 }
}