{
 "type": "FeatureCollection",
 "crs": {
  "type": "name",
  "properties": {
   "name": "urn:ogc:def:crs:EPSG::5186"
  }
 },
 "features": [
  {
   "type": "Feature",
   "geometry": {
    "type": "Polygon",
    "coordinates": [
     [
      [
       194300.3992929005,
       546960.3694341771
      ],
      [
       194291.7856925548,
       546971.4100162464
      ],
      [
       194255.76031163076,
       546943.3038682524
      ],
      [
       194264.37391197644,
       546932.2632861831
      ],
      [
       194300.3992929005,
       546960.3694341771
      ]
     ]
    ]
   },
   "properties": {
    "kind": "타워1 외형선",
    "height_m": 70.0
   }
  },
  {
   "type": "Feature",
   "geometry": {
    "type": "Polygon",
    "coordinates": [
     [
      [
       194339.5784134102,
       546990.936055017
      ],
      [
       194330.96481306452,
       547001.9766370864
      ],
      [
       194294.93943214047,
       546973.8704890924
      ],
      [
       194303.55303248615,
       546962.8299070231
      ],
      [
       194339.5784134102,
       546990.936055017
      ]
     ]
    ]
   },
   "properties": {
    "kind": "타워2 외형선",
    "height_m": 70.0
   }
  },
  {
   "type": "Feature",
   "geometry": {
    "type": "Polygon",
    "coordinates": [
     [
      [
       194318.23966641855,
       546937.5023286614
      ],
      [
       194309.62606607287,
       546948.5429107307
      ],
      [
       194273.60068514882,
       546920.4367627368
      ],
      [
       194282.2142854945,
       546909.3961806674
      ],
      [
       194318.23966641855,
       546937.5023286614
      ]
     ]
    ]
   },
   "properties": {
    "kind": "타워3 외형선",
    "height_m": 70.0
   }
  },
  {
   "type": "Feature",
   "geometry": {
    "type": "Polygon",
    "coordinates": [
     [
      [
       194357.41878692826,
       546968.0689495014
      ],
      [
       194348.80518658258,
       546979.1095315707
      ],
      [
       194312.77980565853,
       546951.0033835768
      ],
      [
       194321.3934060042,
       546939.9628015074
      ],
      [
       194357.41878692826,
       546968.0689495014
      ]
     ]
    ]
   },
   "properties": {
    "kind": "타워4 외형선",
    "height_m": 70.0
   }
  },
  {
   "type": "Feature",
   "geometry": {
    "type": "Polygon",
    "coordinates": [
     [
      [
       194262.81645640582,
       546912.0231631779
      ],
      [
       194253.58976107943,
       546923.8497473579
      ],
      [
       194350.3624380821,
       546999.3494953645
      ],
      [
       194359.58925522675,
       546987.5230062243
      ],
      [
       194262.81645640582,
       546912.0231631779
      ]
     ]
    ]
   },
   "properties": {
    "kind": "보행로",
    "width_m": 15.0,
    "length_m": 122.7,
    "area_m2": 1841
   }
  },
  {
   "type": "Feature",
   "geometry": {
    "type": "Polygon",
    "coordinates": [
     [
      [
       194278.054,
       546892.492
      ],
      [
       194230.971,
       546952.842
      ],
      [
       194327.743,
       547028.342
      ],
      [
       194374.827,
       546967.992
      ],
      [
       194278.054,
       546892.492
      ]
     ]
    ]
   },
   "properties": {
    "kind": "대지",
    "area_m2": 9395
   }
  }
 ]
}