{
 "type": "FeatureCollection",
 "crs": {
  "type": "name",
  "properties": {
   "name": "EPSG:5186"
  }
 },
 "features": [
  {
   "type": "Feature",
   "geometry": {
    "type": "Polygon",
    "coordinates": [
     [
      [
       194701.1103675085,
       546891.9117805967
      ],
      [
       194707.32812562725,
       546886.6219119804
      ],
      [
       194706.27148266995,
       546877.6271391839
      ],
      [
       194698.8650012243,
       546872.7978884041
      ],
      [
       194696.25225527986,
       546874.8146092276
      ],
      [
       194676.7776372569,
       546859.4344826641
      ],
      [
       194692.2898441901,
       546841.0842112406
      ],
      [
       194694.2421882862,
       546833.4457574193
      ],
      [
       194691.33309323876,
       546828.0881851608
      ],
      [
       194370.9442160868,
       546575.0602965353
      ],
      [
       194367.43909591844,
       546574.3321910447
      ],
      [
       194364.1981364894,
       546575.8527787533
      ],
      [
       194268.44444530367,
       546697.0979812833
      ],
      [
       194199.38205031937,
       546788.4209089277
      ],
      [
       194491.63340103347,
       547020.2471539798
      ],
      [
       194496.39494817104,
       547021.9675257005
      ],
      [
       194503.63716088337,
       547020.5468299979
      ],
      [
       194510.35105211707,
       547014.628747897
      ],
      [
       194571.10793760195,
       546954.4878490225
      ],
      [
       194602.06464782602,
       546926.9141593418
      ],
      [
       194566.1243988335,
       546897.5102251901
      ],
      [
       194592.78350667123,
       546862.4623504215
      ],
      [
       194635.36994325518,
       546895.0750556387
      ],
      [
       194667.81505282407,
       546865.6167255043
      ],
      [
       194701.1103675085,
       546891.9117805967
      ]
     ]
    ]
   },
   "properties": {
    "layer": "정비구역경계",
    "name": "정비구역",
    "area_m2": 108698.3,
    "approved_m2": 109307.8
   }
  }
 ]
}