{
 "type": "FeatureCollection",
 "crs": {
  "type": "name",
  "properties": {
   "name": "EPSG:4326"
  }
 },
 "features": [
  {
   "type": "Feature",
   "geometry": {
    "type": "Polygon",
    "coordinates": [
     [
      [
       126.94005787068012,
       37.521498868802055
      ],
      [
       126.94012824528826,
       37.5214512426374
      ],
      [
       126.94011635711048,
       37.52137019346261
      ],
      [
       126.94003260847883,
       37.52132663928936
      ],
      [
       126.94000303809236,
       37.52134479498174
      ],
      [
       126.93978284914041,
       37.521206107563316
      ],
      [
       126.9399584581284,
       37.521040860512244
      ],
      [
       126.93998059842842,
       37.52097204908364
      ],
      [
       126.93994772908258,
       37.52092376050028
      ],
      [
       126.93632539132814,
       37.51864207444297
      ],
      [
       126.93628574780014,
       37.51863549281117
      ],
      [
       126.93624907516683,
       37.518649173565734
      ],
      [
       126.93516498635935,
       37.51974100641681
      ],
      [
       126.9343830366068,
       37.520563396808676
      ],
      [
       126.9376872637713,
       37.52265394696051
      ],
      [
       126.93774111529252,
       37.52266947595239
      ],
      [
       126.9378230525503,
       37.522656718611856
      ],
      [
       126.93789904679709,
       37.522603436524605
      ],
      [
       126.93858679509819,
       37.522061925090625
      ],
      [
       126.93893718869032,
       37.52181366709434
      ],
      [
       126.93853084105355,
       37.52154852607872
      ],
      [
       126.93883267219464,
       37.52123290047372
      ],
      [
       126.93931417877626,
       37.521526990220345
      ],
      [
       126.93968141814844,
       37.521261757983986
      ],
      [
       126.94005787068012,
       37.521498868802055
      ]
     ]
    ]
   },
   "properties": {
    "layer": "정비구역경계",
    "name": "정비구역",
    "area_m2": 108698.3,
    "approved_m2": 109307.8
   }
  },
  {
   "type": "Feature",
   "geometry": {
    "type": "Polygon",
    "coordinates": [
     [
      [
       126.93467349502214,
       37.52059520969325
      ],
      [
       126.93470560966269,
       37.5206154397873
      ],
      [
       126.93471830907743,
       37.52060265017905
      ],
      [
       126.93474239506767,
       37.520617822741265
      ],
      [
       126.93473772432058,
       37.52063566987259
      ],
      [
       126.93475378165606,
       37.52064578491192
      ],
      [
       126.93479822957792,
       37.52060102125898
      ],
      [
       126.93476611491849,
       37.520580791190056
      ],
      [
       126.93471794296187,
       37.52055044607016
      ],
      [
       126.93474969145772,
       37.52051847204318
      ],
      [
       126.93474166280333,
       37.520513414523414
      ],
      [
       126.93467984473105,
       37.520588814891006
      ],
      [
       126.93467349502214,
       37.52059520969325
      ]
     ]
    ]
   },
   "properties": {
    "layer": "신축동",
    "dong": "105동",
    "zone": "18F",
    "floors": 18,
    "floors_drawn": 19,
    "height_m": 58.8,
    "height_source": "제원표 19층 −3.20m(감층)",
    "ground_m": 12.7,
    "top_elev_m": 71.5,
    "area_m2": 56.1
   }
  },
  {
   "type": "Feature",
   "geometry": {
    "type": "Polygon",
    "coordinates": [
     [
      [
       126.9347618103254,
       37.520650842430776
      ],
      [
       126.93488224049582,
       37.520726705147595
      ],
      [
       126.9349393877774,
       37.520669151814985
      ],
      [
       126.93486545068808,
       37.52061218191033
      ],
      [
       126.9348908494576,
       37.520586602657964
      ],
      [
       126.93481859145581,
       37.52054108504701
      ],
      [
       126.93483764052843,
       37.52052190061558
      ],
      [
       126.93478778961696,
       37.5204801031993
      ],
      [
       126.93481019661478,
       37.52048382342268
      ],
      [
       126.93482924567498,
       37.52046463899241
      ],
      [
       126.93484829472544,
       37.520445454558995
      ],
      [
       126.93482252980141,
       37.52041882969305
      ],
      [
       126.9347526832361,
       37.52048917258527
      ],
      [
       126.93475604115362,
       37.520512077236745
      ],
      [
       126.93477509023488,
       37.52049289281533
      ],
      [
       126.93478311888931,
       37.520497950332825
      ],
      [
       126.93473232131966,
       37.52054910878639
      ],
      [
       126.93486077997065,
       37.52063002904656
      ],
      [
       126.93485443027366,
       37.520636423858484
      ],
      [
       126.93480625824549,
       37.520606078774854
      ],
      [
       126.93476816003154,
       37.52064444762383
      ],
      [
       126.9347618103254,
       37.520650842430776
      ]
     ]
    ]
   },
   "properties": {
    "layer": "신축동",
    "dong": "105동",
    "zone": "18F",
    "floors": 18,
    "floors_drawn": 19,
    "height_m": 58.8,
    "height_source": "제원표 19층 −3.20m(감층)",
    "ground_m": 12.7,
    "top_elev_m": 71.5,
    "area_m2": 228.0
   }
  },
  {
   "type": "Feature",
   "geometry": {
    "type": "Polygon",
    "coordinates": [
     [
      [
       126.93478873625166,
       37.52038714730471
      ],
      [
       126.93486902274077,
       37.520437722446694
      ],
      [
       126.93493419846433,
       37.52038522662481
      ],
      [
       126.93490208386055,
       37.520364996592136
      ],
      [
       126.93494018186367,
       37.520326627697955
      ],
      [
       126.93492412457135,
       37.520316512683436
      ],
      [
       126.93488135586873,
       37.52037272871037
      ],
      [
       126.93484325781203,
       37.52041109758523
      ],
      [
       126.93480946425699,
       37.52037941520279
      ],
      [
       126.93489200999971,
       37.52029628264784
      ],
      [
       126.9348839813595,
       37.52029122513757
      ],
      [
       126.93479508593312,
       37.52038075249601
      ],
      [
       126.93478873625166,
       37.52038714730471
      ]
     ]
    ]
   },
   "properties": {
    "layer": "신축동",
    "dong": "105동",
    "zone": "24F",
    "floors": 24,
    "floors_drawn": 24,
    "height_m": 78.0,
    "height_source": "제원표",
    "ground_m": 12.7,
    "top_elev_m": 90.7,
    "area_m2": 59.8
   }
  },
  {
   "type": "Feature",
   "geometry": {
    "type": "Polygon",
    "coordinates": [
     [
      [
       126.9349164621795,
       37.520363659285884
      ],
      [
       126.93498069141108,
       37.520404119334614
      ],
      [
       126.93505053768314,
       37.520333776306266
      ],
      [
       126.93500871542592,
       37.520297036480855
      ],
      [
       126.93502309372998,
       37.52029569916157
      ],
      [
       126.93507221192756,
       37.520233088258664
      ],
      [
       126.93499192552018,
       37.52018251325311
      ],
      [
       126.93492207933434,
       37.520252856248696
      ],
      [
       126.93489033102469,
       37.52028483032362
      ],
      [
       126.93489835966463,
       37.520289887833464
      ],
      [
       126.93499360450845,
       37.52019396557609
      ],
      [
       126.9350193694161,
       37.520220590405714
      ],
      [
       126.93493047423526,
       37.520310117867375
      ],
      [
       126.93494653152707,
       37.520320232881026
      ],
      [
       126.93498462948467,
       37.52028186397216
      ],
      [
       126.9349926581307,
       37.5202869214756
      ],
      [
       126.93492281184807,
       37.520357264470285
      ],
      [
       126.9349164621795,
       37.520363659285884
      ]
     ]
    ]
   },
   "properties": {
    "layer": "신축동",
    "dong": "105동",
    "zone": "24F",
    "floors": 24,
    "floors_drawn": 24,
    "height_m": 78.0,
    "height_source": "제원표",
    "ground_m": 12.7,
    "top_elev_m": 90.7,
    "area_m2": 149.0
   }
  },
  {
   "type": "Feature",
   "geometry": {
    "type": "Polygon",
    "coordinates": [
     [
      [
       126.93501069961313,
       37.520807625242696
      ],
      [
       126.93514550870212,
       37.52088215037027
      ],
      [
       126.93518995653058,
       37.52083738657162
      ],
      [
       126.93525418631573,
       37.52087784646889
      ],
      [
       126.93524783663125,
       37.52088424130173
      ],
      [
       126.93519163556365,
       37.52084883889055
      ],
      [
       126.93514718772938,
       37.52089360268974
      ],
      [
       126.93515521645186,
       37.52089866018168
      ],
      [
       126.93518061521978,
       37.52087308086824
      ],
      [
       126.93522878757129,
       37.52090342579814
      ],
      [
       126.93524148694567,
       37.52089063613421
      ],
      [
       126.93531206648785,
       37.52092470116725
      ],
      [
       126.93531038743465,
       37.52091324885017
      ],
      [
       126.93532943647627,
       37.52089406434061
      ],
      [
       126.93526688568146,
       37.520865056802165
      ],
      [
       126.9352732353627,
       37.52085866196828
      ],
      [
       126.93531337900981,
       37.52088394937984
      ],
      [
       126.93533242804318,
       37.520864764869685
      ],
      [
       126.93516550395081,
       37.52077000999524
      ],
      [
       126.93514645489887,
       37.52078919447875
      ],
      [
       126.93515784166404,
       37.520817156609795
      ],
      [
       126.93511806450023,
       37.520844073250956
      ],
      [
       126.93503777740777,
       37.52079349828118
      ],
      [
       126.93503609839945,
       37.52078204595997
      ],
      [
       126.93501704931136,
       37.52080123042254
      ],
      [
       126.93501069961313,
       37.520807625242696
      ]
     ]
    ]
   },
   "properties": {
    "layer": "신축동",
    "dong": "104동",
    "zone": "16F",
    "floors": 16,
    "floors_drawn": 18,
    "height_m": 52.4,
    "height_source": "제원표 18층 −6.40m(감층)",
    "ground_m": 12.7,
    "top_elev_m": 65.1,
    "area_m2": 171.1
   }
  },
  {
   "type": "Feature",
   "geometry": {
    "type": "Polygon",
    "coordinates": [
     [
      [
       126.93528257662756,
       37.520822967664195
      ],
      [
       126.9353387777188,
       37.52085837003228
      ],
      [
       126.93536753453017,
       37.52085569531205
      ],
      [
       126.93540563254507,
       37.52081732627092
      ],
      [
       126.93540731161065,
       37.52082877858686
      ],
      [
       126.93546183369028,
       37.52085272858052
      ],
      [
       126.93553167992988,
       37.52078238527296
      ],
      [
       126.93548350753329,
       37.52075204046594
      ],
      [
       126.93554233345633,
       37.520705939156514
      ],
      [
       126.93554532493239,
       37.520676639679195
      ],
      [
       126.93553094656447,
       37.520677977061894
      ],
      [
       126.93552291784022,
       37.520672919595306
      ],
      [
       126.93546577100355,
       37.52073047321062
      ],
      [
       126.93544971355371,
       37.52072035826812
      ],
      [
       126.93533541960775,
       37.52083546539853
      ],
      [
       126.9352969550277,
       37.52082163031179
      ],
      [
       126.93537315105596,
       37.52074489226208
      ],
      [
       126.93536512233521,
       37.52073983478481
      ],
      [
       126.9352889263039,
       37.52081657282941
      ],
      [
       126.93528257662756,
       37.520822967664195
      ]
     ]
    ]
   },
   "properties": {
    "layer": "신축동",
    "dong": "104동",
    "zone": "20F",
    "floors": 20,
    "floors_drawn": 20,
    "height_m": 65.2,
    "height_source": "제원표",
    "ground_m": 12.7,
    "top_elev_m": 77.9,
    "area_m2": 172.8
   }
  },
  {
   "type": "Feature",
   "geometry": {
    "type": "Polygon",
    "coordinates": [
     [
      [
       126.93563562943262,
       37.52124286048235
      ],
      [
       126.93571591741023,
       37.521293435042686
      ],
      [
       126.93574299524785,
       37.52127930792069
      ],
      [
       126.93576708166323,
       37.5212944802726
      ],
      [
       126.93575438230992,
       37.521307269992185
      ],
      [
       126.9357721190591,
       37.521328837202255
      ],
      [
       126.93582291644886,
       37.5212776783081
      ],
      [
       126.93583897406846,
       37.52128779319907
      ],
      [
       126.9357801478704,
       37.521333894651434
      ],
      [
       126.93590058017021,
       37.52140975632308
      ],
      [
       126.9359640768557,
       37.52134580763367
      ],
      [
       126.93589816713441,
       37.521293895816854
      ],
      [
       126.9358791181365,
       37.52131308041689
      ],
      [
       126.93587108932074,
       37.52130802297442
      ],
      [
       126.9358901383194,
       37.521288838375675
      ],
      [
       126.93590918730831,
       37.52126965377378
      ],
      [
       126.9358449568334,
       37.52122919423476
      ],
      [
       126.93586232667481,
       37.52119855733119
      ],
      [
       126.93582218267377,
       37.52117327010724
      ],
      [
       126.93586663027129,
       37.52112850605593
      ],
      [
       126.93584086475059,
       37.521101881414666
      ],
      [
       126.93583619423474,
       37.52111972858817
      ],
      [
       126.9357964171535,
       37.52114664545647
      ],
      [
       126.93581415387679,
       37.521168212660804
      ],
      [
       126.93574430754197,
       37.52123855613071
      ],
      [
       126.93573627874328,
       37.52123349867904
      ],
      [
       126.93576802709484,
       37.52120152438191
      ],
      [
       126.93575999829852,
       37.52119646693181
      ],
      [
       126.93569818068563,
       37.52127186782407
      ],
      [
       126.93564197911448,
       37.521236465629045
      ],
      [
       126.93563562943262,
       37.52124286048235
      ]
     ]
    ]
   },
   "properties": {
    "layer": "신축동",
    "dong": "103동",
    "zone": "14F",
    "floors": 14,
    "floors_drawn": 14,
    "height_m": 46.0,
    "height_source": "제원표",
    "ground_m": 12.7,
    "top_elev_m": 58.7,
    "area_m2": 294.0
   }
  },
  {
   "type": "Feature",
   "geometry": {
    "type": "Polygon",
    "coordinates": [
     [
      [
       126.93580707046219,
       37.52107019932069
      ],
      [
       126.93588735837086,
       37.5211207737659
      ],
      [
       126.93595085482237,
       37.521056825080244
      ],
      [
       126.93592676844607,
       37.521041652765234
      ],
      [
       126.93596486626953,
       37.52100328354475
      ],
      [
       126.93595683748111,
       37.52099822610788
      ],
      [
       126.93600931368093,
       37.520958519438295
      ],
      [
       126.93603340004728,
       37.52097369173667
      ],
      [
       126.9360905466341,
       37.52091613784885
      ],
      [
       126.93607448906005,
       37.52090602299149
      ],
      [
       126.93601025880717,
       37.52086556354007
      ],
      [
       126.93600390918819,
       37.520871958413636
      ],
      [
       126.93604405308939,
       37.52089724557701
      ],
      [
       126.93591706050775,
       37.52102514301746
      ],
      [
       126.93592508929632,
       37.521030200457034
      ],
      [
       126.9358679424954,
       37.521087754263476
      ],
      [
       126.9358197697663,
       37.52105740959488
      ],
      [
       126.93581342011478,
       37.521063804457945
      ],
      [
       126.93580707046219,
       37.52107019932069
      ]
     ]
    ]
   },
   "properties": {
    "layer": "신축동",
    "dong": "103동",
    "zone": "17F",
    "floors": 17,
    "floors_drawn": 17,
    "height_m": 55.6,
    "height_source": "제원표",
    "ground_m": 12.7,
    "top_elev_m": 68.3,
    "area_m2": 101.1
   }
  },
  {
   "type": "Feature",
   "geometry": {
    "type": "Polygon",
    "coordinates": [
     [
      [
       126.93594114687679,
       37.521040315334496
      ],
      [
       126.93600537724195,
       37.521080774822394
      ],
      [
       126.93607522318463,
       37.52101043119585
      ],
      [
       126.93601099284194,
       37.52096997174546
      ],
      [
       126.9359474965154,
       37.5210339204645
      ],
      [
       126.93594114687679,
       37.521040315334496
      ]
     ]
    ]
   },
   "properties": {
    "layer": "신축동",
    "dong": "103동",
    "zone": "17F",
    "floors": 17,
    "floors_drawn": 17,
    "height_m": 55.6,
    "height_source": "제원표",
    "ground_m": 12.7,
    "top_elev_m": 68.3,
    "area_m2": 72.1
   }
  },
  {
   "type": "Feature",
   "geometry": {
    "type": "Polygon",
    "coordinates": [
     [
      [
       126.93614144550162,
       37.52156147929575
      ],
      [
       126.93617356095285,
       37.5215817089881
      ],
      [
       126.93619260994384,
       37.52156252434145
      ],
      [
       126.93621669654136,
       37.52157769660111
      ],
      [
       126.93620399721665,
       37.52159048636845
      ],
      [
       126.93622173416226,
       37.52161205351014
      ],
      [
       126.93625348246748,
       37.521580079084536
      ],
      [
       126.93622939586173,
       37.52156490683237
      ],
      [
       126.93623406631185,
       37.521547059644604
      ],
      [
       126.93625647370087,
       37.5215507795933
      ],
      [
       126.93624377438753,
       37.521563569365
      ],
      [
       126.93625983212527,
       37.52157368419836
      ],
      [
       126.9363360279342,
       37.521496945537066
      ],
      [
       126.93624938967218,
       37.52145276628551
      ],
      [
       126.93626208896579,
       37.521439976512966
      ],
      [
       126.93627814667953,
       37.521450091344036
      ],
      [
       126.9363162445312,
       37.52141172201289
      ],
      [
       126.93629047875335,
       37.52138509747074
      ],
      [
       126.93622063266281,
       37.521455441219985
      ],
      [
       126.93622399107203,
       37.521478345826424
      ],
      [
       126.9362430400238,
       37.52145916117127
      ],
      [
       126.93625106888086,
       37.521464218588356
      ],
      [
       126.93620662131337,
       37.52150898278181
      ],
      [
       126.93621465017335,
       37.521514040201325
      ],
      [
       126.93619392199861,
       37.521521772548205
      ],
      [
       126.93621764141925,
       37.52148474071076
      ],
      [
       126.93620961256222,
       37.52147968329142
      ],
      [
       126.9361477951674,
       37.52155508441558
      ],
      [
       126.93614144550162,
       37.52156147929575
      ]
     ]
    ]
   },
   "properties": {
    "layer": "신축동",
    "dong": "102동",
    "zone": "11F",
    "floors": 11,
    "floors_drawn": 11,
    "height_m": 36.4,
    "height_source": "제원표",
    "ground_m": 12.7,
    "top_elev_m": 49.1,
    "area_m2": 157.6
   }
  },
  {
   "type": "Feature",
   "geometry": {
    "type": "Polygon",
    "coordinates": [
     [
      [
       126.93625668414711,
       37.52135341550663
      ],
      [
       126.93633697266289,
       37.52140398964434
      ],
      [
       126.93635602156682,
       37.52138480497069
      ],
      [
       126.93636405042359,
       37.521389862380175
      ],
      [
       126.93640849782636,
       37.52134509812641
      ],
      [
       126.93637638241293,
       37.52132486849716
      ],
      [
       126.93645892746184,
       37.52124173485982
      ],
      [
       126.936491042862,
       37.52126196446689
      ],
      [
       126.93654016046845,
       37.52119935296323
      ],
      [
       126.93645987203439,
       37.52114877896196
      ],
      [
       126.93636462785047,
       37.52124470238682
      ],
      [
       126.93638535593091,
       37.52123697000951
      ],
      [
       126.93646155126851,
       37.52116023126242
      ],
      [
       126.93649366663448,
       37.52118046086903
      ],
      [
       126.93631755651599,
       37.52137097021718
      ],
      [
       126.93628376190462,
       37.52133928826075
      ],
      [
       126.93635995745036,
       37.5212625495807
      ],
      [
       126.93635192860751,
       37.521257492170854
      ],
      [
       126.93626303378538,
       37.521347020620034
      ],
      [
       126.93625668414711,
       37.52135341550663
      ]
     ]
    ]
   },
   "properties": {
    "layer": "신축동",
    "dong": "102동",
    "zone": "14F",
    "floors": 14,
    "floors_drawn": 14,
    "height_m": 46.0,
    "height_source": "제원표",
    "ground_m": 12.7,
    "top_elev_m": 58.7,
    "area_m2": 132.2
   }
  },
  {
   "type": "Feature",
   "geometry": {
    "type": "Polygon",
    "coordinates": [
     [
      [
       126.93639076089006,
       37.52132353101179
      ],
      [
       126.93645499174093,
       37.52136399025368
      ],
      [
       126.93652483752626,
       37.52129364636449
      ],
      [
       126.93646060669786,
       37.52125318716011
      ],
      [
       126.93639711051438,
       37.52131713611793
      ],
      [
       126.93639076089006,
       37.52132353101179
      ]
     ]
    ]
   },
   "properties": {
    "layer": "신축동",
    "dong": "102동",
    "zone": "14F",
    "floors": 14,
    "floors_drawn": 14,
    "height_m": 46.0,
    "height_source": "제원표",
    "ground_m": 12.7,
    "top_elev_m": 58.7,
    "area_m2": 72.1
   }
  },
  {
   "type": "Feature",
   "geometry": {
    "type": "Polygon",
    "coordinates": [
     [
      [
       126.93635822513416,
       37.521698029548595
      ],
      [
       126.93646895045022,
       37.52175738092663
      ],
      [
       126.93648967866184,
       37.52174964853182
      ],
      [
       126.93652179428781,
       37.52176987812899
      ],
      [
       126.93650274532826,
       37.52178906282808
      ],
      [
       126.9366312080179,
       37.52186998114938
      ],
      [
       126.93663755766808,
       37.5218635862432
      ],
      [
       126.93665529480312,
       37.52188515331897
      ],
      [
       126.93669339268337,
       37.52184678386903
      ],
      [
       126.93666930590275,
       37.521831611707114
      ],
      [
       126.93669470447098,
       37.521806032071964
      ],
      [
       126.93667061770319,
       37.5217908599102
      ],
      [
       126.93669601625712,
       37.52176528027457
      ],
      [
       126.9367040451776,
       37.52177033766066
      ],
      [
       126.93668499626456,
       37.52178952238919
      ],
      [
       126.93672010302186,
       37.521780452431194
      ],
      [
       126.93682804666952,
       37.52167173889568
      ],
      [
       126.9367798731759,
       37.52164139462097
      ],
      [
       126.93673972862767,
       37.52161610771029
      ],
      [
       126.93665083384244,
       37.521705636445915
      ],
      [
       126.93665251311808,
       37.52171708874262
      ],
      [
       126.936588281858,
       37.521676629610184
      ],
      [
       126.93656755367674,
       37.52168436202244
      ],
      [
       126.93651938028063,
       37.521654017641644
      ],
      [
       126.93647960316058,
       37.52168093473755
      ],
      [
       126.93653580546115,
       37.52171633653199
      ],
      [
       126.93652310616736,
       37.521729126333376
      ],
      [
       126.93648931130768,
       37.52169744443744
      ],
      [
       126.9364575630532,
       37.52172941892586
      ],
      [
       126.93636121633139,
       37.52166873005527
      ],
      [
       126.93640566390151,
       37.52162396580486
      ],
      [
       126.93639763501687,
       37.52161890839839
      ],
      [
       126.93635318744495,
       37.521663672645815
      ],
      [
       126.93634851701586,
       37.52168151983795
      ],
      [
       126.93636457479302,
       37.521691634656925
      ],
      [
       126.93635822513416,
       37.521698029548595
      ]
     ]
    ]
   },
   "properties": {
    "layer": "신축동",
    "dong": "101동",
    "zone": "8F",
    "floors": 8,
    "floors_drawn": 8,
    "height_m": 27.0,
    "height_source": "제원표",
    "ground_m": 12.7,
    "top_elev_m": 39.7,
    "area_m2": 463.9
   }
  },
  {
   "type": "Feature",
   "geometry": {
    "type": "Polygon",
    "coordinates": [
     [
      [
       126.93677147671377,
       37.52158413314524
      ],
      [
       126.93683570799371,
       37.52162459217871
      ],
      [
       126.93686745604248,
       37.52159261758788
      ],
      [
       126.93685774782556,
       37.52157610791872
      ],
      [
       126.93688986347674,
       37.521596337416426
      ],
      [
       126.93692796108992,
       37.5215579678887
      ],
      [
       126.93695204783509,
       37.52157313999852
      ],
      [
       126.93691395022651,
       37.521611509533926
      ],
      [
       126.93695409483115,
       37.52163679638547
      ],
      [
       126.93697314363648,
       37.521617611612946
      ],
      [
       126.9369892014844,
       37.52162772634718
      ],
      [
       126.93700825027845,
       37.52160854156893
      ],
      [
       126.93701627920326,
       37.52161359893394
      ],
      [
       126.93696548239949,
       37.52166475833897
      ],
      [
       126.93705380066649,
       37.5217203893553
      ],
      [
       126.93706015026795,
       37.52171399442619
      ],
      [
       126.93709394537667,
       37.521745676158936
      ],
      [
       126.93722896611442,
       37.52162283481856
      ],
      [
       126.93725436442088,
       37.5215972550619
      ],
      [
       126.9370616701803,
       37.52147587853803
      ],
      [
       126.93705532059917,
       37.52148227346748
      ],
      [
       126.93694926549502,
       37.52140507541968
      ],
      [
       126.93686672080943,
       37.52148820939776
      ],
      [
       126.93692292314876,
       37.52152361100919
      ],
      [
       126.9369356223395,
       37.52151082116427
      ],
      [
       126.93693898096974,
       37.52153372575035
      ],
      [
       126.9369262817757,
       37.52154651559557
      ],
      [
       126.93686037121064,
       37.5214946043167
      ],
      [
       126.93677782632774,
       37.521577738231194
      ],
      [
       126.93677147671377,
       37.52158413314524
      ]
     ]
    ]
   },
   "properties": {
    "layer": "신축동",
    "dong": "110동",
    "zone": "13F",
    "floors": 13,
    "floors_drawn": 13,
    "height_m": 43.0,
    "height_source": "제원표",
    "ground_m": 12.7,
    "top_elev_m": 55.7,
    "area_m2": 697.6
   }
  },
  {
   "type": "Feature",
   "geometry": {
    "type": "Polygon",
    "coordinates": [
     [
      [
       126.93554291246788,
       37.52056077915182
      ],
      [
       126.935607142207,
       37.52060123885901
      ],
      [
       126.9356372112501,
       37.52055781227977
      ],
      [
       126.9357255272259,
       37.520613444297666
      ],
      [
       126.935744576085,
       37.52059425972
      ],
      [
       126.93576063354769,
       37.520604374622664
      ],
      [
       126.93572720633588,
       37.52062489660949
      ],
      [
       126.93576735001133,
       37.52065018386779
      ],
      [
       126.93578807798873,
       37.52064245159442
      ],
      [
       126.93576902912852,
       37.52066163617894
      ],
      [
       126.93585734532459,
       37.520717268097506
      ],
      [
       126.93585902445705,
       37.52072872040727
      ],
      [
       126.9359034717685,
       37.52068395633846
      ],
      [
       126.93589544301841,
       37.52067889889717
      ],
      [
       126.93597331743631,
       37.52061361276718
      ],
      [
       126.93594120245375,
       37.520593383017506
      ],
      [
       126.93594755205444,
       37.52058698814698
      ],
      [
       126.93597966703598,
       37.52060721789497
      ],
      [
       126.93601776461117,
       37.520568848654364
      ],
      [
       126.93600973586568,
       37.52056379122075
      ],
      [
       126.93584113246114,
       37.52045758498803
      ],
      [
       126.93582040454038,
       37.520465317270975
      ],
      [
       126.9359087205435,
       37.5205209491528
      ],
      [
       126.93588799261215,
       37.52052868144752
      ],
      [
       126.93587193514841,
       37.52051856656205
      ],
      [
       126.93585923594469,
       37.52053135629474
      ],
      [
       126.93574683381291,
       37.52046055202306
      ],
      [
       126.93577055311768,
       37.520423520268615
      ],
      [
       126.935714352148,
       37.5203881181035
      ],
      [
       126.93554926209974,
       37.52055438430272
      ],
      [
       126.93554291246788,
       37.52056077915182
      ]
     ]
    ]
   },
   "properties": {
    "layer": "신축동",
    "dong": "107동",
    "zone": "31F",
    "floors": 31,
    "floors_drawn": 32,
    "height_m": 100.6,
    "height_source": "제원표 32층 −3.20m(감층)",
    "ground_m": 12.7,
    "top_elev_m": 113.3,
    "area_m2": 646.5
   }
  },
  {
   "type": "Feature",
   "geometry": {
    "type": "Polygon",
    "coordinates": [
     [
      [
       126.9365267265068,
       37.52110773456773
      ],
      [
       126.93659095724637,
       37.521148193737055
      ],
      [
       126.93662270519737,
       37.521116219209354
      ],
      [
       126.9366066475085,
       37.521106104424575
      ],
      [
       126.93665109459792,
       37.52106134007709
      ],
      [
       126.93665912344001,
       37.52106639746677
      ],
      [
       126.93662102593957,
       37.52110476691109
      ],
      [
       126.93664511247697,
       37.521119939084485
      ],
      [
       126.93668955955162,
       37.52107517472261
      ],
      [
       126.9367136460934,
       37.52109034688214
      ],
      [
       126.9366691990241,
       37.52113511125296
      ],
      [
       126.93672372173069,
       37.52115906066344
      ],
      [
       126.93671270183651,
       37.52118330278324
      ],
      [
       126.93684751329648,
       37.52125782596556
      ],
      [
       126.9368665620326,
       37.52123864120893
      ],
      [
       126.93685853315804,
       37.52123358383347
      ],
      [
       126.93692370818242,
       37.52118108692019
      ],
      [
       126.936885243131,
       37.52116725235106
      ],
      [
       126.93690597113644,
       37.52115951988223
      ],
      [
       126.93693808662228,
       37.52117974936811
      ],
      [
       126.93700158222791,
       37.52111580011744
      ],
      [
       126.93698552448792,
       37.52110568538413
      ],
      [
       126.93696143788611,
       37.52109051328004
      ],
      [
       126.93696778744197,
       37.52108411835519
      ],
      [
       126.93681691848002,
       37.520999480551744
      ],
      [
       126.93681523919516,
       37.52098802825597
      ],
      [
       126.93675977238696,
       37.52105703479065
      ],
      [
       126.93675174353908,
       37.52105197740781
      ],
      [
       126.93680254007263,
       37.52100081808913
      ],
      [
       126.93670451474037,
       37.52092867719561
      ],
      [
       126.93662197030906,
       37.52101181100958
      ],
      [
       126.93667014333424,
       37.5210421553515
      ],
      [
       126.93671626961743,
       37.521008843276725
      ],
      [
       126.93672429845833,
       37.52101390066202
      ],
      [
       126.93667182259814,
       37.5210536076492
      ],
      [
       126.93661562072984,
       37.521018205915894
      ],
      [
       126.93653307610121,
       37.5211013396663
      ],
      [
       126.9365267265068,
       37.52110773456773
      ]
     ]
    ]
   },
   "properties": {
    "layer": "신축동",
    "dong": "109동",
    "zone": "19F",
    "floors": 19,
    "floors_drawn": 19,
    "height_m": 62.2,
    "height_source": "제원표",
    "ground_m": 12.7,
    "top_elev_m": 74.9,
    "area_m2": 669.4
   }
  },
  {
   "type": "Feature",
   "geometry": {
    "type": "Polygon",
    "coordinates": [
     [
      [
       126.93626760106223,
       37.520632672919774
      ],
      [
       126.93633183125482,
       37.52067313223279
      ],
      [
       126.93636189990708,
       37.520629705469226
      ],
      [
       126.93638598623934,
       37.520644877696526
      ],
      [
       126.93643043318646,
       37.52060011342844
      ],
      [
       126.93645451952311,
       37.52061528564184
      ],
      [
       126.93641007258135,
       37.52066004991888
      ],
      [
       126.93645021650639,
       37.520685336945135
      ],
      [
       126.93646926519838,
       37.52066615225068
      ],
      [
       126.9364772939859,
       37.52067120965301
      ],
      [
       126.93645189572875,
       37.52069678924663
      ],
      [
       126.93646160374256,
       37.52071329895143
      ],
      [
       126.93659641410743,
       37.52078782242531
      ],
      [
       126.93667260877164,
       37.520711083535595
      ],
      [
       126.93664049355829,
       37.52069085397617
      ],
      [
       126.93664684310761,
       37.52068445906813
      ],
      [
       126.93667895831994,
       37.52070468862584
      ],
      [
       126.936717055587,
       37.52066631916003
      ],
      [
       126.93674880327976,
       37.520634344595585
      ],
      [
       126.93659625622904,
       37.52053825420729
      ],
      [
       126.93655144202474,
       37.52053081443381
      ],
      [
       126.93649524060517,
       37.52049541264051
      ],
      [
       126.93650793969434,
       37.52048262283925
      ],
      [
       126.93645173833147,
       37.520447221024995
      ],
      [
       126.93636284459119,
       37.52053674956261
      ],
      [
       126.9364190459791,
       37.520572151418634
      ],
      [
       126.93643977386779,
       37.520564419030734
      ],
      [
       126.93642072519415,
       37.52058360372078
      ],
      [
       126.93635649503017,
       37.52054314445552
      ],
      [
       126.93627395063842,
       37.52062627803174
      ],
      [
       126.93626760106223,
       37.520632672919774
      ]
     ]
    ]
   },
   "properties": {
    "layer": "신축동",
    "dong": "108동",
    "zone": "24F",
    "floors": 24,
    "floors_drawn": 24,
    "height_m": 78.2,
    "height_source": "제원표",
    "ground_m": 12.7,
    "top_elev_m": 90.9,
    "area_m2": 710.7
   }
  },
  {
   "type": "Feature",
   "geometry": {
    "type": "Polygon",
    "coordinates": [
     [
      [
       126.93547443723155,
       37.520143438329214
      ],
      [
       126.93567683325875,
       37.52028132723486
      ],
      [
       126.93582922328135,
       37.52012785057918
      ],
      [
       126.93568470710781,
       37.52003681645361
      ],
      [
       126.93567200795391,
       37.520049606167255
      ],
      [
       126.93561412823165,
       37.520002751638735
      ],
      [
       126.93554989900129,
       37.519962291931705
      ],
      [
       126.93553552077053,
       37.519963629315264
      ],
      [
       126.93551180149558,
       37.52000066102541
      ],
      [
       126.93549574419576,
       37.51999054608806
      ],
      [
       126.93552114253927,
       37.51996496669706
      ],
      [
       126.93545859244517,
       37.51993595925622
      ],
      [
       126.93537604772798,
       37.52001909221318
      ],
      [
       126.9354419559671,
       37.520071004331214
      ],
      [
       126.93547370395085,
       37.520039030106545
      ],
      [
       126.93548173260392,
       37.52004408757696
      ],
      [
       126.93543728542086,
       37.520088851492034
      ],
      [
       126.93546137139192,
       37.52010402390896
      ],
      [
       126.93545502179077,
       37.52011041875384
      ],
      [
       126.9354934860352,
       37.52012425379047
      ],
      [
       126.93547443723155,
       37.520143438329214
      ]
     ]
    ]
   },
   "properties": {
    "layer": "신축동",
    "dong": "106동",
    "zone": "34F+38F+38F+38F",
    "floors": 38,
    "floors_drawn": 39,
    "height_m": 123.0,
    "height_source": "제원표 39층 −3.20m(감층)",
    "ground_m": 12.7,
    "top_elev_m": 135.7,
    "area_m2": 710.7
   }
  },
  {
   "type": "Feature",
   "geometry": {
    "type": "Polygon",
    "coordinates": [
     [
      [
       126.93534167472978,
       37.52013256999851
      ],
      [
       126.9354380186512,
       37.520193259714006
      ],
      [
       126.93545071786937,
       37.5201804700259
      ],
      [
       126.93547480387261,
       37.52019564243985
      ],
      [
       126.93550020229289,
       37.52017006305432
      ],
      [
       126.93546808762818,
       37.52014983317478
      ],
      [
       126.93547443723155,
       37.520143438329214
      ],
      [
       126.93546640856836,
       37.52013838085839
      ],
      [
       126.9354727581709,
       37.520131986012906
      ],
      [
       126.93542290716384,
       37.520090188861836
      ],
      [
       126.93543560636708,
       37.52007739917511
      ],
      [
       126.9354115204098,
       37.52006222675289
      ],
      [
       126.93534802434249,
       37.520126175159746
      ],
      [
       126.93534167472978,
       37.52013256999851
      ]
     ]
    ]
   },
   "properties": {
    "layer": "신축동",
    "dong": "106동",
    "zone": "34F+38F+38F+38F",
    "floors": 38,
    "floors_drawn": 39,
    "height_m": 123.0,
    "height_source": "제원표 39층 −3.20m(감층)",
    "ground_m": 12.7,
    "top_elev_m": 135.7,
    "area_m2": 96.2
   }
  },
  {
   "type": "Feature",
   "geometry": {
    "type": "Polygon",
    "coordinates": [
     [
      [
       126.93610167592298,
       37.51999803109384
      ],
      [
       126.93620604899218,
       37.5200637776124
      ],
      [
       126.9362187480574,
       37.520050987841294
      ],
      [
       126.93624283417478,
       37.52006616009907
      ],
      [
       126.9362602035833,
       37.52003552313053
      ],
      [
       126.93632275407138,
       37.520064530146726
      ],
      [
       126.93633545311684,
       37.52005174036305
      ],
      [
       126.93634348182951,
       37.52005679777493
      ],
      [
       126.93632443326048,
       37.52007598245119
      ],
      [
       126.93644486409221,
       37.52015184358271
      ],
      [
       126.93649566022397,
       37.52010068438785
      ],
      [
       126.93647960276972,
       37.52009056958427
      ],
      [
       126.93650835924608,
       37.52008789458563
      ],
      [
       126.93657185429154,
       37.52002394555362
      ],
      [
       126.93653973939968,
       37.520003715964755
      ],
      [
       126.93657951560692,
       37.519976798840084
      ],
      [
       126.93649119974582,
       37.51992116745485
      ],
      [
       126.936484850248,
       37.51992756235539
      ],
      [
       126.93647514233064,
       37.519911052650386
      ],
      [
       126.93645273542091,
       37.51990733274259
      ],
      [
       126.93644003641998,
       37.51992012253923
      ],
      [
       126.93639354340459,
       37.519901230402255
      ],
      [
       126.93630522777076,
       37.519845598877446
      ],
      [
       126.9363035485897,
       37.519834146572265
      ],
      [
       126.93628450006712,
       37.519853331242864
      ],
      [
       126.9363166148256,
       37.51987356090154
      ],
      [
       126.93631026531695,
       37.519879955792746
      ],
      [
       126.9362861792457,
       37.519864783548286
      ],
      [
       126.93626713071086,
       37.519883968215964
      ],
      [
       126.93626377235923,
       37.51986106360463
      ],
      [
       126.93628282088908,
       37.51984187893739
      ],
      [
       126.93622662011288,
       37.519806477012715
      ],
      [
       126.9361377268651,
       37.51989600539106
      ],
      [
       126.9361956068328,
       37.51994285966409
      ],
      [
       126.93623202478783,
       37.519893038043
      ],
      [
       126.93624808216632,
       37.519903152880524
      ],
      [
       126.93620363552435,
       37.51994791708555
      ],
      [
       126.93625348687286,
       37.51998971390843
      ],
      [
       126.93624713734896,
       37.5199961087961
      ],
      [
       126.93616517123897,
       37.51993408227974
      ],
      [
       126.93610802545948,
       37.519991636214
      ],
      [
       126.93610167592298,
       37.51999803109384
      ]
     ]
    ]
   },
   "properties": {
    "layer": "신축동",
    "dong": "112동",
    "zone": "30F+34F+34F+34F",
    "floors": 34,
    "floors_drawn": 35,
    "height_m": 110.2,
    "height_source": "제원표 35층 −3.20m(감층)",
    "ground_m": 12.7,
    "top_elev_m": 122.9,
    "area_m2": 792.2
   }
  },
  {
   "type": "Feature",
   "geometry": {
    "type": "Polygon",
    "coordinates": [
     [
      [
       126.93601640677095,
       37.5194661674556
      ],
      [
       126.93613515716261,
       37.51953057659972
      ],
      [
       126.9361749332636,
       37.51950365960905
      ],
      [
       126.93619901919631,
       37.519518831876994
      ],
      [
       126.9362371161051,
       37.51948046255794
      ],
      [
       126.9362404744317,
       37.5195033671715
      ],
      [
       126.93620704784273,
       37.51952388929855
      ],
      [
       126.93622310513878,
       37.51953400414
      ],
      [
       126.93624850307927,
       37.51950842459024
      ],
      [
       126.9362565317279,
       37.51951348200845
      ],
      [
       126.93622478430086,
       37.519545456446906
      ],
      [
       126.93623916243918,
       37.519544118979276
      ],
      [
       126.93624084160396,
       37.51955557128592
      ],
      [
       126.93632112818439,
       37.519606145448066
      ],
      [
       126.93632747766891,
       37.51959975055595
      ],
      [
       126.9363452141797,
       37.51962131768599
      ],
      [
       126.93635791314607,
       37.51960852789886
      ],
      [
       126.9363756496677,
       37.519630095024304
      ],
      [
       126.9364073970663,
       37.51959812054574
      ],
      [
       126.93640571787513,
       37.519586668241516
      ],
      [
       126.93638331106587,
       37.519582948320426
      ],
      [
       126.93640235949434,
       37.519563763632924
      ],
      [
       126.93639433083047,
       37.519558706224664
      ],
      [
       126.9364785531106,
       37.519487024851486
      ],
      [
       126.93644643847388,
       37.51946679523562
      ],
      [
       126.93645278793586,
       37.51946040033661
      ],
      [
       126.9364849025716,
       37.51948062995077
      ],
      [
       126.9364976014903,
       37.519467840148266
      ],
      [
       126.93649592228824,
       37.519456387845054
      ],
      [
       126.93646548685662,
       37.519447610537526
      ],
      [
       126.93647183631536,
       37.51944121563745
      ],
      [
       126.93635943523766,
       37.51937041193663
      ],
      [
       126.93630229003773,
       37.51942796597093
      ],
      [
       126.93629426139515,
       37.51942290855577
      ],
      [
       126.93631965927364,
       37.519397328990166
      ],
      [
       126.93624740154843,
       37.519351812244395
      ],
      [
       126.93625375101765,
       37.51934541735597
      ],
      [
       126.93632600874056,
       37.51939093409789
      ],
      [
       126.93633235820637,
       37.51938453920527
      ],
      [
       126.93620390009711,
       37.51930362052901
      ],
      [
       126.93619755062718,
       37.51931001541482
      ],
      [
       126.9362376937578,
       37.51933530251838
      ],
      [
       126.93623134428807,
       37.51934169740596
      ],
      [
       126.93619120115619,
       37.51931641030027
      ],
      [
       126.93617850221095,
       37.519329200070125
      ],
      [
       126.93618149338253,
       37.51929990056954
      ],
      [
       126.93613332167457,
       37.51926955602056
      ],
      [
       126.93604442895334,
       37.519359084337346
      ],
      [
       126.93608625119604,
       37.51939582380186
      ],
      [
       126.93602275626955,
       37.51945977257973
      ],
      [
       126.93601640677095,
       37.5194661674556
      ]
     ]
    ]
   },
   "properties": {
    "layer": "신축동",
    "dong": "113동",
    "zone": "37F+41F+41F+41F",
    "floors": 41,
    "floors_drawn": 42,
    "height_m": 132.6,
    "height_source": "제원표 42층 −3.20m(감층)",
    "ground_m": 12.7,
    "top_elev_m": 145.3,
    "area_m2": 799.2
   }
  },
  {
   "type": "Feature",
   "geometry": {
    "type": "Polygon",
    "coordinates": [
     [
      [
       126.93796903132541,
       37.52115349237102
      ],
      [
       126.93798807974808,
       37.521134307432895
      ],
      [
       126.93801216657215,
       37.521149479327704
      ],
      [
       126.93798975921548,
       37.521145759711864
      ],
      [
       126.9379931181518,
       37.52116866426967
      ],
      [
       126.93811355243,
       37.52124452368873
      ],
      [
       126.938127930861,
       37.52124318599182
      ],
      [
       126.93812625137032,
       37.52123173371498
      ],
      [
       126.9381977749644,
       37.52117284111036
      ],
      [
       126.93817368809519,
       37.52115766925342
      ],
      [
       126.9381800375534,
       37.52115127426339
      ],
      [
       126.93820412442184,
       37.52116644611903
      ],
      [
       126.93823587169277,
       37.52113447115719
      ],
      [
       126.93822784273682,
       37.52112941387466
      ],
      [
       126.93833746277764,
       37.521032151220645
      ],
      [
       126.93832943382577,
       37.52102709394492
      ],
      [
       126.93828498775851,
       37.52107185892519
      ],
      [
       126.93827695880594,
       37.52106680164594
      ],
      [
       126.9383277543091,
       37.521015641670516
      ],
      [
       126.93825549380311,
       37.520970126163256
      ],
      [
       126.93830628925528,
       37.520918966196184
      ],
      [
       126.9382805229389,
       37.520892342085475
      ],
      [
       126.9381761468938,
       37.52082659740667
      ],
      [
       126.93820154460688,
       37.52080101744235
      ],
      [
       126.93813731329375,
       37.52076055914599
      ],
      [
       126.93797222779541,
       37.52092682872553
      ],
      [
       126.93803010970683,
       37.5209736820931
      ],
      [
       126.93802376025093,
       37.52098007707528
      ],
      [
       126.93798361563631,
       37.52095479058448
      ],
      [
       126.93797726617804,
       37.52096118556418
      ],
      [
       126.93795952888055,
       37.520939618683414
      ],
      [
       126.93791508264447,
       37.520984383524976
      ],
      [
       126.9379471983281,
       37.521004612737244
      ],
      [
       126.9379408488625,
       37.521011007714925
      ],
      [
       126.93790873317782,
       37.520990778500966
      ],
      [
       126.93783888897327,
       37.52106112321358
      ],
      [
       126.93796903132541,
       37.52115349237102
      ]
     ]
    ]
   },
   "properties": {
    "layer": "신축동",
    "dong": "111동",
    "zone": "58F+59F+59F",
    "floors": 59,
    "floors_drawn": 59,
    "height_m": 196.5,
    "height_source": "제원표",
    "ground_m": 12.7,
    "top_elev_m": 209.2,
    "area_m2": 1193.0
   }
  },
  {
   "type": "Feature",
   "geometry": {
    "type": "Polygon",
    "coordinates": [
     [
      [
       126.93703043723679,
       37.520219260322826
      ],
      [
       126.93719904179372,
       37.520325464863156
      ],
      [
       126.93726888591173,
       37.52025512052004
      ],
      [
       126.93726552723736,
       37.52023221593832
      ],
      [
       126.93734339999803,
       37.52016692889854
      ],
      [
       126.93731128483633,
       37.52014669951969
      ],
      [
       126.93728588704165,
       37.52017227929534
      ],
      [
       126.93727785825293,
       37.52016722194755
      ],
      [
       126.93730325604861,
       37.520141642173606
      ],
      [
       126.93721493945529,
       37.52008601133043
      ],
      [
       126.93718319219394,
       37.520117986023536
      ],
      [
       126.93716713464305,
       37.520107871313385
      ],
      [
       126.93720691068057,
       37.520080953977754
      ],
      [
       126.93718618300464,
       37.52008868650111
      ],
      [
       126.93714603915024,
       37.5200633997225
      ],
      [
       126.93713968969618,
       37.520069794658134
      ],
      [
       126.93711429186912,
       37.520095374397194
      ],
      [
       126.93709356417966,
       37.52010310690428
      ],
      [
       126.93707750664407,
       37.520092992181915
      ],
      [
       126.9371219528506,
       37.520048227648736
      ],
      [
       126.93712027354023,
       37.520036775355436
      ],
      [
       126.9370898377996,
       37.52002799820937
      ],
      [
       126.93710253670805,
       37.52001520834301
      ],
      [
       126.93711859423036,
       37.520025323062086
      ],
      [
       126.9371439920322,
       37.519999743321776
      ],
      [
       126.93707976197713,
       37.51995928444593
      ],
      [
       126.93690832642302,
       37.52013194749251
      ],
      [
       126.93701270038736,
       37.52019769329756
      ],
      [
       126.93705079722555,
       37.5201593237204
      ],
      [
       126.93705882599808,
       37.52016438108362
      ],
      [
       126.93702072916143,
       37.52020275066334
      ],
      [
       126.93703678671285,
       37.52021286539324
      ],
      [
       126.93703043723679,
       37.520219260322826
      ]
     ]
    ]
   },
   "properties": {
    "layer": "신축동",
    "dong": "114동",
    "zone": "28F",
    "floors": 28,
    "floors_drawn": 28,
    "height_m": 91.0,
    "height_source": "제원표",
    "ground_m": 12.7,
    "top_elev_m": 103.7,
    "area_m2": 675.5
   }
  },
  {
   "type": "Feature",
   "geometry": {
    "type": "Polygon",
    "coordinates": [
     [
      [
       126.93759864252631,
       37.520317311327
      ],
      [
       126.93765484433447,
       37.5203527125967
      ],
      [
       126.9376611937686,
       37.52034631763366
      ],
      [
       126.9378957098283,
       37.52050443201919
      ],
      [
       126.93795920404425,
       37.520440482245135
      ],
      [
       126.93791905974031,
       37.52041519573037
      ],
      [
       126.93792540915722,
       37.52040880075315
      ],
      [
       126.93795752459718,
       37.520429029964376
      ],
      [
       126.937963874012,
       37.52042263498513
      ],
      [
       126.93793175857306,
       37.52040240577562
      ],
      [
       126.9379381079878,
       37.520396010797725
      ],
      [
       126.9379621945646,
       37.5204111827044
      ],
      [
       126.93803371750332,
       37.52035229019033
      ],
      [
       126.93800160207562,
       37.52033206099958
      ],
      [
       126.93798255386065,
       37.520351245942706
      ],
      [
       126.93797452500569,
       37.52034618864236
      ],
      [
       126.93799357322142,
       37.52032700370052
      ],
      [
       126.93799992262448,
       37.52032060871921
      ],
      [
       126.93790357646151,
       37.52025992109278
      ],
      [
       126.93788284880777,
       37.520267653738195
      ],
      [
       126.93783467578825,
       37.52023730988691
      ],
      [
       126.9377902298948,
       37.52028207468714
      ],
      [
       126.93777417222672,
       37.52027196005968
      ],
      [
       126.93781058929314,
       37.52022213795386
      ],
      [
       126.93778650280777,
       37.52020696601585
      ],
      [
       126.93780890987362,
       37.52021068567057
      ],
      [
       126.93784065690754,
       37.52017871080958
      ],
      [
       126.93777642632251,
       37.52013825231334
      ],
      [
       126.93776204809737,
       37.5201395899679
      ],
      [
       126.93762236087098,
       37.520280279198914
      ],
      [
       126.9376303896951,
       37.52028533652322
      ],
      [
       126.9375969631371,
       37.52030585904093
      ],
      [
       126.93760499196225,
       37.520310916366945
      ],
      [
       126.93759864252631,
       37.520317311327
      ]
     ]
    ]
   },
   "properties": {
    "layer": "신축동",
    "dong": "118동",
    "zone": "27F",
    "floors": 27,
    "floors_drawn": 27,
    "height_m": 87.8,
    "height_source": "제원표",
    "ground_m": 12.7,
    "top_elev_m": 100.5,
    "area_m2": 700.1
   }
  },
  {
   "type": "Feature",
   "geometry": {
    "type": "Polygon",
    "coordinates": [
     [
      [
       126.93788174385213,
       37.52011104142468
      ],
      [
       126.93793626620237,
       37.52013499027926
      ],
      [
       126.9380061094511,
       37.52006464549714
      ],
      [
       126.9379900518004,
       37.520054530898676
      ],
      [
       126.9379947217366,
       37.520036683636256
      ],
      [
       126.93804383728282,
       37.519974071492385
      ],
      [
       126.93797960676321,
       37.51993361310531
      ],
      [
       126.93794618045774,
       37.5199541357233
      ],
      [
       126.93788903602967,
       37.520011690520306
      ],
      [
       126.93792115128974,
       37.52003191974261
      ],
      [
       126.93791480190445,
       37.520038314720004
      ],
      [
       126.93789071545699,
       37.52002314280283
      ],
      [
       126.93786998786747,
       37.52003087544634
      ],
      [
       126.93786531790191,
       37.52004872270383
      ],
      [
       126.93792786902358,
       37.52007772887046
      ],
      [
       126.93790247146265,
       37.52010330877921
      ],
      [
       126.93790546199152,
       37.52007400923825
      ],
      [
       126.93788809324641,
       37.52010464644913
      ],
      [
       126.93788174385213,
       37.52011104142468
      ]
     ]
    ]
   },
   "properties": {
    "layer": "신축동",
    "dong": "118동",
    "zone": "26F",
    "floors": 26,
    "floors_drawn": 26,
    "height_m": 84.4,
    "height_source": "제원표",
    "ground_m": 12.7,
    "top_elev_m": 97.1,
    "area_m2": 173.6
   }
  },
  {
   "type": "Feature",
   "geometry": {
    "type": "Polygon",
    "coordinates": [
     [
      [
       126.93854642031913,
       37.52096627608738
      ],
      [
       126.93862670996813,
       37.5210168486729
      ],
      [
       126.93864575818775,
       37.52099766362808
      ],
      [
       126.93864108834636,
       37.521015510913415
      ],
      [
       126.93866984510129,
       37.521012835389186
      ],
      [
       126.93865079688398,
       37.52103202043784
      ],
      [
       126.9387936389939,
       37.52111159865608
      ],
      [
       126.93880633779567,
       37.521098808608784
      ],
      [
       126.93881436678745,
       37.52110386585206
      ],
      [
       126.93879531858391,
       37.52112305092375
      ],
      [
       126.93888363757345,
       37.52117868057752
      ],
      [
       126.9389361123506,
       37.52113897260752
      ],
      [
       126.93889596734263,
       37.52111368642715
      ],
      [
       126.9389023167355,
       37.521107291398174
      ],
      [
       126.93893443273869,
       37.521127520341864
      ],
      [
       126.93895348090778,
       37.52110833524774
      ],
      [
       126.93892939390605,
       37.52109316354462
      ],
      [
       126.9389086661273,
       37.521100896368864
      ],
      [
       126.93893406368366,
       37.521075316248066
      ],
      [
       126.93893574329434,
       37.52108676851383
      ],
      [
       126.93897420868399,
       37.52110060241563
      ],
      [
       126.93903135311086,
       37.52104304710425
      ],
      [
       126.93899120812203,
       37.521017760955864
      ],
      [
       126.93899755749864,
       37.52101136592166
      ],
      [
       126.93902967348652,
       37.52103159483975
      ],
      [
       126.93904237223445,
       37.52101880476686
      ],
      [
       126.93901025624864,
       37.52099857585218
      ],
      [
       126.93906105120524,
       37.52094741556031
      ],
      [
       126.93904499322291,
       37.520937301106486
      ],
      [
       126.938980761337,
       37.52089684326925
      ],
      [
       126.93899346007042,
       37.52088405320132
      ],
      [
       126.93897740211081,
       37.52087393873823
      ],
      [
       126.93901717790592,
       37.52084702079623
      ],
      [
       126.93897703302682,
       37.52082173464229
      ],
      [
       126.93898338238803,
       37.52081533960862
      ],
      [
       126.93891280127664,
       37.52078127676742
      ],
      [
       126.93889375318042,
       37.52080046185613
      ],
      [
       126.93888572421575,
       37.52079540461801
      ],
      [
       126.93890477231275,
       37.52077621953058
      ],
      [
       126.93886462750953,
       37.5207509333382
      ],
      [
       126.9388709768743,
       37.5207445383105
      ],
      [
       126.93883083209948,
       37.52071925210651
      ],
      [
       126.93882448273342,
       37.52072564713209
      ],
      [
       126.93872645581175,
       37.520653507911895
      ],
      [
       126.93864391392536,
       37.5207366431451
      ],
      [
       126.93867602969996,
       37.520756872160106
      ],
      [
       126.93866968031752,
       37.520763267177315
      ],
      [
       126.93864559348418,
       37.52074809541559
      ],
      [
       126.93862486577171,
       37.52075582819053
      ],
      [
       126.93856772125223,
       37.52081338330798
      ],
      [
       126.93857910929826,
       37.52084134511023
      ],
      [
       126.93864166135802,
       37.52087035089577
      ],
      [
       126.93860991437215,
       37.52090232596837
      ],
      [
       126.93860188541576,
       37.52089726871106
      ],
      [
       126.93854474077064,
       37.5209548238159
      ],
      [
       126.93855276972931,
       37.52095988107704
      ],
      [
       126.93854642031913,
       37.52096627608738
      ]
     ]
    ]
   },
   "properties": {
    "layer": "신축동",
    "dong": "115동",
    "zone": "59F",
    "floors": 59,
    "floors_drawn": 59,
    "height_m": 196.5,
    "height_source": "제원표",
    "ground_m": 12.7,
    "top_elev_m": 209.2,
    "area_m2": 1468.1
   }
  },
  {
   "type": "Feature",
   "geometry": {
    "type": "Polygon",
    "coordinates": [
     [
      [
       126.93928344515217,
       37.52097315723508
      ],
      [
       126.9393717643281,
       37.52102878652544
      ],
      [
       126.93939081236014,
       37.521009601360326
      ],
      [
       126.93941489942858,
       37.5210247729696
      ],
      [
       126.93939249203922,
       37.52102105361978
      ],
      [
       126.9393797933506,
       37.521033843730365
      ],
      [
       126.93939417171877,
       37.52103250587919
      ],
      [
       126.93939585139883,
       37.52104395813855
      ],
      [
       126.93953234498403,
       37.52112993051948
      ],
      [
       126.93960853699241,
       37.521053189737856
      ],
      [
       126.93960517756734,
       37.521030285225116
      ],
      [
       126.9396275849701,
       37.52103400453459
      ],
      [
       126.93965298225852,
       37.52100842425868
      ],
      [
       126.93962086611208,
       37.52098819550986
      ],
      [
       126.93965261270334,
       37.52095622016565
      ],
      [
       126.93966064173705,
       37.520961277351546
      ],
      [
       126.93963524446723,
       37.52098685762931
      ],
      [
       126.93965130253994,
       37.520996972002884
      ],
      [
       126.93974019290125,
       37.5209074409943
      ],
      [
       126.93971610580455,
       37.52089226945104
      ],
      [
       126.9397097564993,
       37.52089866452407
      ],
      [
       126.93966793164037,
       37.52086192634968
      ],
      [
       126.93952340938206,
       37.52077089692701
      ],
      [
       126.93951071075821,
       37.520783687052266
      ],
      [
       126.93951538037798,
       37.520765839731645
      ],
      [
       126.93941903241394,
       37.52070515334443
      ],
      [
       126.93935553921817,
       37.52076910390129
      ],
      [
       126.93937159720646,
       37.52077921831318
      ],
      [
       126.93934918989264,
       37.52077549895505
      ],
      [
       126.93932379257966,
       37.520801079166624
      ],
      [
       126.93933985057049,
       37.52081119358278
      ],
      [
       126.93931744324868,
       37.52080747421865
      ],
      [
       126.93929204591402,
       37.52083305442323
      ],
      [
       126.93937233592433,
       37.520883626503355
      ],
      [
       126.93941043190452,
       37.520845256168805
      ],
      [
       126.93941846090999,
       37.52085031337121
      ],
      [
       126.93934226891368,
       37.52092705403289
      ],
      [
       126.93931015288607,
       37.5209068251994
      ],
      [
       126.93931519188091,
       37.520941181981605
      ],
      [
       126.9392897945001,
       37.52096676218509
      ],
      [
       126.93928344515217,
       37.52097315723508
      ]
     ]
    ]
   },
   "properties": {
    "layer": "신축동",
    "dong": "116동",
    "zone": "29F",
    "floors": 29,
    "floors_drawn": 29,
    "height_m": 94.4,
    "height_source": "제원표",
    "ground_m": 12.7,
    "top_elev_m": 107.1,
    "area_m2": 991.2
   }
  },
  {
   "type": "Feature",
   "geometry": {
    "type": "Polygon",
    "coordinates": [
     [
      [
       126.9367567750784,
       37.51949596897812
      ],
      [
       126.93678721056388,
       37.519504746210586
      ],
      [
       126.93681727848255,
       37.51946131932181
      ],
      [
       126.9368557426461,
       37.519475153916254
      ],
      [
       126.9369255862924,
       37.51940480976557
      ],
      [
       126.93690952892902,
       37.519394695019336
      ],
      [
       126.93692054849566,
       37.51937045287353
      ],
      [
       126.93690449114033,
       37.51936033812655
      ],
      [
       126.93687909347385,
       37.51938591781826
      ],
      [
       126.93687106479679,
       37.51938086044225
      ],
      [
       126.93690281187847,
       37.51934888582886
      ],
      [
       126.93692689790906,
       37.51936405794886
      ],
      [
       126.93695696569029,
       37.51932063102339
      ],
      [
       126.93696331509635,
       37.51931423609672
      ],
      [
       126.93689908572604,
       37.51927377711853
      ],
      [
       126.93681654333606,
       37.51935691109369
      ],
      [
       126.93684062935176,
       37.519372083231254
      ],
      [
       126.93683427993032,
       37.51937847815126
      ],
      [
       126.93681019391386,
       37.519363306012416
      ],
      [
       126.93678479621423,
       37.5193888856838
      ],
      [
       126.93683128901077,
       37.5194077776682
      ],
      [
       126.9367550958361,
       37.519484516678624
      ],
      [
       126.93676312451642,
       37.51948957406243
      ],
      [
       126.9367567750784,
       37.51949596897812
      ]
     ]
    ]
   },
   "properties": {
    "layer": "신축동",
    "dong": "120동",
    "zone": "26F",
    "floors": 26,
    "floors_drawn": 26,
    "height_m": 84.4,
    "height_source": "제원표",
    "ground_m": 12.7,
    "top_elev_m": 97.1,
    "area_m2": 183.0
   }
  },
  {
   "type": "Feature",
   "geometry": {
    "type": "Polygon",
    "coordinates": [
     [
      [
       126.93618039199418,
       37.51914328821766
      ],
      [
       126.93618842059912,
       37.51914834564076
      ],
      [
       126.93620578981661,
       37.51911770867528
      ],
      [
       126.93622819647794,
       37.519121428630214
      ],
      [
       126.93627264261427,
       37.519076664409184
      ],
      [
       126.93629672842967,
       37.519091836658205
      ],
      [
       126.93636022281035,
       37.51902788772854
      ],
      [
       126.93632810840218,
       37.51900765807913
      ],
      [
       126.9362946820585,
       37.51902818023294
      ],
      [
       126.93627059626392,
       37.51901300798336
      ],
      [
       126.93623848188638,
       37.518992778309574
      ],
      [
       126.93622578300412,
       37.51900556808528
      ],
      [
       126.93627395458002,
       37.51903591259778
      ],
      [
       126.93626760513878,
       37.519042307487666
      ],
      [
       126.93621943356136,
       37.51901196297259
      ],
      [
       126.93613054124891,
       37.51910149135848
      ],
      [
       126.93618674145142,
       37.51913689333259
      ],
      [
       126.93618039199418,
       37.51914328821766
      ]
     ]
    ]
   },
   "properties": {
    "layer": "신축동",
    "dong": "121동",
    "zone": "26F",
    "floors": 26,
    "floors_drawn": 26,
    "height_m": 84.4,
    "height_source": "제원표",
    "ground_m": 12.7,
    "top_elev_m": 97.1,
    "area_m2": 145.7
   }
  },
  {
   "type": "Feature",
   "geometry": {
    "type": "Polygon",
    "coordinates": [
     [
      [
       126.9363344578353,
       37.519001263185956
      ],
      [
       126.93634248643546,
       37.519006320598706
      ],
      [
       126.93638058300992,
       37.518967951229726
      ],
      [
       126.93637087523956,
       37.5189514415136
      ],
      [
       126.93638992351043,
       37.5189322568259
      ],
      [
       126.93633372336515,
       37.518896854947286
      ],
      [
       126.93632737394081,
       37.518903249840555
      ],
      [
       126.93636919606833,
       37.518939989207624
      ],
      [
       126.93634846862194,
       37.518947721585675
      ],
      [
       126.93632475007081,
       37.518984753466135
      ],
      [
       126.93634080726734,
       37.518994868292424
      ],
      [
       126.9363344578353,
       37.519001263185956
      ]
     ]
    ]
   },
   "properties": {
    "layer": "신축동",
    "dong": "121동",
    "zone": "26F",
    "floors": 26,
    "floors_drawn": 26,
    "height_m": 84.4,
    "height_source": "제원표",
    "ground_m": 12.7,
    "top_elev_m": 97.1,
    "area_m2": 27.4
   }
  },
  {
   "type": "Feature",
   "geometry": {
    "type": "Polygon",
    "coordinates": [
     [
      [
       126.9363400727884,
       37.51889046005368
      ],
      [
       126.93650064476789,
       37.51899160819838
      ],
      [
       126.93653407103893,
       37.51897108598608
      ],
      [
       126.93642167060689,
       37.51890028233942
      ],
      [
       126.93640897177156,
       37.51891307213507
      ],
      [
       126.93635277163162,
       37.518877670265404
      ],
      [
       126.93634642221056,
       37.518884065159725
      ],
      [
       126.9363400727884,
       37.51889046005368
      ]
     ]
    ]
   },
   "properties": {
    "layer": "신축동",
    "dong": "121동",
    "zone": "26F",
    "floors": 26,
    "floors_drawn": 26,
    "height_m": 84.4,
    "height_source": "제원표",
    "ground_m": 12.7,
    "top_elev_m": 97.1,
    "area_m2": 55.7
   }
  },
  {
   "type": "Feature",
   "geometry": {
    "type": "Polygon",
    "coordinates": [
     [
      [
       126.93642802002293,
       37.51889388744109
      ],
      [
       126.93649224881318,
       37.51893434667751
      ],
      [
       126.93653669468078,
       37.51888958235546
      ],
      [
       126.93652866608001,
       37.518884524955816
      ],
      [
       126.93648049449803,
       37.51885418054639
      ],
      [
       126.93646144627021,
       37.518873365248986
      ],
      [
       126.93643269025836,
       37.51887604023718
      ],
      [
       126.93643436943788,
       37.5188874925424
      ],
      [
       126.93642802002293,
       37.51889388744109
      ]
     ]
    ]
   },
   "properties": {
    "layer": "신축동",
    "dong": "121동",
    "zone": "26F",
    "floors": 26,
    "floors_drawn": 26,
    "height_m": 84.4,
    "height_source": "제원표",
    "ground_m": 12.7,
    "top_elev_m": 97.1,
    "area_m2": 43.8
   }
  },
  {
   "type": "Feature",
   "geometry": {
    "type": "Polygon",
    "coordinates": [
     [
      [
       126.936661217181,
       37.51909275612342
      ],
      [
       126.93678967542368,
       37.51917367430532
      ],
      [
       126.93679434559053,
       37.5191558270879
      ],
      [
       126.9368150730486,
       37.51914809463188
      ],
      [
       126.93684886689793,
       37.51917977644738
      ],
      [
       126.93687762301164,
       37.519177101358096
      ],
      [
       126.93692206879345,
       37.51913233689279
      ],
      [
       126.93679361047838,
       37.519051418854254
      ],
      [
       126.93676821287893,
       37.519076998523516
      ],
      [
       126.93678427015519,
       37.51908711328944
      ],
      [
       126.9367555140727,
       37.51908978835606
      ],
      [
       126.93675215560704,
       37.51906688375541
      ],
      [
       126.93667354853172,
       37.519027762183484
      ],
      [
       126.93665114187615,
       37.51902404231299
      ],
      [
       126.93668923830174,
       37.51898567284442
      ],
      [
       126.93667318106004,
       37.518975558065456
      ],
      [
       126.93666048225482,
       37.518988347888
      ],
      [
       126.93666515244084,
       37.51897050067513
      ],
      [
       126.93654472328265,
       37.518894639754556
      ],
      [
       126.93650027741683,
       37.518939404079596
      ],
      [
       126.93654844906156,
       37.51896974848056
      ],
      [
       126.9365294008217,
       37.51898893319373
      ],
      [
       126.93660165836886,
       37.51903444976961
      ],
      [
       126.93662705601065,
       37.51900887013602
      ],
      [
       126.93663209364871,
       37.51904322704255
      ],
      [
       126.93667223678341,
       37.51906851399957
      ],
      [
       126.9366929642299,
       37.51906078156485
      ],
      [
       126.93666756659293,
       37.51908636121241
      ],
      [
       126.936661217181,
       37.51909275612342
      ]
     ]
    ]
   },
   "properties": {
    "layer": "신축동",
    "dong": "121동",
    "zone": "23F+18F+18F",
    "floors": 23,
    "floors_drawn": 23,
    "height_m": 75.0,
    "height_source": "제원표",
    "ground_m": 12.7,
    "top_elev_m": 87.7,
    "area_m2": 320.6
   }
  },
  {
   "type": "Feature",
   "geometry": {
    "type": "Polygon",
    "coordinates": [
     [
      [
       126.93722878982973,
       37.519782901384076
      ],
      [
       126.93728499106243,
       37.51981830283247
      ],
      [
       126.93732009682347,
       37.5198092326922
      ],
      [
       126.93736454271665,
       37.519764468065276
      ],
      [
       126.93735483462642,
       37.519747958431964
      ],
      [
       126.93739497838256,
       37.51977324514089
      ],
      [
       126.93745847240503,
       37.51970929562791
      ],
      [
       126.93742635740819,
       37.519689066278914
      ],
      [
       126.93748518130181,
       37.519642963991686
      ],
      [
       126.93748985133247,
       37.51962511674805
      ],
      [
       126.93746576510387,
       37.51960994474336
      ],
      [
       126.93742299871082,
       37.51966616169947
      ],
      [
       126.93743270680547,
       37.51968267132741
      ],
      [
       126.93740395051735,
       37.519685346551455
      ],
      [
       126.93735577806608,
       37.519655002502354
      ],
      [
       126.93732403104765,
       37.51968697723589
      ],
      [
       126.93733205978809,
       37.519692034580906
      ],
      [
       126.93731768164069,
       37.519693372181536
      ],
      [
       126.93723513925185,
       37.51977650644331
      ],
      [
       126.93722878982973,
       37.519782901384076
      ]
     ]
    ]
   },
   "properties": {
    "layer": "신축동",
    "dong": "119동",
    "zone": "26F",
    "floors": 26,
    "floors_drawn": 26,
    "height_m": 87.6,
    "height_source": "제원표",
    "ground_m": 12.7,
    "top_elev_m": 100.3,
    "area_m2": 192.0
   }
  },
  {
   "type": "Feature",
   "geometry": {
    "type": "Polygon",
    "coordinates": [
     [
      [
       126.93743197079975,
       37.519578263106254
      ],
      [
       126.9375845169711,
       37.51967435243003
      ],
      [
       126.93763232138504,
       37.51965249227618
      ],
      [
       126.937527947635,
       37.51958674701279
      ],
      [
       126.9375072201289,
       37.5195944795933
      ],
      [
       126.93745101895877,
       37.51955907824937
      ],
      [
       126.93743832018717,
       37.51957186815431
      ],
      [
       126.93743197079975,
       37.519578263106254
      ]
     ]
    ]
   },
   "properties": {
    "layer": "신축동",
    "dong": "119동",
    "zone": "26F",
    "floors": 26,
    "floors_drawn": 26,
    "height_m": 87.6,
    "height_source": "제원표",
    "ground_m": 12.7,
    "top_elev_m": 100.3,
    "area_m2": 69.6
   }
  },
  {
   "type": "Feature",
   "geometry": {
    "type": "Polygon",
    "coordinates": [
     [
      [
       126.93762765138663,
       37.519670339525376
      ],
      [
       126.93769188149047,
       37.51971079810531
      ],
      [
       126.93773501592129,
       37.51970678516148
      ],
      [
       126.93772698715202,
       37.51970172784384
      ],
      [
       126.93777143273849,
       37.51965696306272
      ],
      [
       126.93765100135649,
       37.519581103276956
      ],
      [
       126.9376446519864,
       37.51958749824035
      ],
      [
       126.93757874264436,
       37.5195355873462
      ],
      [
       126.93752626827282,
       37.51957529472431
      ],
      [
       126.93761290511978,
       37.519619473052025
      ],
      [
       126.9376065557432,
       37.5196258680133
      ],
      [
       126.93764669951904,
       37.51965115463722
      ],
      [
       126.93763400076517,
       37.519663944563014
      ],
      [
       126.93762765138663,
       37.519670339525376
      ]
     ]
    ]
   },
   "properties": {
    "layer": "신축동",
    "dong": "119동",
    "zone": "23F",
    "floors": 23,
    "floors_drawn": 23,
    "height_m": 78.0,
    "height_source": "제원표",
    "ground_m": 12.7,
    "top_elev_m": 90.7,
    "area_m2": 156.0
   }
  },
  {
   "type": "Feature",
   "geometry": {
    "type": "Polygon",
    "coordinates": [
     [
      [
       126.93773501592129,
       37.51970678516148
      ],
      [
       126.93773837471583,
       37.519729689732
      ],
      [
       126.93777048981443,
       37.519749918996084
      ],
      [
       126.93778318855959,
       37.5197371290558
      ],
      [
       126.93783939002033,
       37.51977253024086
      ],
      [
       126.93785040934198,
       37.51974828800963
      ],
      [
       126.93779420789423,
       37.51971288682969
      ],
      [
       126.93774939406386,
       37.51970544751004
      ],
      [
       126.93778749027452,
       37.51966707769148
      ],
      [
       126.93777946150595,
       37.51966202037739
      ],
      [
       126.93773501592129,
       37.51970678516148
      ]
     ]
    ]
   },
   "properties": {
    "layer": "신축동",
    "dong": "119동",
    "zone": "23F",
    "floors": 23,
    "floors_drawn": 23,
    "height_m": 78.0,
    "height_source": "제원표",
    "ground_m": 12.7,
    "top_elev_m": 90.7,
    "area_m2": 38.9
   }
  },
  {
   "type": "Feature",
   "geometry": {
    "type": "Polygon",
    "coordinates": [
     [
      [
       126.93776114986892,
       37.519785613504645
      ],
      [
       126.93787355289527,
       37.51985641586828
      ],
      [
       126.93791967791346,
       37.51982310331568
      ],
      [
       126.93791500797278,
       37.5198409505758
      ],
      [
       126.93794712316677,
       37.51986117979157
      ],
      [
       126.9379678507014,
       37.51985344713423
      ],
      [
       126.93798390830604,
       37.51986356173601
      ],
      [
       126.9380220044772,
       37.51982519184282
      ],
      [
       126.93802835383529,
       37.519818796859404
      ],
      [
       126.93789989314813,
       37.51973788003135
      ],
      [
       126.93784106943474,
       37.51978398252454
      ],
      [
       126.93778486796468,
       37.519748581340345
      ],
      [
       126.93775947046667,
       37.51977416121984
      ],
      [
       126.93776749924588,
       37.519779218535206
      ],
      [
       126.93776114986892,
       37.519785613504645
      ]
     ]
    ]
   },
   "properties": {
    "layer": "신축동",
    "dong": "119동",
    "zone": "18F+18F",
    "floors": 18,
    "floors_drawn": 18,
    "height_m": 62.0,
    "height_source": "제원표",
    "ground_m": 12.7,
    "top_elev_m": 74.7,
    "area_m2": 172.0
   }
  },
  {
   "type": "Feature",
   "geometry": {
    "type": "Polygon",
    "coordinates": [
     [
      [
       126.93826450679157,
       37.52043529518303
      ],
      [
       126.93832070900318,
       37.52047069613553
      ],
      [
       126.93833975716204,
       37.52045151113822
      ],
      [
       126.938355814945,
       37.52046162568858
      ],
      [
       126.93840026060752,
       37.52041686067667
      ],
      [
       126.93837617394007,
       37.520401688859266
      ],
      [
       126.93840157144069,
       37.520376108849895
      ],
      [
       126.93840960032774,
       37.520381166121204
      ],
      [
       126.93839055220467,
       37.52040035113004
      ],
      [
       126.93843069666,
       37.52042563748476
      ],
      [
       126.93849419035293,
       37.52036168742178
      ],
      [
       126.93846207479672,
       37.52034145835616
      ],
      [
       126.93843499781003,
       37.52035558610455
      ],
      [
       126.93843966765917,
       37.520337738825354
      ],
      [
       126.93839952324782,
       37.52031245247337
      ],
      [
       126.93840587261506,
       37.52030605747017
      ],
      [
       126.9383834654909,
       37.520302337928705
      ],
      [
       126.93838514500025,
       37.520313790203716
      ],
      [
       126.93826282729793,
       37.52042384290656
      ],
      [
       126.93827085618071,
       37.52042890018726
      ],
      [
       126.93826450679157,
       37.52043529518303
      ]
     ]
    ]
   },
   "properties": {
    "layer": "신축동",
    "dong": "117동",
    "zone": "26F",
    "floors": 26,
    "floors_drawn": 26,
    "height_m": 88.0,
    "height_source": "제원표",
    "ground_m": 12.7,
    "top_elev_m": 100.7,
    "area_m2": 170.3
   }
  },
  {
   "type": "Feature",
   "geometry": {
    "type": "Polygon",
    "coordinates": [
     [
      [
       126.93846039527497,
       37.5203300060823
      ],
      [
       126.93847645304822,
       37.52034012061645
      ],
      [
       126.93852089856657,
       37.5202953555581
      ],
      [
       126.93850484079688,
       37.52028524102991
      ],
      [
       126.93851753950767,
       37.52027245101179
      ],
      [
       126.93850148174334,
       37.52026233648312
      ],
      [
       126.93845703623303,
       37.52030710153443
      ],
      [
       126.93846674463849,
       37.52032361107586
      ],
      [
       126.93846039527497,
       37.5203300060823
      ]
     ]
    ]
   },
   "properties": {
    "layer": "신축동",
    "dong": "117동",
    "zone": "26F",
    "floors": 26,
    "floors_drawn": 26,
    "height_m": 88.0,
    "height_source": "제원표",
    "ground_m": 12.7,
    "top_elev_m": 100.7,
    "area_m2": 23.7
   }
  },
  {
   "type": "Feature",
   "geometry": {
    "type": "Polygon",
    "coordinates": [
     [
      [
       126.93844695911947,
       37.52023838788973
      ],
      [
       126.938475715583,
       37.52023571241216
      ],
      [
       126.9386202355354,
       37.520326743123036
      ],
      [
       126.93866804006427,
       37.520304882552516
      ],
      [
       126.93855563561401,
       37.52023408094908
      ],
      [
       126.93856198496127,
       37.52022768593741
      ],
      [
       126.93855395608036,
       37.520222628676336
      ],
      [
       126.93854293691622,
       37.52024687097139
      ],
      [
       126.9384867347672,
       37.52021147012334
      ],
      [
       126.93847235654057,
       37.52021280786435
      ],
      [
       126.9384613373515,
       37.520237050151806
      ],
      [
       126.93845330847638,
       37.52023199288391
      ],
      [
       126.93844695911947,
       37.52023838788973
      ]
     ]
    ]
   },
   "properties": {
    "layer": "신축동",
    "dong": "117동",
    "zone": "25F",
    "floors": 25,
    "floors_drawn": 25,
    "height_m": 84.8,
    "height_source": "층고규칙 산정",
    "ground_m": 12.7,
    "top_elev_m": 97.5,
    "area_m2": 74.1
   }
  },
  {
   "type": "Feature",
   "geometry": {
    "type": "Polygon",
    "coordinates": [
     [
      [
       126.93856198496127,
       37.52022768593741
      ],
      [
       126.93858607161054,
       37.520242857717356
      ],
      [
       126.93862621604765,
       37.52026814400628
      ],
      [
       126.93867066143383,
       37.520223378890904
      ],
      [
       126.93861445924198,
       37.52018797810346
      ],
      [
       126.93856198496127,
       37.52022768593741
      ]
     ]
    ]
   },
   "properties": {
    "layer": "신축동",
    "dong": "117동",
    "zone": "25F",
    "floors": 25,
    "floors_drawn": 25,
    "height_m": 84.8,
    "height_source": "층고규칙 산정",
    "ground_m": 12.7,
    "top_elev_m": 97.5,
    "area_m2": 43.0
   }
  },
  {
   "type": "Feature",
   "geometry": {
    "type": "Polygon",
    "coordinates": [
     [
      [
       126.93866337027157,
       37.52032272984087
      ],
      [
       126.93875000865371,
       37.52036690733024
      ],
      [
       126.9387991237861,
       37.520304294875444
      ],
      [
       126.9387589792712,
       37.52027900864538
      ],
      [
       126.9386786903227,
       37.52022843614406
      ],
      [
       126.93863424493831,
       37.52027320126241
      ],
      [
       126.93868241830512,
       37.5203035447877
      ],
      [
       126.93866971961718,
       37.5203163348235
      ],
      [
       126.93866337027157,
       37.52032272984087
      ]
     ]
    ]
   },
   "properties": {
    "layer": "신축동",
    "dong": "117동",
    "zone": "20F",
    "floors": 20,
    "floors_drawn": 20,
    "height_m": 68.8,
    "height_source": "층고규칙 산정",
    "ground_m": 12.7,
    "top_elev_m": 81.5,
    "area_m2": 108.5
   }
  },
  {
   "type": "Feature",
   "geometry": {
    "type": "Polygon",
    "coordinates": [
     [
      [
       126.93878884259047,
       37.520432945394184
      ],
      [
       126.93890927649392,
       37.52050880401101
      ],
      [
       126.93894905211948,
       37.52048188609015
      ],
      [
       126.93889919893873,
       37.520440090406865
      ],
      [
       126.93891189760855,
       37.520427300346654
      ],
      [
       126.93893131465536,
       37.52046031935343
      ],
      [
       126.93896343038934,
       37.520480548291204
      ],
      [
       126.93895073171929,
       37.52049333835684
      ],
      [
       126.93898284747264,
       37.52051356728925
      ],
      [
       126.9390035750812,
       37.520505834451086
      ],
      [
       126.93901963296555,
       37.520515948911175
      ],
      [
       126.9390640782641,
       37.52047118364957
      ],
      [
       126.9389677310446,
       37.520410496891806
      ],
      [
       126.93892758641586,
       37.520385210719404
      ],
      [
       126.93888314108692,
       37.52042997593028
      ],
      [
       126.93887511216263,
       37.52042491869117
      ],
      [
       126.93886876282535,
       37.52043131371947
      ],
      [
       126.93882058930089,
       37.5204009702707
      ],
      [
       126.93879519193473,
       37.52042655037019
      ],
      [
       126.93878884259047,
       37.520432945394184
      ]
     ]
    ]
   },
   "properties": {
    "layer": "신축동",
    "dong": "117동",
    "zone": "16F+16F",
    "floors": 16,
    "floors_drawn": 16,
    "height_m": 56.0,
    "height_source": "제원표",
    "ground_m": 12.7,
    "top_elev_m": 68.7,
    "area_m2": 170.3
   }
  },
  {
   "type": "Feature",
   "geometry": {
    "type": "Polygon",
    "coordinates": [
     [
      [
       126.93887511216263,
       37.52042491869117
      ],
      [
       126.93891955749336,
       37.52038015348327
      ],
      [
       126.9388071526923,
       37.52030935211982
      ],
      [
       126.93876270733654,
       37.52035411728593
      ],
      [
       126.93877876515583,
       37.520364231778984
      ],
      [
       126.93876606647402,
       37.52037702182499
      ],
      [
       126.93880621104377,
       37.52040230805228
      ],
      [
       126.93881890972304,
       37.520389518002006
      ],
      [
       126.93887511216263,
       37.52042491869117
      ]
     ]
    ]
   },
   "properties": {
    "layer": "신축동",
    "dong": "117동",
    "zone": "16F+16F",
    "floors": 16,
    "floors_drawn": 16,
    "height_m": 56.0,
    "height_source": "제원표",
    "ground_m": 12.7,
    "top_elev_m": 68.7,
    "area_m2": 88.4
   }
  }
 ]
}