{
 "type": "FeatureCollection",
 "features": [
  {
   "type": "Feature",
   "geometry": {
    "type": "Polygon",
    "coordinates": [
     [
      [
       126.93271425,
       37.52278067
      ],
      [
       126.93285472,
       37.52264169
      ],
      [
       126.93270076,
       37.52254297
      ],
      [
       126.93256028,
       37.52268195
      ],
      [
       126.93271425,
       37.52278067
      ]
     ]
    ]
   },
   "properties": {
    "label": "대교0",
    "group": "대교",
    "height_m": 145.6
   }
  },
  {
   "type": "Feature",
   "geometry": {
    "type": "Polygon",
    "coordinates": [
     [
      [
       126.93280341,
       37.52260879
      ],
      [
       126.9328943,
       37.52251886
      ],
      [
       126.93279166,
       37.52245304
      ],
      [
       126.93270076,
       37.52254297
      ],
      [
       126.93280341,
       37.52260879
      ]
     ]
    ]
   },
   "properties": {
    "label": "대교1",
    "group": "대교",
    "height_m": 130.8
   }
  },
  {
   "type": "Feature",
   "geometry": {
    "type": "Polygon",
    "coordinates": [
     [
      [
       126.93291631,
       37.52268118
      ],
      [
       126.9330072,
       37.52259126
      ],
      [
       126.9328943,
       37.52251886
      ],
      [
       126.93280341,
       37.52260879
      ],
      [
       126.93291631,
       37.52268118
      ]
     ]
    ]
   },
   "properties": {
    "label": "대교2",
    "group": "대교",
    "height_m": 104.3
   }
  },
  {
   "type": "Feature",
   "geometry": {
    "type": "Polygon",
    "coordinates": [
     [
      [
       126.93363915,
       37.52255182
      ],
      [
       126.93377136,
       37.52242101
      ],
      [
       126.93361739,
       37.52232229
      ],
      [
       126.93348518,
       37.5224531
      ],
      [
       126.93363915,
       37.52255182
      ]
     ]
    ]
   },
   "properties": {
    "label": "대교3",
    "group": "대교",
    "height_m": 145.6
   }
  },
  {
   "type": "Feature",
   "geometry": {
    "type": "Polygon",
    "coordinates": [
     [
      [
       126.93377136,
       37.52242101
      ],
      [
       126.93385399,
       37.52233927
      ],
      [
       126.93373082,
       37.52226029
      ],
      [
       126.93364818,
       37.52234204
      ],
      [
       126.93377136,
       37.52242101
      ]
     ]
    ]
   },
   "properties": {
    "label": "대교4",
    "group": "대교",
    "height_m": 139.7
   }
  },
  {
   "type": "Feature",
   "geometry": {
    "type": "Polygon",
    "coordinates": [
     [
      [
       126.93349345,
       37.52244492
      ],
      [
       126.9335926,
       37.52234682
      ],
      [
       126.93348996,
       37.52228101
      ],
      [
       126.9333908,
       37.52237911
      ],
      [
       126.93349345,
       37.52244492
      ]
     ]
    ]
   },
   "properties": {
    "label": "대교5",
    "group": "대교",
    "height_m": 104.3
   }
  },
  {
   "type": "Feature",
   "geometry": {
    "type": "Polygon",
    "coordinates": [
     [
      [
       126.9337201,
       37.52183573
      ],
      [
       126.93384404,
       37.5217131
      ],
      [
       126.93366956,
       37.52160122
      ],
      [
       126.9335456,
       37.52172384
      ],
      [
       126.9337201,
       37.52183573
      ]
     ]
    ]
   },
   "properties": {
    "label": "대교6",
    "group": "대교",
    "height_m": 127.9
   }
  },
  {
   "type": "Feature",
   "geometry": {
    "type": "Polygon",
    "coordinates": [
     [
      [
       126.93378246,
       37.52167361
      ],
      [
       126.93387335,
       37.52158369
      ],
      [
       126.93376045,
       37.52151129
      ],
      [
       126.93366956,
       37.52160122
      ],
      [
       126.93378246,
       37.52167361
      ]
     ]
    ]
   },
   "properties": {
    "label": "대교7",
    "group": "대교",
    "height_m": 127.9
   }
  },
  {
   "type": "Feature",
   "geometry": {
    "type": "Polygon",
    "coordinates": [
     [
      [
       126.93389537,
       37.52174601
      ],
      [
       126.93398626,
       37.52165608
      ],
      [
       126.93387335,
       37.52158369
      ],
      [
       126.93378246,
       37.52167361
      ],
      [
       126.93389537,
       37.52174601
      ]
     ]
    ]
   },
   "properties": {
    "label": "대교8",
    "group": "대교",
    "height_m": 104.3
   }
  },
  {
   "type": "Feature",
   "geometry": {
    "type": "Polygon",
    "coordinates": [
     [
      [
       126.93448198,
       37.52171793
      ],
      [
       126.93461419,
       37.52158713
      ],
      [
       126.93446022,
       37.52148841
      ],
      [
       126.93432802,
       37.52161922
      ],
      [
       126.93448198,
       37.52171793
      ]
     ]
    ]
   },
   "properties": {
    "label": "대교9",
    "group": "대교",
    "height_m": 130.8
   }
  },
  {
   "type": "Feature",
   "geometry": {
    "type": "Polygon",
    "coordinates": [
     [
      [
       126.93461419,
       37.52158713
      ],
      [
       126.93469681,
       37.52150537
      ],
      [
       126.93457365,
       37.5214264
      ],
      [
       126.93449102,
       37.52150815
      ],
      [
       126.93461419,
       37.52158713
      ]
     ]
    ]
   },
   "properties": {
    "label": "대교10",
    "group": "대교",
    "height_m": 130.8
   }
  },
  {
   "type": "Feature",
   "geometry": {
    "type": "Polygon",
    "coordinates": [
     [
      [
       126.93432802,
       37.52161922
      ],
      [
       126.93442717,
       37.52152111
      ],
      [
       126.93432453,
       37.52145529
      ],
      [
       126.93422537,
       37.5215534
      ],
      [
       126.93432802,
       37.52161922
      ]
     ]
    ]
   },
   "properties": {
    "label": "대교11",
    "group": "대교",
    "height_m": 104.3
   }
  },
  {
   "type": "Feature",
   "geometry": {
    "type": "Polygon",
    "coordinates": [
     [
      [
       126.9334906,
       37.52318415
      ],
      [
       126.93504407,
       37.52164718
      ],
      [
       126.93484904,
       37.52152213
      ],
      [
       126.93329558,
       37.52305911
      ],
      [
       126.9334906,
       37.52318415
      ]
     ]
    ]
   },
   "properties": {
    "label": "대교12",
    "group": "대교",
    "height_m": 4.5
   }
  },
  {
   "type": "Feature",
   "geometry": {
    "type": "Polygon",
    "coordinates": [
     [
      [
       126.93328932,
       37.52308203
      ],
      [
       126.93375206,
       37.52262422
      ],
      [
       126.9335673,
       37.52250576
      ],
      [
       126.93310455,
       37.52296357
      ],
      [
       126.93328932,
       37.52308203
      ]
     ]
    ]
   },
   "properties": {
    "label": "대교13",
    "group": "대교",
    "height_m": 4.5
   }
  },
  {
   "type": "Feature",
   "geometry": {
    "type": "Polygon",
    "coordinates": [
     [
      [
       126.93366297,
       37.52224373
      ],
      [
       126.93419181,
       37.5217205
      ],
      [
       126.933966,
       37.52157571
      ],
      [
       126.93343715,
       37.52209893
      ],
      [
       126.93366297,
       37.52224373
      ]
     ]
    ]
   },
   "properties": {
    "label": "대교14",
    "group": "대교",
    "height_m": 4.5
   }
  },
  {
   "type": "Feature",
   "geometry": {
    "type": "Polygon",
    "coordinates": [
     [
      [
       126.93414274,
       37.52163515
      ],
      [
       126.93449805,
       37.52128361
      ],
      [
       126.93430304,
       37.52115856
      ],
      [
       126.93394773,
       37.52151011
      ],
      [
       126.93414274,
       37.52163515
      ]
     ]
    ]
   },
   "properties": {
    "label": "대교15",
    "group": "대교",
    "height_m": 9.0
   }
  },
  {
   "type": "Feature",
   "geometry": {
    "type": "Polygon",
    "coordinates": [
     [
      [
       126.93272888,
       37.52272268
      ],
      [
       126.93430714,
       37.5211612
      ],
      [
       126.93412854,
       37.52104668
      ],
      [
       126.93255028,
       37.52260816
      ],
      [
       126.93272888,
       37.52272268
      ]
     ]
    ]
   },
   "properties": {
    "label": "대교16",
    "group": "대교",
    "height_m": 4.5
   }
  },
  {
   "type": "Feature",
   "geometry": {
    "type": "Polygon",
    "coordinates": [
     [
      [
       126.93467349,
       37.52059521
      ],
      [
       126.93470561,
       37.52061544
      ],
      [
       126.93471831,
       37.52060265
      ],
      [
       126.9347424,
       37.52061782
      ],
      [
       126.93473772,
       37.52063567
      ],
      [
       126.93475379,
       37.52064578
      ],
      [
       126.93479824,
       37.52060102
      ],
      [
       126.93476612,
       37.52058079
      ],
      [
       126.93471794,
       37.52055045
      ],
      [
       126.93474969,
       37.52051847
      ],
      [
       126.93474166,
       37.52051341
      ],
      [
       126.93467984,
       37.52058882
      ],
      [
       126.93467349,
       37.52059521
      ]
     ]
    ]
   },
   "properties": {
    "label": "시범0",
    "group": "시범",
    "height_m": 58.8
   }
  },
  {
   "type": "Feature",
   "geometry": {
    "type": "Polygon",
    "coordinates": [
     [
      [
       126.93476181,
       37.52065084
      ],
      [
       126.93488224,
       37.5207267
      ],
      [
       126.93493938,
       37.52066915
      ],
      [
       126.93486545,
       37.52061218
      ],
      [
       126.93489085,
       37.5205866
      ],
      [
       126.93481859,
       37.52054109
      ],
      [
       126.93483764,
       37.5205219
      ],
      [
       126.93478779,
       37.5204801
      ],
      [
       126.93481019,
       37.52048382
      ],
      [
       126.93482925,
       37.52046464
      ],
      [
       126.93484829,
       37.52044545
      ],
      [
       126.93482253,
       37.52041883
      ],
      [
       126.93475269,
       37.52048917
      ],
      [
       126.93475604,
       37.52051208
      ],
      [
       126.93477509,
       37.5204929
      ],
      [
       126.93478312,
       37.52049795
      ],
      [
       126.93473232,
       37.52054911
      ],
      [
       126.93486078,
       37.52063003
      ],
      [
       126.93485443,
       37.52063642
      ],
      [
       126.93480626,
       37.52060608
      ],
      [
       126.93476816,
       37.52064445
      ],
      [
       126.93476181,
       37.52065084
      ]
     ]
    ]
   },
   "properties": {
    "label": "시범1",
    "group": "시범",
    "height_m": 58.8
   }
  },
  {
   "type": "Feature",
   "geometry": {
    "type": "Polygon",
    "coordinates": [
     [
      [
       126.93478874,
       37.52038714
      ],
      [
       126.93486902,
       37.52043772
      ],
      [
       126.9349342,
       37.52038522
      ],
      [
       126.93490208,
       37.520365
      ],
      [
       126.93494018,
       37.52032662
      ],
      [
       126.93492413,
       37.52031652
      ],
      [
       126.93488135,
       37.52037273
      ],
      [
       126.93484325,
       37.52041109
      ],
      [
       126.93480947,
       37.52037941
      ],
      [
       126.93489201,
       37.52029628
      ],
      [
       126.93488398,
       37.52029123
      ],
      [
       126.93479509,
       37.52038075
      ],
      [
       126.93478874,
       37.52038714
      ]
     ]
    ]
   },
   "properties": {
    "label": "시범2",
    "group": "시범",
    "height_m": 78.0
   }
  },
  {
   "type": "Feature",
   "geometry": {
    "type": "Polygon",
    "coordinates": [
     [
      [
       126.93491646,
       37.52036366
      ],
      [
       126.93498069,
       37.52040412
      ],
      [
       126.93505053,
       37.52033378
      ],
      [
       126.93500871,
       37.52029704
      ],
      [
       126.93502309,
       37.5202957
      ],
      [
       126.93507222,
       37.52023309
      ],
      [
       126.93499192,
       37.52018251
      ],
      [
       126.93492208,
       37.52025286
      ],
      [
       126.93489033,
       37.52028483
      ],
      [
       126.93489836,
       37.52028989
      ],
      [
       126.93499361,
       37.52019396
      ],
      [
       126.93501937,
       37.52022059
      ],
      [
       126.93493048,
       37.52031012
      ],
      [
       126.93494653,
       37.52032023
      ],
      [
       126.93498463,
       37.52028186
      ],
      [
       126.93499266,
       37.52028692
      ],
      [
       126.93492281,
       37.52035727
      ],
      [
       126.93491646,
       37.52036366
      ]
     ]
    ]
   },
   "properties": {
    "label": "시범3",
    "group": "시범",
    "height_m": 78.0
   }
  },
  {
   "type": "Feature",
   "geometry": {
    "type": "Polygon",
    "coordinates": [
     [
      [
       126.9350107,
       37.52080763
      ],
      [
       126.93514551,
       37.52088215
      ],
      [
       126.93518996,
       37.52083739
      ],
      [
       126.93525419,
       37.52087785
      ],
      [
       126.93524784,
       37.52088424
      ],
      [
       126.93519164,
       37.52084884
      ],
      [
       126.93514719,
       37.5208936
      ],
      [
       126.93515521,
       37.52089866
      ],
      [
       126.93518062,
       37.52087308
      ],
      [
       126.93522878,
       37.52090343
      ],
      [
       126.93524149,
       37.52089064
      ],
      [
       126.93531207,
       37.5209247
      ],
      [
       126.93531039,
       37.52091325
      ],
      [
       126.93532943,
       37.52089407
      ],
      [
       126.93526688,
       37.52086505
      ],
      [
       126.93527323,
       37.52085866
      ],
      [
       126.93531338,
       37.52088395
      ],
      [
       126.93533242,
       37.52086477
      ],
      [
       126.9351655,
       37.52077001
      ],
      [
       126.93514645,
       37.5207892
      ],
      [
       126.93515784,
       37.52081716
      ],
      [
       126.93511807,
       37.52084407
      ],
      [
       126.93503778,
       37.5207935
      ],
      [
       126.9350361,
       37.52078204
      ],
      [
       126.93501705,
       37.52080123
      ],
      [
       126.9350107,
       37.52080763
      ]
     ]
    ]
   },
   "properties": {
    "label": "시범4",
    "group": "시범",
    "height_m": 52.4
   }
  },
  {
   "type": "Feature",
   "geometry": {
    "type": "Polygon",
    "coordinates": [
     [
      [
       126.93528257,
       37.52082297
      ],
      [
       126.93533878,
       37.52085837
      ],
      [
       126.93536753,
       37.52085569
      ],
      [
       126.93540563,
       37.52081732
      ],
      [
       126.93540731,
       37.52082878
      ],
      [
       126.93546183,
       37.52085273
      ],
      [
       126.93553168,
       37.52078239
      ],
      [
       126.9354835,
       37.52075204
      ],
      [
       126.93554233,
       37.52070593
      ],
      [
       126.93554532,
       37.52067664
      ],
      [
       126.93553094,
       37.52067798
      ],
      [
       126.93552291,
       37.52067292
      ],
      [
       126.93546577,
       37.52073047
      ],
      [
       126.93544972,
       37.52072035
      ],
      [
       126.93533542,
       37.52083547
      ],
      [
       126.93529695,
       37.52082163
      ],
      [
       126.93537315,
       37.52074489
      ],
      [
       126.93536512,
       37.52073983
      ],
      [
       126.93528892,
       37.52081657
      ],
      [
       126.93528257,
       37.52082297
      ]
     ]
    ]
   },
   "properties": {
    "label": "시범5",
    "group": "시범",
    "height_m": 65.2
   }
  },
  {
   "type": "Feature",
   "geometry": {
    "type": "Polygon",
    "coordinates": [
     [
      [
       126.93563563,
       37.52124286
      ],
      [
       126.93571592,
       37.52129344
      ],
      [
       126.93574299,
       37.52127931
      ],
      [
       126.93576709,
       37.52129448
      ],
      [
       126.93575438,
       37.52130727
      ],
      [
       126.93577212,
       37.52132883
      ],
      [
       126.93582291,
       37.52127767
      ],
      [
       126.93583898,
       37.52128779
      ],
      [
       126.93578015,
       37.52133389
      ],
      [
       126.93590058,
       37.52140976
      ],
      [
       126.93596408,
       37.5213458
      ],
      [
       126.93589817,
       37.5212939
      ],
      [
       126.93587912,
       37.52131308
      ],
      [
       126.93587109,
       37.52130802
      ],
      [
       126.93589014,
       37.52128884
      ],
      [
       126.93590919,
       37.52126966
      ],
      [
       126.93584496,
       37.52122919
      ],
      [
       126.93586233,
       37.52119856
      ],
      [
       126.93582218,
       37.52117327
      ],
      [
       126.93586663,
       37.5211285
      ],
      [
       126.93584087,
       37.52110188
      ],
      [
       126.93583619,
       37.52111973
      ],
      [
       126.93579642,
       37.52114665
      ],
      [
       126.93581415,
       37.52116822
      ],
      [
       126.93574431,
       37.52123856
      ],
      [
       126.93573628,
       37.5212335
      ],
      [
       126.93576802,
       37.52120153
      ],
      [
       126.93576,
       37.52119647
      ],
      [
       126.93569818,
       37.52127187
      ],
      [
       126.93564198,
       37.52123646
      ],
      [
       126.93563563,
       37.52124286
      ]
     ]
    ]
   },
   "properties": {
    "label": "시범6",
    "group": "시범",
    "height_m": 46.0
   }
  },
  {
   "type": "Feature",
   "geometry": {
    "type": "Polygon",
    "coordinates": [
     [
      [
       126.93580707,
       37.5210702
      ],
      [
       126.93588736,
       37.52112077
      ],
      [
       126.93595085,
       37.52105683
      ],
      [
       126.93592677,
       37.52104165
      ],
      [
       126.93596487,
       37.52100328
      ],
      [
       126.93595684,
       37.52099823
      ],
      [
       126.93600932,
       37.52095852
      ],
      [
       126.9360334,
       37.52097369
      ],
      [
       126.93609055,
       37.52091614
      ],
      [
       126.93607449,
       37.52090602
      ],
      [
       126.93601026,
       37.52086557
      ],
      [
       126.9360039,
       37.52087196
      ],
      [
       126.93604405,
       37.52089725
      ],
      [
       126.93591707,
       37.52102514
      ],
      [
       126.93592509,
       37.5210302
      ],
      [
       126.93586794,
       37.52108775
      ],
      [
       126.93581977,
       37.52105741
      ],
      [
       126.93581342,
       37.52106381
      ],
      [
       126.93580707,
       37.5210702
      ]
     ]
    ]
   },
   "properties": {
    "label": "시범7",
    "group": "시범",
    "height_m": 55.6
   }
  },
  {
   "type": "Feature",
   "geometry": {
    "type": "Polygon",
    "coordinates": [
     [
      [
       126.93594115,
       37.52104032
      ],
      [
       126.93600538,
       37.52108078
      ],
      [
       126.93607522,
       37.52101043
      ],
      [
       126.93601099,
       37.52096997
      ],
      [
       126.9359475,
       37.52103392
      ],
      [
       126.93594115,
       37.52104032
      ]
     ]
    ]
   },
   "properties": {
    "label": "시범8",
    "group": "시범",
    "height_m": 55.6
   }
  },
  {
   "type": "Feature",
   "geometry": {
    "type": "Polygon",
    "coordinates": [
     [
      [
       126.93614145,
       37.52156148
      ],
      [
       126.93617356,
       37.52158171
      ],
      [
       126.93619261,
       37.52156252
      ],
      [
       126.9362167,
       37.5215777
      ],
      [
       126.93620399,
       37.52159048
      ],
      [
       126.93622173,
       37.52161205
      ],
      [
       126.93625348,
       37.52158008
      ],
      [
       126.9362294,
       37.52156491
      ],
      [
       126.93623406,
       37.52154706
      ],
      [
       126.93625647,
       37.52155078
      ],
      [
       126.93624378,
       37.52156357
      ],
      [
       126.93625983,
       37.52157368
      ],
      [
       126.93633603,
       37.52149694
      ],
      [
       126.93624939,
       37.52145276
      ],
      [
       126.93626208,
       37.52143998
      ],
      [
       126.93627815,
       37.52145009
      ],
      [
       126.93631625,
       37.52141172
      ],
      [
       126.93629048,
       37.52138509
      ],
      [
       126.93622063,
       37.52145544
      ],
      [
       126.93622399,
       37.52147835
      ],
      [
       126.93624304,
       37.52145916
      ],
      [
       126.93625107,
       37.52146422
      ],
      [
       126.93620662,
       37.52150898
      ],
      [
       126.93621465,
       37.52151404
      ],
      [
       126.93619393,
       37.52152177
      ],
      [
       126.93621765,
       37.52148474
      ],
      [
       126.93620962,
       37.52147968
      ],
      [
       126.9361478,
       37.52155508
      ],
      [
       126.93614145,
       37.52156148
      ]
     ]
    ]
   },
   "properties": {
    "label": "시범9",
    "group": "시범",
    "height_m": 36.4
   }
  },
  {
   "type": "Feature",
   "geometry": {
    "type": "Polygon",
    "coordinates": [
     [
      [
       126.93625668,
       37.52135341
      ],
      [
       126.93633697,
       37.52140399
      ],
      [
       126.93635602,
       37.5213848
      ],
      [
       126.93636405,
       37.52138986
      ],
      [
       126.9364085,
       37.5213451
      ],
      [
       126.93637638,
       37.52132487
      ],
      [
       126.93645893,
       37.52124174
      ],
      [
       126.93649105,
       37.52126196
      ],
      [
       126.93654016,
       37.52119935
      ],
      [
       126.93645988,
       37.52114878
      ],
      [
       126.93636462,
       37.5212447
      ],
      [
       126.93638536,
       37.52123697
      ],
      [
       126.93646155,
       37.52116023
      ],
      [
       126.93649367,
       37.52118046
      ],
      [
       126.93631756,
       37.52137097
      ],
      [
       126.93628376,
       37.52133929
      ],
      [
       126.93635996,
       37.52126255
      ],
      [
       126.93635193,
       37.52125749
      ],
      [
       126.93626303,
       37.52134702
      ],
      [
       126.93625668,
       37.52135341
      ]
     ]
    ]
   },
   "properties": {
    "label": "시범10",
    "group": "시범",
    "height_m": 46.0
   }
  },
  {
   "type": "Feature",
   "geometry": {
    "type": "Polygon",
    "coordinates": [
     [
      [
       126.93639076,
       37.52132353
      ],
      [
       126.93645499,
       37.52136399
      ],
      [
       126.93652484,
       37.52129365
      ],
      [
       126.9364606,
       37.52125319
      ],
      [
       126.93639711,
       37.52131713
      ],
      [
       126.93639076,
       37.52132353
      ]
     ]
    ]
   },
   "properties": {
    "label": "시범11",
    "group": "시범",
    "height_m": 46.0
   }
  },
  {
   "type": "Feature",
   "geometry": {
    "type": "Polygon",
    "coordinates": [
     [
      [
       126.93635822,
       37.52169803
      ],
      [
       126.93646895,
       37.52175738
      ],
      [
       126.93648968,
       37.52174965
      ],
      [
       126.93652179,
       37.52176987
      ],
      [
       126.93650275,
       37.52178906
      ],
      [
       126.93663121,
       37.52186998
      ],
      [
       126.93663756,
       37.52186359
      ],
      [
       126.93665529,
       37.52188516
      ],
      [
       126.93669339,
       37.52184679
      ],
      [
       126.93666931,
       37.52183161
      ],
      [
       126.9366947,
       37.52180603
      ],
      [
       126.93667062,
       37.52179086
      ],
      [
       126.93669602,
       37.52176528
      ],
      [
       126.93670404,
       37.52177034
      ],
      [
       126.936685,
       37.52178952
      ],
      [
       126.9367201,
       37.52178045
      ],
      [
       126.93682804,
       37.52167174
      ],
      [
       126.93677988,
       37.52164139
      ],
      [
       126.93673973,
       37.52161611
      ],
      [
       126.93665083,
       37.52170564
      ],
      [
       126.93665252,
       37.52171709
      ],
      [
       126.93658829,
       37.52167663
      ],
      [
       126.93656756,
       37.52168437
      ],
      [
       126.93651938,
       37.52165402
      ],
      [
       126.93647961,
       37.52168093
      ],
      [
       126.93653581,
       37.52171633
      ],
      [
       126.93652311,
       37.52172912
      ],
      [
       126.93648931,
       37.52169744
      ],
      [
       126.93645756,
       37.52172942
      ],
      [
       126.93636122,
       37.52166873
      ],
      [
       126.93640566,
       37.52162397
      ],
      [
       126.93639763,
       37.52161891
      ],
      [
       126.93635318,
       37.52166367
      ],
      [
       126.93634852,
       37.52168152
      ],
      [
       126.93636457,
       37.52169164
      ],
      [
       126.93635822,
       37.52169803
      ]
     ]
    ]
   },
   "properties": {
    "label": "시범12",
    "group": "시범",
    "height_m": 27.0
   }
  },
  {
   "type": "Feature",
   "geometry": {
    "type": "Polygon",
    "coordinates": [
     [
      [
       126.93677147,
       37.52158413
      ],
      [
       126.93683571,
       37.52162459
      ],
      [
       126.93686745,
       37.52159262
      ],
      [
       126.93685775,
       37.5215761
      ],
      [
       126.93688986,
       37.52159634
      ],
      [
       126.93692796,
       37.52155797
      ],
      [
       126.93695205,
       37.52157314
      ],
      [
       126.93691395,
       37.52161151
      ],
      [
       126.9369541,
       37.52163679
      ],
      [
       126.93697314,
       37.52161761
      ],
      [
       126.9369892,
       37.52162773
      ],
      [
       126.93700825,
       37.52160854
      ],
      [
       126.93701628,
       37.5216136
      ],
      [
       126.93696548,
       37.52166476
      ],
      [
       126.9370538,
       37.52172039
      ],
      [
       126.93706016,
       37.52171399
      ],
      [
       126.93709394,
       37.52174567
      ],
      [
       126.93722896,
       37.52162284
      ],
      [
       126.93725436,
       37.52159725
      ],
      [
       126.93706167,
       37.52147588
      ],
      [
       126.93705532,
       37.52148227
      ],
      [
       126.93694926,
       37.52140508
      ],
      [
       126.93686673,
       37.52148821
      ],
      [
       126.93692293,
       37.52152361
      ],
      [
       126.93693562,
       37.52151082
      ],
      [
       126.93693898,
       37.52153373
      ],
      [
       126.93692628,
       37.52154652
      ],
      [
       126.93686037,
       37.5214946
      ],
      [
       126.93677783,
       37.52157774
      ],
      [
       126.93677147,
       37.52158413
      ]
     ]
    ]
   },
   "properties": {
    "label": "시범13",
    "group": "시범",
    "height_m": 43.0
   }
  },
  {
   "type": "Feature",
   "geometry": {
    "type": "Polygon",
    "coordinates": [
     [
      [
       126.93554291,
       37.52056077
      ],
      [
       126.93560714,
       37.52060124
      ],
      [
       126.93563721,
       37.52055782
      ],
      [
       126.93572553,
       37.52061345
      ],
      [
       126.93574457,
       37.52059426
      ],
      [
       126.93576063,
       37.52060438
      ],
      [
       126.93572721,
       37.5206249
      ],
      [
       126.93576735,
       37.52065019
      ],
      [
       126.93578807,
       37.52064245
      ],
      [
       126.93576903,
       37.52066164
      ],
      [
       126.93585734,
       37.52071727
      ],
      [
       126.93585903,
       37.52072872
      ],
      [
       126.93590347,
       37.52068396
      ],
      [
       126.93589544,
       37.5206789
      ],
      [
       126.93597332,
       37.52061361
      ],
      [
       126.9359412,
       37.52059338
      ],
      [
       126.93594755,
       37.52058699
      ],
      [
       126.93597966,
       37.52060722
      ],
      [
       126.93601776,
       37.52056884
      ],
      [
       126.93600973,
       37.52056379
      ],
      [
       126.93584113,
       37.52045758
      ],
      [
       126.93582041,
       37.52046532
      ],
      [
       126.93590872,
       37.52052095
      ],
      [
       126.93588799,
       37.52052868
      ],
      [
       126.93587193,
       37.52051857
      ],
      [
       126.93585923,
       37.52053136
      ],
      [
       126.93574684,
       37.52046055
      ],
      [
       126.93577056,
       37.52042352
      ],
      [
       126.93571436,
       37.52038812
      ],
      [
       126.93554926,
       37.52055438
      ],
      [
       126.93554291,
       37.52056077
      ]
     ]
    ]
   },
   "properties": {
    "label": "시범14",
    "group": "시범",
    "height_m": 100.6
   }
  },
  {
   "type": "Feature",
   "geometry": {
    "type": "Polygon",
    "coordinates": [
     [
      [
       126.93652673,
       37.52110774
      ],
      [
       126.93659096,
       37.52114819
      ],
      [
       126.93662271,
       37.52111622
      ],
      [
       126.93660665,
       37.52110611
      ],
      [
       126.93665109,
       37.52106134
      ],
      [
       126.93665912,
       37.5210664
      ],
      [
       126.93662102,
       37.52110477
      ],
      [
       126.93664511,
       37.52111994
      ],
      [
       126.93668956,
       37.52107517
      ],
      [
       126.93671365,
       37.52109035
      ],
      [
       126.9366692,
       37.52113512
      ],
      [
       126.93672372,
       37.52115906
      ],
      [
       126.93671271,
       37.52118331
      ],
      [
       126.93684751,
       37.52125783
      ],
      [
       126.93686656,
       37.52123864
      ],
      [
       126.93685853,
       37.52123358
      ],
      [
       126.9369237,
       37.52118109
      ],
      [
       126.93688524,
       37.52116725
      ],
      [
       126.93690597,
       37.52115952
      ],
      [
       126.93693808,
       37.52117975
      ],
      [
       126.93700159,
       37.5211158
      ],
      [
       126.93698552,
       37.52110569
      ],
      [
       126.93696144,
       37.52109051
      ],
      [
       126.93696779,
       37.52108412
      ],
      [
       126.93681692,
       37.52099948
      ],
      [
       126.93681524,
       37.52098802
      ],
      [
       126.93675977,
       37.52105704
      ],
      [
       126.93675174,
       37.52105198
      ],
      [
       126.93680254,
       37.52100082
      ],
      [
       126.93670452,
       37.52092868
      ],
      [
       126.93662197,
       37.52101181
      ],
      [
       126.93667015,
       37.52104216
      ],
      [
       126.93671627,
       37.52100885
      ],
      [
       126.9367243,
       37.5210139
      ],
      [
       126.93667182,
       37.5210536
      ],
      [
       126.93661562,
       37.52101821
      ],
      [
       126.93653307,
       37.52110134
      ],
      [
       126.93652673,
       37.52110774
      ]
     ]
    ]
   },
   "properties": {
    "label": "시범15",
    "group": "시범",
    "height_m": 62.2
   }
  },
  {
   "type": "Feature",
   "geometry": {
    "type": "Polygon",
    "coordinates": [
     [
      [
       126.9362676,
       37.52063267
      ],
      [
       126.93633183,
       37.52067313
      ],
      [
       126.9363619,
       37.5206297
      ],
      [
       126.93638598,
       37.52064488
      ],
      [
       126.93643043,
       37.52060012
      ],
      [
       126.93645452,
       37.52061528
      ],
      [
       126.93641008,
       37.52066005
      ],
      [
       126.93645021,
       37.52068533
      ],
      [
       126.93646927,
       37.52066615
      ],
      [
       126.93647729,
       37.52067121
      ],
      [
       126.9364519,
       37.52069679
      ],
      [
       126.9364616,
       37.5207133
      ],
      [
       126.93659641,
       37.52078782
      ],
      [
       126.93667261,
       37.52071109
      ],
      [
       126.93664049,
       37.52069085
      ],
      [
       126.93664684,
       37.52068446
      ],
      [
       126.93667896,
       37.52070468
      ],
      [
       126.93671706,
       37.52066632
      ],
      [
       126.9367488,
       37.52063434
      ],
      [
       126.93659625,
       37.52053825
      ],
      [
       126.93655144,
       37.52053081
      ],
      [
       126.93649524,
       37.52049541
      ],
      [
       126.93650794,
       37.52048262
      ],
      [
       126.93645174,
       37.52044722
      ],
      [
       126.93636284,
       37.52053675
      ],
      [
       126.93641904,
       37.52057215
      ],
      [
       126.93643977,
       37.52056442
      ],
      [
       126.93642073,
       37.5205836
      ],
      [
       126.9363565,
       37.52054314
      ],
      [
       126.93627395,
       37.52062628
      ],
      [
       126.9362676,
       37.52063267
      ]
     ]
    ]
   },
   "properties": {
    "label": "시범16",
    "group": "시범",
    "height_m": 78.2
   }
  },
  {
   "type": "Feature",
   "geometry": {
    "type": "Polygon",
    "coordinates": [
     [
      [
       126.93547443,
       37.52014344
      ],
      [
       126.93567684,
       37.52028133
      ],
      [
       126.93582923,
       37.52012785
      ],
      [
       126.9356847,
       37.52003682
      ],
      [
       126.93567201,
       37.52004961
      ],
      [
       126.93561412,
       37.52000275
      ],
      [
       126.93554989,
       37.5199623
      ],
      [
       126.93553552,
       37.51996363
      ],
      [
       126.9355118,
       37.52000066
      ],
      [
       126.93549574,
       37.51999055
      ],
      [
       126.93552114,
       37.51996497
      ],
      [
       126.9354586,
       37.51993596
      ],
      [
       126.93537605,
       37.52001909
      ],
      [
       126.93544195,
       37.52007101
      ],
      [
       126.9354737,
       37.52003903
      ],
      [
       126.93548174,
       37.52004409
      ],
      [
       126.93543729,
       37.52008885
      ],
      [
       126.93546137,
       37.52010402
      ],
      [
       126.93545502,
       37.52011041
      ],
      [
       126.93549349,
       37.52012426
      ],
      [
       126.93547443,
       37.52014344
      ]
     ]
    ]
   },
   "properties": {
    "label": "시범17",
    "group": "시범",
    "height_m": 123.0
   }
  },
  {
   "type": "Feature",
   "geometry": {
    "type": "Polygon",
    "coordinates": [
     [
      [
       126.93534168,
       37.52013257
      ],
      [
       126.93543802,
       37.52019326
      ],
      [
       126.93545072,
       37.52018047
      ],
      [
       126.93547481,
       37.52019564
      ],
      [
       126.9355002,
       37.52017007
      ],
      [
       126.93546808,
       37.52014983
      ],
      [
       126.93547443,
       37.52014344
      ],
      [
       126.93546641,
       37.52013838
      ],
      [
       126.93547276,
       37.52013199
      ],
      [
       126.93542291,
       37.52009019
      ],
      [
       126.9354356,
       37.5200774
      ],
      [
       126.93541152,
       37.52006222
      ],
      [
       126.93534803,
       37.52012618
      ],
      [
       126.93534168,
       37.52013257
      ]
     ]
    ]
   },
   "properties": {
    "label": "시범18",
    "group": "시범",
    "height_m": 123.0
   }
  },
  {
   "type": "Feature",
   "geometry": {
    "type": "Polygon",
    "coordinates": [
     [
      [
       126.93610167,
       37.51999803
      ],
      [
       126.93620605,
       37.52006378
      ],
      [
       126.93621875,
       37.52005098
      ],
      [
       126.93624283,
       37.52006616
      ],
      [
       126.9362602,
       37.52003552
      ],
      [
       126.93632275,
       37.52006453
      ],
      [
       126.93633546,
       37.52005174
      ],
      [
       126.93634348,
       37.5200568
      ],
      [
       126.93632443,
       37.52007598
      ],
      [
       126.93644486,
       37.52015185
      ],
      [
       126.93649566,
       37.52010068
      ],
      [
       126.93647961,
       37.52009057
      ],
      [
       126.93650836,
       37.52008789
      ],
      [
       126.93657186,
       37.52002395
      ],
      [
       126.93653974,
       37.52000372
      ],
      [
       126.93657952,
       37.5199768
      ],
      [
       126.9364912,
       37.51992117
      ],
      [
       126.93648485,
       37.51992756
      ],
      [
       126.93647514,
       37.51991105
      ],
      [
       126.93645274,
       37.51990733
      ],
      [
       126.93644004,
       37.51992013
      ],
      [
       126.93639355,
       37.51990123
      ],
      [
       126.93630523,
       37.5198456
      ],
      [
       126.93630355,
       37.51983415
      ],
      [
       126.9362845,
       37.51985333
      ],
      [
       126.93631662,
       37.51987356
      ],
      [
       126.93631026,
       37.51987995
      ],
      [
       126.93628618,
       37.51986478
      ],
      [
       126.93626713,
       37.51988396
      ],
      [
       126.93626378,
       37.51986106
      ],
      [
       126.93628282,
       37.51984188
      ],
      [
       126.93622662,
       37.51980647
      ],
      [
       126.93613772,
       37.519896
      ],
      [
       126.93619561,
       37.51994286
      ],
      [
       126.93623202,
       37.51989304
      ],
      [
       126.93624809,
       37.51990316
      ],
      [
       126.93620364,
       37.51994792
      ],
      [
       126.93625349,
       37.51998972
      ],
      [
       126.93624714,
       37.51999611
      ],
      [
       126.93616518,
       37.51993409
      ],
      [
       126.93610802,
       37.51999164
      ],
      [
       126.93610167,
       37.51999803
      ]
     ]
    ]
   },
   "properties": {
    "label": "시범19",
    "group": "시범",
    "height_m": 110.2
   }
  },
  {
   "type": "Feature",
   "geometry": {
    "type": "Polygon",
    "coordinates": [
     [
      [
       126.93601641,
       37.51946617
      ],
      [
       126.93613516,
       37.51953057
      ],
      [
       126.93617493,
       37.51950366
      ],
      [
       126.93619901,
       37.51951883
      ],
      [
       126.93623711,
       37.51948046
      ],
      [
       126.93624047,
       37.51950337
      ],
      [
       126.93620705,
       37.51952389
      ],
      [
       126.93622311,
       37.519534
      ],
      [
       126.9362485,
       37.51950843
      ],
      [
       126.93625653,
       37.51951348
      ],
      [
       126.93622478,
       37.51954545
      ],
      [
       126.93623916,
       37.51954412
      ],
      [
       126.93624084,
       37.51955557
      ],
      [
       126.93632113,
       37.51960614
      ],
      [
       126.93632748,
       37.51959975
      ],
      [
       126.93634521,
       37.51962132
      ],
      [
       126.93635792,
       37.51960853
      ],
      [
       126.93637565,
       37.51963009
      ],
      [
       126.9364074,
       37.51959812
      ],
      [
       126.93640572,
       37.51958667
      ],
      [
       126.93638331,
       37.51958295
      ],
      [
       126.93640236,
       37.51956377
      ],
      [
       126.93639433,
       37.51955871
      ],
      [
       126.93647856,
       37.51948702
      ],
      [
       126.93644644,
       37.5194668
      ],
      [
       126.93645279,
       37.5194604
      ],
      [
       126.9364849,
       37.51948063
      ],
      [
       126.9364976,
       37.51946784
      ],
      [
       126.93649593,
       37.51945639
      ],
      [
       126.93646549,
       37.51944761
      ],
      [
       126.93647183,
       37.51944121
      ],
      [
       126.93635943,
       37.51937042
      ],
      [
       126.93630229,
       37.51942797
      ],
      [
       126.93629426,
       37.51942291
      ],
      [
       126.93631966,
       37.51939733
      ],
      [
       126.9362474,
       37.51935181
      ],
      [
       126.93625375,
       37.51934542
      ],
      [
       126.93632601,
       37.51939093
      ],
      [
       126.93633236,
       37.51938454
      ],
      [
       126.9362039,
       37.51930362
      ],
      [
       126.93619755,
       37.51931002
      ],
      [
       126.9362377,
       37.5193353
      ],
      [
       126.93623135,
       37.51934169
      ],
      [
       126.9361912,
       37.51931641
      ],
      [
       126.9361785,
       37.5193292
      ],
      [
       126.9361815,
       37.5192999
      ],
      [
       126.93613332,
       37.51926955
      ],
      [
       126.93604443,
       37.51935908
      ],
      [
       126.93608625,
       37.51939582
      ],
      [
       126.93602276,
       37.51945978
      ],
      [
       126.93601641,
       37.51946617
      ]
     ]
    ]
   },
   "properties": {
    "label": "시범20",
    "group": "시범",
    "height_m": 132.6
   }
  },
  {
   "type": "Feature",
   "geometry": {
    "type": "Polygon",
    "coordinates": [
     [
      [
       126.93796903,
       37.52115349
      ],
      [
       126.93798808,
       37.52113431
      ],
      [
       126.93801216,
       37.52114948
      ],
      [
       126.93798976,
       37.52114576
      ],
      [
       126.93799312,
       37.52116867
      ],
      [
       126.93811355,
       37.52124452
      ],
      [
       126.93812793,
       37.52124319
      ],
      [
       126.93812626,
       37.52123174
      ],
      [
       126.93819778,
       37.52117284
      ],
      [
       126.93817369,
       37.52115767
      ],
      [
       126.93818003,
       37.52115128
      ],
      [
       126.93820413,
       37.52116645
      ],
      [
       126.93823587,
       37.52113447
      ],
      [
       126.93822785,
       37.52112942
      ],
      [
       126.93833746,
       37.52103215
      ],
      [
       126.93832943,
       37.52102709
      ],
      [
       126.93828498,
       37.52107186
      ],
      [
       126.93827696,
       37.52106681
      ],
      [
       126.93832776,
       37.52101564
      ],
      [
       126.9382555,
       37.52097013
      ],
      [
       126.93830629,
       37.52091897
      ],
      [
       126.93828052,
       37.52089235
      ],
      [
       126.93817615,
       37.5208266
      ],
      [
       126.93820154,
       37.52080102
      ],
      [
       126.93813731,
       37.52076056
      ],
      [
       126.93797222,
       37.52092683
      ],
      [
       126.93803011,
       37.52097368
      ],
      [
       126.93802376,
       37.52098008
      ],
      [
       126.93798361,
       37.52095479
      ],
      [
       126.93797726,
       37.52096119
      ],
      [
       126.93795953,
       37.52093962
      ],
      [
       126.93791508,
       37.52098438
      ],
      [
       126.9379472,
       37.52100462
      ],
      [
       126.93794085,
       37.52101101
      ],
      [
       126.93790873,
       37.52099078
      ],
      [
       126.93783889,
       37.52106112
      ],
      [
       126.93796903,
       37.52115349
      ]
     ]
    ]
   },
   "properties": {
    "label": "시범21",
    "group": "시범",
    "height_m": 196.5
   }
  },
  {
   "type": "Feature",
   "geometry": {
    "type": "Polygon",
    "coordinates": [
     [
      [
       126.93703044,
       37.52021926
      ],
      [
       126.93719905,
       37.52032547
      ],
      [
       126.93726889,
       37.52025512
      ],
      [
       126.93726553,
       37.52023221
      ],
      [
       126.9373434,
       37.52016693
      ],
      [
       126.93731129,
       37.5201467
      ],
      [
       126.93728589,
       37.52017228
      ],
      [
       126.93727785,
       37.52016722
      ],
      [
       126.93730326,
       37.52014164
      ],
      [
       126.93721494,
       37.52008601
      ],
      [
       126.93718319,
       37.52011799
      ],
      [
       126.93716714,
       37.52010787
      ],
      [
       126.93720691,
       37.52008095
      ],
      [
       126.93718618,
       37.52008869
      ],
      [
       126.93714604,
       37.5200634
      ],
      [
       126.93713969,
       37.5200698
      ],
      [
       126.9371143,
       37.52009537
      ],
      [
       126.93709357,
       37.52010311
      ],
      [
       126.93707751,
       37.52009299
      ],
      [
       126.93712195,
       37.52004823
      ],
      [
       126.93712027,
       37.52003677
      ],
      [
       126.93708984,
       37.520028
      ],
      [
       126.93710253,
       37.52001521
      ],
      [
       126.9371186,
       37.52002532
      ],
      [
       126.93714399,
       37.51999975
      ],
      [
       126.93707976,
       37.51995928
      ],
      [
       126.93690833,
       37.52013195
      ],
      [
       126.9370127,
       37.5201977
      ],
      [
       126.93705079,
       37.52015933
      ],
      [
       126.93705882,
       37.52016439
      ],
      [
       126.93702072,
       37.52020275
      ],
      [
       126.93703679,
       37.52021287
      ],
      [
       126.93703044,
       37.52021926
      ]
     ]
    ]
   },
   "properties": {
    "label": "시범22",
    "group": "시범",
    "height_m": 91.0
   }
  },
  {
   "type": "Feature",
   "geometry": {
    "type": "Polygon",
    "coordinates": [
     [
      [
       126.93759864,
       37.52031731
      ],
      [
       126.93765484,
       37.52035271
      ],
      [
       126.93766119,
       37.52034632
      ],
      [
       126.93789571,
       37.52050443
      ],
      [
       126.93795921,
       37.52044048
      ],
      [
       126.93791906,
       37.52041519
      ],
      [
       126.93792541,
       37.5204088
      ],
      [
       126.93795752,
       37.52042903
      ],
      [
       126.93796387,
       37.52042263
      ],
      [
       126.93793176,
       37.52040241
      ],
      [
       126.9379381,
       37.52039601
      ],
      [
       126.9379622,
       37.52041118
      ],
      [
       126.93803372,
       37.52035229
      ],
      [
       126.93800161,
       37.52033206
      ],
      [
       126.93798255,
       37.52035125
      ],
      [
       126.93797452,
       37.52034619
      ],
      [
       126.93799358,
       37.52032701
      ],
      [
       126.93799992,
       37.52032061
      ],
      [
       126.93790358,
       37.52025992
      ],
      [
       126.93788285,
       37.52026765
      ],
      [
       126.93783467,
       37.52023731
      ],
      [
       126.93779023,
       37.52028207
      ],
      [
       126.93777417,
       37.52027196
      ],
      [
       126.93781059,
       37.52022214
      ],
      [
       126.9377865,
       37.52020696
      ],
      [
       126.9378089,
       37.52021069
      ],
      [
       126.93784066,
       37.52017871
      ],
      [
       126.93777643,
       37.52013825
      ],
      [
       126.93776205,
       37.52013959
      ],
      [
       126.93762236,
       37.52028028
      ],
      [
       126.9376304,
       37.52028533
      ],
      [
       126.93759696,
       37.52030586
      ],
      [
       126.93760499,
       37.52031092
      ],
      [
       126.93759864,
       37.52031731
      ]
     ]
    ]
   },
   "properties": {
    "label": "시범23",
    "group": "시범",
    "height_m": 87.8
   }
  },
  {
   "type": "Feature",
   "geometry": {
    "type": "Polygon",
    "coordinates": [
     [
      [
       126.93788175,
       37.52011104
      ],
      [
       126.93793626,
       37.52013499
      ],
      [
       126.93800611,
       37.52006465
      ],
      [
       126.93799005,
       37.52005453
      ],
      [
       126.93799472,
       37.52003669
      ],
      [
       126.93804384,
       37.51997407
      ],
      [
       126.93797961,
       37.51993361
      ],
      [
       126.93794618,
       37.51995414
      ],
      [
       126.93788903,
       37.52001169
      ],
      [
       126.93792115,
       37.52003192
      ],
      [
       126.9379148,
       37.52003831
      ],
      [
       126.93789071,
       37.52002314
      ],
      [
       126.93786999,
       37.52003087
      ],
      [
       126.93786532,
       37.52004873
      ],
      [
       126.93792787,
       37.52007773
      ],
      [
       126.93790248,
       37.52010331
      ],
      [
       126.93790546,
       37.52007401
      ],
      [
       126.9378881,
       37.52010465
      ],
      [
       126.93788175,
       37.52011104
      ]
     ]
    ]
   },
   "properties": {
    "label": "시범24",
    "group": "시범",
    "height_m": 84.4
   }
  },
  {
   "type": "Feature",
   "geometry": {
    "type": "Polygon",
    "coordinates": [
     [
      [
       126.93854642,
       37.52096628
      ],
      [
       126.93862671,
       37.52101685
      ],
      [
       126.93864576,
       37.52099767
      ],
      [
       126.93864109,
       37.52101551
      ],
      [
       126.93866985,
       37.52101283
      ],
      [
       126.9386508,
       37.52103202
      ],
      [
       126.93879364,
       37.5211116
      ],
      [
       126.93880634,
       37.52109881
      ],
      [
       126.93881437,
       37.52110386
      ],
      [
       126.93879531,
       37.52112305
      ],
      [
       126.93888364,
       37.52117868
      ],
      [
       126.93893611,
       37.52113898
      ],
      [
       126.93889596,
       37.52111368
      ],
      [
       126.93890232,
       37.52110729
      ],
      [
       126.93893444,
       37.52112752
      ],
      [
       126.93895348,
       37.52110833
      ],
      [
       126.9389294,
       37.52109317
      ],
      [
       126.93890867,
       37.52110089
      ],
      [
       126.93893406,
       37.52107532
      ],
      [
       126.93893575,
       37.52108677
      ],
      [
       126.93897421,
       37.5211006
      ],
      [
       126.93903135,
       37.52104305
      ],
      [
       126.93899121,
       37.52101776
      ],
      [
       126.93899755,
       37.52101136
      ],
      [
       126.93902967,
       37.5210316
      ],
      [
       126.93904238,
       37.5210188
      ],
      [
       126.93901025,
       37.52099858
      ],
      [
       126.93906105,
       37.52094742
      ],
      [
       126.939045,
       37.5209373
      ],
      [
       126.93898076,
       37.52089685
      ],
      [
       126.93899346,
       37.52088405
      ],
      [
       126.9389774,
       37.52087394
      ],
      [
       126.93901718,
       37.52084702
      ],
      [
       126.93897703,
       37.52082174
      ],
      [
       126.93898338,
       37.52081534
      ],
      [
       126.9389128,
       37.52078128
      ],
      [
       126.93889375,
       37.52080047
      ],
      [
       126.93888573,
       37.52079541
      ],
      [
       126.93890477,
       37.52077622
      ],
      [
       126.93886463,
       37.52075093
      ],
      [
       126.93887097,
       37.52074454
      ],
      [
       126.93883083,
       37.52071925
      ],
      [
       126.93882448,
       37.52072565
      ],
      [
       126.93872646,
       37.52065351
      ],
      [
       126.93864391,
       37.52073664
      ],
      [
       126.93867603,
       37.52075687
      ],
      [
       126.93866968,
       37.52076326
      ],
      [
       126.9386456,
       37.5207481
      ],
      [
       126.93862487,
       37.52075583
      ],
      [
       126.93856772,
       37.52081338
      ],
      [
       126.93857911,
       37.52084134
      ],
      [
       126.93864166,
       37.52087035
      ],
      [
       126.93860992,
       37.52090233
      ],
      [
       126.93860189,
       37.52089727
      ],
      [
       126.93854474,
       37.52095482
      ],
      [
       126.93855277,
       37.52095988
      ],
      [
       126.93854642,
       37.52096628
      ]
     ]
    ]
   },
   "properties": {
    "label": "시범25",
    "group": "시범",
    "height_m": 196.5
   }
  },
  {
   "type": "Feature",
   "geometry": {
    "type": "Polygon",
    "coordinates": [
     [
      [
       126.93928344,
       37.52097315
      ],
      [
       126.93937177,
       37.52102878
      ],
      [
       126.93939081,
       37.5210096
      ],
      [
       126.9394149,
       37.52102478
      ],
      [
       126.9393925,
       37.52102105
      ],
      [
       126.93937979,
       37.52103384
      ],
      [
       126.93939417,
       37.52103251
      ],
      [
       126.93939585,
       37.52104396
      ],
      [
       126.93953235,
       37.52112993
      ],
      [
       126.93960853,
       37.52105319
      ],
      [
       126.93960518,
       37.52103028
      ],
      [
       126.93962759,
       37.521034
      ],
      [
       126.93965298,
       37.52100842
      ],
      [
       126.93962087,
       37.52098819
      ],
      [
       126.93965261,
       37.52095622
      ],
      [
       126.93966064,
       37.52096127
      ],
      [
       126.93963525,
       37.52098686
      ],
      [
       126.9396513,
       37.52099698
      ],
      [
       126.9397402,
       37.52090744
      ],
      [
       126.9397161,
       37.52089227
      ],
      [
       126.93970975,
       37.52089866
      ],
      [
       126.93966793,
       37.52086192
      ],
      [
       126.93952341,
       37.52077089
      ],
      [
       126.93951071,
       37.52078369
      ],
      [
       126.93951538,
       37.52076584
      ],
      [
       126.93941903,
       37.52070516
      ],
      [
       126.93935554,
       37.52076911
      ],
      [
       126.93937159,
       37.52077921
      ],
      [
       126.93934919,
       37.5207755
      ],
      [
       126.93932379,
       37.52080107
      ],
      [
       126.93933985,
       37.52081119
      ],
      [
       126.93931744,
       37.52080748
      ],
      [
       126.93929205,
       37.52083305
      ],
      [
       126.93937234,
       37.52088362
      ],
      [
       126.93941043,
       37.52084526
      ],
      [
       126.93941846,
       37.52085031
      ],
      [
       126.93934227,
       37.52092705
      ],
      [
       126.93931016,
       37.52090683
      ],
      [
       126.9393152,
       37.52094119
      ],
      [
       126.93928979,
       37.52096676
      ],
      [
       126.93928344,
       37.52097315
      ]
     ]
    ]
   },
   "properties": {
    "label": "시범26",
    "group": "시범",
    "height_m": 94.4
   }
  },
  {
   "type": "Feature",
   "geometry": {
    "type": "Polygon",
    "coordinates": [
     [
      [
       126.93675678,
       37.51949597
      ],
      [
       126.93678721,
       37.51950474
      ],
      [
       126.93681728,
       37.51946132
      ],
      [
       126.93685574,
       37.51947515
      ],
      [
       126.93692558,
       37.51940481
      ],
      [
       126.93690953,
       37.5193947
      ],
      [
       126.93692054,
       37.51937046
      ],
      [
       126.93690449,
       37.51936034
      ],
      [
       126.9368791,
       37.51938592
      ],
      [
       126.93687107,
       37.51938086
      ],
      [
       126.93690281,
       37.51934889
      ],
      [
       126.9369269,
       37.51936406
      ],
      [
       126.93695697,
       37.51932063
      ],
      [
       126.93696332,
       37.51931424
      ],
      [
       126.93689909,
       37.51927378
      ],
      [
       126.93681654,
       37.51935691
      ],
      [
       126.93684062,
       37.51937208
      ],
      [
       126.93683428,
       37.51937848
      ],
      [
       126.93681019,
       37.51936331
      ],
      [
       126.9367848,
       37.51938889
      ],
      [
       126.93683128,
       37.51940778
      ],
      [
       126.93675509,
       37.51948452
      ],
      [
       126.93676313,
       37.51948957
      ],
      [
       126.93675678,
       37.51949597
      ]
     ]
    ]
   },
   "properties": {
    "label": "시범27",
    "group": "시범",
    "height_m": 84.4
   }
  },
  {
   "type": "Feature",
   "geometry": {
    "type": "Polygon",
    "coordinates": [
     [
      [
       126.9361804,
       37.51914328
      ],
      [
       126.93618842,
       37.51914834
      ],
      [
       126.93620579,
       37.51911771
      ],
      [
       126.9362282,
       37.51912143
      ],
      [
       126.93627265,
       37.51907666
      ],
      [
       126.93629673,
       37.51909184
      ],
      [
       126.93636022,
       37.51902789
      ],
      [
       126.93632811,
       37.51900766
      ],
      [
       126.93629468,
       37.51902818
      ],
      [
       126.9362706,
       37.51901301
      ],
      [
       126.93623849,
       37.51899278
      ],
      [
       126.93622578,
       37.51900556
      ],
      [
       126.93627396,
       37.51903591
      ],
      [
       126.93626761,
       37.51904231
      ],
      [
       126.93621943,
       37.51901197
      ],
      [
       126.93613054,
       37.51910149
      ],
      [
       126.93618674,
       37.51913689
      ],
      [
       126.9361804,
       37.51914328
      ]
     ]
    ]
   },
   "properties": {
    "label": "시범28",
    "group": "시범",
    "height_m": 84.4
   }
  },
  {
   "type": "Feature",
   "geometry": {
    "type": "Polygon",
    "coordinates": [
     [
      [
       126.93633446,
       37.51900126
      ],
      [
       126.93634249,
       37.51900632
      ],
      [
       126.93638059,
       37.51896795
      ],
      [
       126.93637087,
       37.51895144
      ],
      [
       126.93638993,
       37.51893226
      ],
      [
       126.93633372,
       37.51889685
      ],
      [
       126.93632737,
       37.51890325
      ],
      [
       126.9363692,
       37.51893999
      ],
      [
       126.93634847,
       37.51894772
      ],
      [
       126.93632475,
       37.51898475
      ],
      [
       126.93634081,
       37.51899487
      ],
      [
       126.93633446,
       37.51900126
      ]
     ]
    ]
   },
   "properties": {
    "label": "시범29",
    "group": "시범",
    "height_m": 84.4
   }
  },
  {
   "type": "Feature",
   "geometry": {
    "type": "Polygon",
    "coordinates": [
     [
      [
       126.93634008,
       37.51889046
      ],
      [
       126.93650064,
       37.51899161
      ],
      [
       126.93653407,
       37.51897109
      ],
      [
       126.93642167,
       37.51890028
      ],
      [
       126.93640897,
       37.51891308
      ],
      [
       126.93635277,
       37.51887767
      ],
      [
       126.93634643,
       37.51888407
      ],
      [
       126.93634008,
       37.51889046
      ]
     ]
    ]
   },
   "properties": {
    "label": "시범30",
    "group": "시범",
    "height_m": 84.4
   }
  },
  {
   "type": "Feature",
   "geometry": {
    "type": "Polygon",
    "coordinates": [
     [
      [
       126.93642802,
       37.51889389
      ],
      [
       126.93649225,
       37.51893435
      ],
      [
       126.9365367,
       37.51888958
      ],
      [
       126.93652867,
       37.51888452
      ],
      [
       126.9364805,
       37.51885418
      ],
      [
       126.93646144,
       37.51887337
      ],
      [
       126.93643269,
       37.51887604
      ],
      [
       126.93643437,
       37.51888749
      ],
      [
       126.93642802,
       37.51889389
      ]
     ]
    ]
   },
   "properties": {
    "label": "시범31",
    "group": "시범",
    "height_m": 84.4
   }
  },
  {
   "type": "Feature",
   "geometry": {
    "type": "Polygon",
    "coordinates": [
     [
      [
       126.93666122,
       37.51909275
      ],
      [
       126.93678967,
       37.51917368
      ],
      [
       126.93679435,
       37.51915582
      ],
      [
       126.93681507,
       37.51914809
      ],
      [
       126.93684886,
       37.51917977
      ],
      [
       126.93687762,
       37.5191771
      ],
      [
       126.93692207,
       37.51913234
      ],
      [
       126.93679361,
       37.51905141
      ],
      [
       126.93676822,
       37.519077
      ],
      [
       126.93678427,
       37.51908712
      ],
      [
       126.93675551,
       37.51908979
      ],
      [
       126.93675215,
       37.51906688
      ],
      [
       126.93667354,
       37.51902776
      ],
      [
       126.93665114,
       37.51902404
      ],
      [
       126.93668924,
       37.51898568
      ],
      [
       126.93667318,
       37.51897556
      ],
      [
       126.93666048,
       37.51898835
      ],
      [
       126.93666515,
       37.5189705
      ],
      [
       126.93654473,
       37.51889464
      ],
      [
       126.93650028,
       37.51893941
      ],
      [
       126.93654845,
       37.51896975
      ],
      [
       126.9365294,
       37.51898893
      ],
      [
       126.93660166,
       37.51903445
      ],
      [
       126.93662706,
       37.51900887
      ],
      [
       126.9366321,
       37.51904323
      ],
      [
       126.93667223,
       37.51906851
      ],
      [
       126.93669296,
       37.51906079
      ],
      [
       126.93666757,
       37.51908636
      ],
      [
       126.93666122,
       37.51909275
      ]
     ]
    ]
   },
   "properties": {
    "label": "시범32",
    "group": "시범",
    "height_m": 75.0
   }
  },
  {
   "type": "Feature",
   "geometry": {
    "type": "Polygon",
    "coordinates": [
     [
      [
       126.93722879,
       37.5197829
      ],
      [
       126.93728499,
       37.5198183
      ],
      [
       126.9373201,
       37.51980923
      ],
      [
       126.93736455,
       37.51976447
      ],
      [
       126.93735483,
       37.51974795
      ],
      [
       126.93739498,
       37.51977325
      ],
      [
       126.93745847,
       37.51970929
      ],
      [
       126.93742636,
       37.51968907
      ],
      [
       126.93748518,
       37.51964297
      ],
      [
       126.93748985,
       37.51962512
      ],
      [
       126.93746577,
       37.51960994
      ],
      [
       126.937423,
       37.51966616
      ],
      [
       126.93743271,
       37.51968267
      ],
      [
       126.93740395,
       37.51968534
      ],
      [
       126.93735578,
       37.519655
      ],
      [
       126.93732403,
       37.51968698
      ],
      [
       126.93733206,
       37.51969204
      ],
      [
       126.93731768,
       37.51969337
      ],
      [
       126.93723514,
       37.51977651
      ],
      [
       126.93722879,
       37.5197829
      ]
     ]
    ]
   },
   "properties": {
    "label": "시범33",
    "group": "시범",
    "height_m": 87.6
   }
  },
  {
   "type": "Feature",
   "geometry": {
    "type": "Polygon",
    "coordinates": [
     [
      [
       126.93743197,
       37.51957826
      ],
      [
       126.93758451,
       37.51967436
      ],
      [
       126.93763232,
       37.5196525
      ],
      [
       126.93752795,
       37.51958675
      ],
      [
       126.93750722,
       37.51959448
      ],
      [
       126.93745102,
       37.51955907
      ],
      [
       126.93743832,
       37.51957187
      ],
      [
       126.93743197,
       37.51957826
      ]
     ]
    ]
   },
   "properties": {
    "label": "시범34",
    "group": "시범",
    "height_m": 87.6
   }
  },
  {
   "type": "Feature",
   "geometry": {
    "type": "Polygon",
    "coordinates": [
     [
      [
       126.93762765,
       37.51967034
      ],
      [
       126.93769188,
       37.5197108
      ],
      [
       126.93773501,
       37.51970678
      ],
      [
       126.93772699,
       37.51970173
      ],
      [
       126.93777143,
       37.51965697
      ],
      [
       126.937651,
       37.5195811
      ],
      [
       126.93764465,
       37.5195875
      ],
      [
       126.93757875,
       37.51953559
      ],
      [
       126.93752627,
       37.5195753
      ],
      [
       126.93761291,
       37.51961947
      ],
      [
       126.93760656,
       37.51962587
      ],
      [
       126.9376467,
       37.51965115
      ],
      [
       126.937634,
       37.51966395
      ],
      [
       126.93762765,
       37.51967034
      ]
     ]
    ]
   },
   "properties": {
    "label": "시범35",
    "group": "시범",
    "height_m": 78.0
   }
  },
  {
   "type": "Feature",
   "geometry": {
    "type": "Polygon",
    "coordinates": [
     [
      [
       126.93773501,
       37.51970678
      ],
      [
       126.93773838,
       37.51972969
      ],
      [
       126.93777049,
       37.51974992
      ],
      [
       126.93778319,
       37.51973713
      ],
      [
       126.93783939,
       37.51977253
      ],
      [
       126.93785041,
       37.51974829
      ],
      [
       126.9377942,
       37.51971289
      ],
      [
       126.93774939,
       37.51970545
      ],
      [
       126.93778749,
       37.51966708
      ],
      [
       126.93777946,
       37.51966202
      ],
      [
       126.93773501,
       37.51970678
      ]
     ]
    ]
   },
   "properties": {
    "label": "시범36",
    "group": "시범",
    "height_m": 78.0
   }
  },
  {
   "type": "Feature",
   "geometry": {
    "type": "Polygon",
    "coordinates": [
     [
      [
       126.93776115,
       37.51978562
      ],
      [
       126.93787355,
       37.51985641
      ],
      [
       126.93791968,
       37.5198231
      ],
      [
       126.93791501,
       37.51984095
      ],
      [
       126.93794712,
       37.51986118
      ],
      [
       126.93796785,
       37.51985344
      ],
      [
       126.93798391,
       37.51986356
      ],
      [
       126.938022,
       37.51982519
      ],
      [
       126.93802835,
       37.5198188
      ],
      [
       126.93789989,
       37.51973788
      ],
      [
       126.93784107,
       37.51978398
      ],
      [
       126.93778487,
       37.51974858
      ],
      [
       126.93775947,
       37.51977416
      ],
      [
       126.9377675,
       37.51977922
      ],
      [
       126.93776115,
       37.51978562
      ]
     ]
    ]
   },
   "properties": {
    "label": "시범37",
    "group": "시범",
    "height_m": 62.0
   }
  },
  {
   "type": "Feature",
   "geometry": {
    "type": "Polygon",
    "coordinates": [
     [
      [
       126.9382645,
       37.5204353
      ],
      [
       126.93832071,
       37.5204707
      ],
      [
       126.93833976,
       37.52045151
      ],
      [
       126.93835581,
       37.52046163
      ],
      [
       126.93840026,
       37.52041686
      ],
      [
       126.93837617,
       37.52040169
      ],
      [
       126.93840157,
       37.52037611
      ],
      [
       126.9384096,
       37.52038117
      ],
      [
       126.93839055,
       37.52040035
      ],
      [
       126.9384307,
       37.52042563
      ],
      [
       126.93849419,
       37.52036169
      ],
      [
       126.93846208,
       37.52034146
      ],
      [
       126.938435,
       37.52035558
      ],
      [
       126.93843967,
       37.52033774
      ],
      [
       126.93839952,
       37.52031245
      ],
      [
       126.93840587,
       37.52030606
      ],
      [
       126.93838347,
       37.52030234
      ],
      [
       126.93838514,
       37.52031379
      ],
      [
       126.93826283,
       37.52042384
      ],
      [
       126.93827085,
       37.5204289
      ],
      [
       126.9382645,
       37.5204353
      ]
     ]
    ]
   },
   "properties": {
    "label": "시범38",
    "group": "시범",
    "height_m": 88.0
   }
  },
  {
   "type": "Feature",
   "geometry": {
    "type": "Polygon",
    "coordinates": [
     [
      [
       126.9384604,
       37.52033001
      ],
      [
       126.93847646,
       37.52034012
      ],
      [
       126.9385209,
       37.52029536
      ],
      [
       126.93850484,
       37.52028524
      ],
      [
       126.93851754,
       37.52027245
      ],
      [
       126.93850148,
       37.52026234
      ],
      [
       126.93845704,
       37.5203071
      ],
      [
       126.93846674,
       37.52032361
      ],
      [
       126.9384604,
       37.52033001
      ]
     ]
    ]
   },
   "properties": {
    "label": "시범39",
    "group": "시범",
    "height_m": 88.0
   }
  },
  {
   "type": "Feature",
   "geometry": {
    "type": "Polygon",
    "coordinates": [
     [
      [
       126.93844696,
       37.52023839
      ],
      [
       126.93847572,
       37.52023572
      ],
      [
       126.93862023,
       37.52032674
      ],
      [
       126.93866804,
       37.52030488
      ],
      [
       126.93855564,
       37.52023408
      ],
      [
       126.93856199,
       37.52022769
      ],
      [
       126.93855396,
       37.52022263
      ],
      [
       126.93854293,
       37.52024687
      ],
      [
       126.93848673,
       37.52021147
      ],
      [
       126.93847235,
       37.52021281
      ],
      [
       126.93846134,
       37.52023705
      ],
      [
       126.93845331,
       37.52023199
      ],
      [
       126.93844696,
       37.52023839
      ]
     ]
    ]
   },
   "properties": {
    "label": "시범40",
    "group": "시범",
    "height_m": 84.8
   }
  },
  {
   "type": "Feature",
   "geometry": {
    "type": "Polygon",
    "coordinates": [
     [
      [
       126.93856199,
       37.52022769
      ],
      [
       126.93858607,
       37.52024286
      ],
      [
       126.93862622,
       37.52026814
      ],
      [
       126.93867067,
       37.52022337
      ],
      [
       126.93861446,
       37.52018798
      ],
      [
       126.93856199,
       37.52022769
      ]
     ]
    ]
   },
   "properties": {
    "label": "시범41",
    "group": "시범",
    "height_m": 84.8
   }
  },
  {
   "type": "Feature",
   "geometry": {
    "type": "Polygon",
    "coordinates": [
     [
      [
       126.93866337,
       37.52032273
      ],
      [
       126.93875,
       37.52036691
      ],
      [
       126.93879913,
       37.5203043
      ],
      [
       126.93875898,
       37.52027901
      ],
      [
       126.93867869,
       37.52022843
      ],
      [
       126.93863425,
       37.5202732
      ],
      [
       126.93868242,
       37.52030354
      ],
      [
       126.93866972,
       37.52031633
      ],
      [
       126.93866337,
       37.52032273
      ]
     ]
    ]
   },
   "properties": {
    "label": "시범42",
    "group": "시범",
    "height_m": 68.8
   }
  },
  {
   "type": "Feature",
   "geometry": {
    "type": "Polygon",
    "coordinates": [
     [
      [
       126.93878884,
       37.52043295
      ],
      [
       126.93890927,
       37.5205088
      ],
      [
       126.93894905,
       37.52048188
      ],
      [
       126.9388992,
       37.52044009
      ],
      [
       126.9389119,
       37.5204273
      ],
      [
       126.93893132,
       37.52046032
      ],
      [
       126.93896343,
       37.52048055
      ],
      [
       126.93895073,
       37.52049333
      ],
      [
       126.93898284,
       37.52051357
      ],
      [
       126.93900357,
       37.52050583
      ],
      [
       126.93901963,
       37.52051595
      ],
      [
       126.93906408,
       37.52047118
      ],
      [
       126.93896774,
       37.5204105
      ],
      [
       126.93892759,
       37.52038521
      ],
      [
       126.93888314,
       37.52042998
      ],
      [
       126.93887511,
       37.52042492
      ],
      [
       126.93886876,
       37.52043131
      ],
      [
       126.93882059,
       37.52040097
      ],
      [
       126.93879519,
       37.52042655
      ],
      [
       126.93878884,
       37.52043295
      ]
     ]
    ]
   },
   "properties": {
    "label": "시범43",
    "group": "시범",
    "height_m": 56.0
   }
  },
  {
   "type": "Feature",
   "geometry": {
    "type": "Polygon",
    "coordinates": [
     [
      [
       126.93887511,
       37.52042492
      ],
      [
       126.93891956,
       37.52038015
      ],
      [
       126.93880715,
       37.52030936
      ],
      [
       126.93876271,
       37.52035411
      ],
      [
       126.93877876,
       37.52036423
      ],
      [
       126.93876607,
       37.52037702
      ],
      [
       126.93880621,
       37.52040231
      ],
      [
       126.93881891,
       37.52038952
      ],
      [
       126.93887511,
       37.52042492
      ]
     ]
    ]
   },
   "properties": {
    "label": "시범44",
    "group": "시범",
    "height_m": 56.0
   }
  },
  {
   "type": "Feature",
   "geometry": {
    "type": "Polygon",
    "coordinates": [
     [
      [
       126.9350092,
       37.52209882
      ],
      [
       126.93539868,
       37.52170466
      ],
      [
       126.93541304,
       37.52170873
      ],
      [
       126.9354384,
       37.52168351
      ],
      [
       126.9353596,
       37.52163121
      ],
      [
       126.93535417,
       37.52163706
      ],
      [
       126.93531346,
       37.52161289
      ],
      [
       126.9348831,
       37.52205163
      ],
      [
       126.93492449,
       37.52207706
      ],
      [
       126.9349195,
       37.52208219
      ],
      [
       126.9349983,
       37.52213062
      ],
      [
       126.93502264,
       37.52210549
      ],
      [
       126.9350092,
       37.52209882
      ]
     ]
    ]
   },
   "properties": {
    "label": "화랑(현상태)0",
    "group": "화랑(현상태)",
    "height_m": 30.0
   }
  },
  {
   "type": "Feature",
   "geometry": {
    "type": "Polygon",
    "coordinates": [
     [
      [
       126.93540231,
       37.52234529
      ],
      [
       126.93579225,
       37.52194726
      ],
      [
       126.93580593,
       37.52195087
      ],
      [
       126.93583039,
       37.52192791
      ],
      [
       126.9357534,
       37.52187579
      ],
      [
       126.93574774,
       37.52188101
      ],
      [
       126.93570963,
       37.52185711
      ],
      [
       126.93527724,
       37.52229548
      ],
      [
       126.93531613,
       37.52231983
      ],
      [
       126.93531047,
       37.5223255
      ],
      [
       126.93539063,
       37.52237573
      ],
      [
       126.93541599,
       37.52235214
      ],
      [
       126.93540231,
       37.52234529
      ]
     ]
    ]
   },
   "properties": {
    "label": "화랑(현상태)1",
    "group": "화랑(현상태)",
    "height_m": 30.0
   }
  },
  {
   "type": "Feature",
   "geometry": {
    "type": "Polygon",
    "coordinates": [
     [
      [
       126.93579033,
       37.5226003
      ],
      [
       126.9361635,
       37.52222073
      ],
      [
       126.93617029,
       37.5222238
      ],
      [
       126.93618478,
       37.52221065
      ],
      [
       126.93616025,
       37.52219352
      ],
      [
       126.93615278,
       37.5222009
      ],
      [
       126.93605781,
       37.52214049
      ],
      [
       126.93567172,
       37.52253825
      ],
      [
       126.93576466,
       37.52259551
      ],
      [
       126.93575764,
       37.52260344
      ],
      [
       126.93578613,
       37.52261958
      ],
      [
       126.9358013,
       37.52260499
      ],
      [
       126.93579033,
       37.5226003
      ]
     ]
    ]
   },
   "properties": {
    "label": "화랑(현상태)2",
    "group": "화랑(현상태)",
    "height_m": 30.0
   }
  }
 ]
}