{
 "type": "FeatureCollection",
 "crs": {
  "type": "name",
  "properties": {
   "name": "urn:ogc:def:crs:EPSG::5186"
  }
 },
 "features": [
  {
   "type": "Feature",
   "geometry": {
    "type": "Polygon",
    "coordinates": [
     [
      [
       194307.78593748013,
       546942.7222109188
      ],
      [
       194334.60966102808,
       546949.9096059814
      ],
      [
       194322.6140625199,
       546994.6777890811
      ],
      [
       194295.79033897194,
       546987.4903940185
      ],
      [
       194307.78593748013,
       546942.7222109188
      ]
     ]
    ]
   },
   "properties": {
    "label": "화랑 1동",
    "floors": 35,
    "height_m": 107.25,
    "plate_m2": 1073.7,
    "top_elev_m": 120.55
   }
  },
  {
   "type": "Feature",
   "geometry": {
    "type": "Polygon",
    "coordinates": [
     [
      [
       194278.05443044423,
       546892.4920860021
      ],
      [
       194230.97058833847,
       546952.8418800812
      ],
      [
       194327.74268022715,
       547028.3417548352
      ],
      [
       194374.8265223329,
       546967.9919607561
      ],
      [
       194278.05443044423,
       546892.4920860021
      ]
     ]
    ]
   },
   "properties": {
    "label": "화랑 대지",
    "area_m2": 9395.0
   }
  },
  {
   "type": "Feature",
   "geometry": {
    "type": "Polygon",
    "coordinates": [
     [
      [
       194278.57436472367,
       546896.7027472738
      ],
      [
       194235.1812496103,
       546952.3219458018
      ],
      [
       194327.2227459477,
       547024.1310935635
      ],
      [
       194370.6158610611,
       546968.5118950355
      ],
      [
       194278.57436472367,
       546896.7027472738
      ]
     ]
    ]
   },
   "properties": {
    "label": "이격선 3m"
   }
  }
 ]
}