{
 "type": "FeatureCollection",
 "crs": {
  "type": "name",
  "properties": {
   "name": "urn:ogc:def:crs:EPSG::5186"
  }
 },
 "features": [
  {
   "type": "Feature",
   "geometry": {
    "type": "Polygon",
    "coordinates": [
     [
      [
       194305.96900232128,
       546976.3781370323
      ],
      [
       194305.4905753164,
       546978.1636509221
      ],
      [
       194323.34088458618,
       546982.9466268757
      ],
      [
       194323.81931159107,
       546981.1611129858
      ],
      [
       194305.96900232128,
       546976.3781370323
      ]
     ]
    ]
   },
   "properties": {
    "part": "저층부",
    "floors": 15,
    "height_m": 48.25,
    "base_elev_m": 13.3,
    "top_elev_m": 61.55,
    "area_m2": 34.2
   }
  },
  {
   "type": "Feature",
   "geometry": {
    "type": "Polygon",
    "coordinates": [
     [
      [
       194315.05911541384,
       546942.4533731242
      ],
      [
       194305.96900232128,
       546976.3781370323
      ],
      [
       194323.81931159107,
       546981.1611129858
      ],
      [
       194332.90942468363,
       546947.2363490778
      ],
      [
       194315.05911541384,
       546942.4533731242
      ]
     ]
    ]
   },
   "properties": {
    "part": "고층부",
    "floors": 57,
    "height_m": 172.15,
    "base_elev_m": 13.3,
    "top_elev_m": 185.45,
    "area_m2": 649.0
   }
  }
 ]
}