{
 "type": "FeatureCollection",
 "crs": {
  "type": "name",
  "properties": {
   "name": "urn:ogc:def:crs:EPSG::5186"
  }
 },
 "features": [
  {
   "type": "Feature",
   "geometry": {
    "type": "Polygon",
    "coordinates": [
     [
      [
       194315.05911541384,
       546942.4533731242
      ],
      [
       194305.4905753164,
       546978.1636509221
      ],
      [
       194323.34088458618,
       546982.9466268757
      ],
      [
       194332.90942468363,
       546947.2363490778
      ],
      [
       194315.05911541384,
       546942.4533731242
      ]
     ]
    ]
   },
   "properties": {
    "part": "균일(비교기준)",
    "floors": 55,
    "height_m": 166.25,
    "top_elev_m": 179.55
   }
  }
 ]
}