{
 "type": "FeatureCollection",
 "features": [
  {
   "type": "Feature",
   "geometry": {
    "type": "Polygon",
    "coordinates": [
     [
      [
       36970.0,
       0.0
      ],
      [
       36970.0,
       18480.0
      ],
      [
       0.0,
       18480.0
      ],
      [
       0.0,
       0.0
      ],
      [
       36970.0,
       0.0
      ]
     ]
    ]
   },
   "properties": {
    "line": "기준층 연면적선",
    "area_m2": 683.3,
    "long_mm": 36970,
    "short_mm": 18480
   }
  },
  {
   "type": "Feature",
   "geometry": {
    "type": "Polygon",
    "coordinates": [
     [
      [
       30485.0,
       7340.0
      ],
      [
       30485.0,
       11140.0
      ],
      [
       6485.0,
       11140.0
      ],
      [
       6485.0,
       7340.0
      ],
      [
       30485.0,
       7340.0
      ]
     ]
    ]
   },
   "properties": {
    "line": "코어(가정)",
    "area_m2": 91.2
   }
  }
 ]
}