{
 "type": "FeatureCollection",
 "features": [
  {
   "type": "Feature",
   "geometry": {
    "type": "Polygon",
    "coordinates": [
     [
      [
       13800.0,
       5198.3147088338965
      ],
      [
       13800.0,
       0.0
      ],
      [
       10800.0,
       0.0
      ],
      [
       8100.0,
       0.0
      ],
      [
       3600.0,
       0.0
      ],
      [
       0.0,
       0.0
      ],
      [
       0.0,
       5380.775202440287
      ],
      [
       1433.3961045513759,
       7320.075814480384
      ],
      [
       3600.0,
       7320.075814480384
      ],
      [
       3600.0,
       7680.775202440287
      ],
      [
       8100.0,
       7680.775202440287
      ],
      [
       8100.0,
       5198.3147088338965
      ],
      [
       10800.0,
       5198.3147088338965
      ],
      [
       13800.0,
       5198.3147088338965
      ]
     ]
    ]
   },
   "properties": {
    "code": "84A",
    "family": "판상4베이+코너사선",
    "exclusive_m2": 84.0,
    "frame_m2": 89.16,
    "balcony_m2": 20.7,
    "frontage_mm": 13800,
    "depth_mm": 7680.8,
    "efficiency": 0.942,
    "tower_corner": true,
    "sheet": "A-101",
    "line": "골조 외곽"
   }
  },
  {
   "type": "Feature",
   "geometry": {
    "type": "Polygon",
    "coordinates": [
     [
      [
       13800.0,
       -1500.0
      ],
      [
       0.0,
       -1500.0
      ],
      [
       0.0,
       0.0
      ],
      [
       0.0,
       5380.775202440287
      ],
      [
       1433.3961045513759,
       7320.075814480384
      ],
      [
       3600.0,
       7320.075814480384
      ],
      [
       3600.0,
       7680.775202440287
      ],
      [
       8100.0,
       7680.775202440287
      ],
      [
       8100.0,
       5198.3147088338965
      ],
      [
       10800.0,
       5198.3147088338965
      ],
      [
       13800.0,
       5198.3147088338965
      ],
      [
       13800.0,
       0.0
      ],
      [
       13800.0,
       -1500.0
      ]
     ]
    ]
   },
   "properties": {
    "code": "84A",
    "family": "판상4베이+코너사선",
    "exclusive_m2": 84.0,
    "frame_m2": 89.16,
    "balcony_m2": 20.7,
    "frontage_mm": 13800,
    "depth_mm": 7680.8,
    "efficiency": 0.942,
    "tower_corner": true,
    "sheet": "A-101",
    "line": "발코니 포함 외형"
   }
  },
  {
   "type": "Feature",
   "geometry": {
    "type": "Polygon",
    "coordinates": [
     [
      [
       0.0,
       5205.153901216894
      ],
      [
       3000.0,
       5205.153901216894
      ],
      [
       5700.0,
       5205.153901216894
      ],
      [
       5700.0,
       7329.706513958484
      ],
      [
       10200.0,
       7329.706513958484
      ],
      [
       13800.0,
       7329.706513958484
      ],
      [
       13800.0,
       0.0
      ],
      [
       10200.0,
       0.0
      ],
      [
       5700.0,
       0.0
      ],
      [
       3000.0,
       0.0
      ],
      [
       0.0,
       0.0
      ],
      [
       0.0,
       5205.153901216894
      ]
     ]
    ]
   },
   "properties": {
    "code": "84B",
    "family": "판상4베이",
    "exclusive_m2": 84.0,
    "frame_m2": 89.04,
    "balcony_m2": 20.7,
    "frontage_mm": 13800,
    "depth_mm": 7329.7,
    "efficiency": 0.943,
    "tower_corner": false,
    "sheet": "A-102",
    "line": "골조 외곽"
   }
  },
  {
   "type": "Feature",
   "geometry": {
    "type": "Polygon",
    "coordinates": [
     [
      [
       13800.0,
       -1500.0
      ],
      [
       0.0,
       -1500.0
      ],
      [
       0.0,
       0.0
      ],
      [
       0.0,
       5205.153901216894
      ],
      [
       3000.0,
       5205.153901216894
      ],
      [
       5700.0,
       5205.153901216894
      ],
      [
       5700.0,
       7329.706513958484
      ],
      [
       10200.0,
       7329.706513958484
      ],
      [
       13800.0,
       7329.706513958484
      ],
      [
       13800.0,
       0.0
      ],
      [
       13800.0,
       -1500.0
      ]
     ]
    ]
   },
   "properties": {
    "code": "84B",
    "family": "판상4베이",
    "exclusive_m2": 84.0,
    "frame_m2": 89.04,
    "balcony_m2": 20.7,
    "frontage_mm": 13800,
    "depth_mm": 7329.7,
    "efficiency": 0.943,
    "tower_corner": false,
    "sheet": "A-102",
    "line": "발코니 포함 외형"
   }
  },
  {
   "type": "Feature",
   "geometry": {
    "type": "Polygon",
    "coordinates": [
     [
      [
       0.0,
       5279.552752558506
      ],
      [
       3000.0,
       5279.552752558506
      ],
      [
       5700.0,
       5279.552752558506
      ],
      [
       5700.0,
       7800.808556841546
      ],
      [
       10200.0,
       7800.808556841546
      ],
      [
       13800.0,
       7800.808556841546
      ],
      [
       13800.0,
       0.0
      ],
      [
       10200.0,
       0.0
      ],
      [
       5700.0,
       0.0
      ],
      [
       3000.0,
       0.0
      ],
      [
       0.0,
       0.0
      ],
      [
       0.0,
       5279.552752558506
      ]
     ]
    ]
   },
   "properties": {
    "code": "88A",
    "family": "판상4베이",
    "exclusive_m2": 88.0,
    "frame_m2": 93.28,
    "balcony_m2": 20.7,
    "frontage_mm": 13800,
    "depth_mm": 7800.8,
    "efficiency": 0.943,
    "tower_corner": false,
    "sheet": "A-103",
    "line": "골조 외곽"
   }
  },
  {
   "type": "Feature",
   "geometry": {
    "type": "Polygon",
    "coordinates": [
     [
      [
       13800.0,
       -1500.0
      ],
      [
       0.0,
       -1500.0
      ],
      [
       0.0,
       0.0
      ],
      [
       0.0,
       5279.552752558506
      ],
      [
       3000.0,
       5279.552752558506
      ],
      [
       5700.0,
       5279.552752558506
      ],
      [
       5700.0,
       7800.808556841546
      ],
      [
       10200.0,
       7800.808556841546
      ],
      [
       13800.0,
       7800.808556841546
      ],
      [
       13800.0,
       0.0
      ],
      [
       13800.0,
       -1500.0
      ]
     ]
    ]
   },
   "properties": {
    "code": "88A",
    "family": "판상4베이",
    "exclusive_m2": 88.0,
    "frame_m2": 93.28,
    "balcony_m2": 20.7,
    "frontage_mm": 13800,
    "depth_mm": 7800.8,
    "efficiency": 0.943,
    "tower_corner": false,
    "sheet": "A-103",
    "line": "발코니 포함 외형"
   }
  },
  {
   "type": "Feature",
   "geometry": {
    "type": "Polygon",
    "coordinates": [
     [
      [
       0.0,
       4877.4385072095
      ],
      [
       3000.0,
       4877.4385072095
      ],
      [
       5700.0,
       4877.4385072095
      ],
      [
       5700.0,
       7206.664243305465
      ],
      [
       10200.0,
       7206.664243305465
      ],
      [
       10200.0,
       4877.4385072095
      ],
      [
       12300.0,
       4877.4385072095
      ],
      [
       12300.0,
       7206.664243305465
      ],
      [
       16200.0,
       7206.664243305465
      ],
      [
       16200.0,
       0.0
      ],
      [
       12300.0,
       0.0
      ],
      [
       10200.0,
       0.0
      ],
      [
       5700.0,
       0.0
      ],
      [
       3000.0,
       0.0
      ],
      [
       0.0,
       0.0
      ],
      [
       0.0,
       4877.4385072095
      ]
     ]
    ]
   },
   "properties": {
    "code": "93A",
    "family": "판상4베이+서재",
    "exclusive_m2": 93.0,
    "frame_m2": 98.58,
    "balcony_m2": 24.3,
    "frontage_mm": 16200,
    "depth_mm": 7206.7,
    "efficiency": 0.943,
    "tower_corner": false,
    "sheet": "A-104",
    "line": "골조 외곽"
   }
  },
  {
   "type": "Feature",
   "geometry": {
    "type": "Polygon",
    "coordinates": [
     [
      [
       16200.0,
       -1500.0
      ],
      [
       0.0,
       -1500.0
      ],
      [
       0.0,
       0.0
      ],
      [
       0.0,
       4877.4385072095
      ],
      [
       3000.0,
       4877.4385072095
      ],
      [
       5700.0,
       4877.4385072095
      ],
      [
       5700.0,
       7206.664243305465
      ],
      [
       10200.0,
       7206.664243305465
      ],
      [
       10200.0,
       4877.4385072095
      ],
      [
       12300.0,
       4877.4385072095
      ],
      [
       12300.0,
       7206.664243305465
      ],
      [
       16200.0,
       7206.664243305465
      ],
      [
       16200.0,
       0.0
      ],
      [
       16200.0,
       -1500.0
      ]
     ]
    ]
   },
   "properties": {
    "code": "93A",
    "family": "판상4베이+서재",
    "exclusive_m2": 93.0,
    "frame_m2": 98.58,
    "balcony_m2": 24.3,
    "frontage_mm": 16200,
    "depth_mm": 7206.7,
    "efficiency": 0.943,
    "tower_corner": false,
    "sheet": "A-104",
    "line": "발코니 포함 외형"
   }
  },
  {
   "type": "Feature",
   "geometry": {
    "type": "Polygon",
    "coordinates": [
     [
      [
       0.0,
       4862.2246696035245
      ],
      [
       3000.0,
       4862.2246696035245
      ],
      [
       5700.0,
       4862.2246696035245
      ],
      [
       5700.0,
       7184.185022026432
      ],
      [
       10200.0,
       7184.185022026432
      ],
      [
       10200.0,
       4862.2246696035245
      ],
      [
       12700.0,
       4862.2246696035245
      ],
      [
       12700.0,
       7184.185022026432
      ],
      [
       17700.0,
       7184.185022026432
      ],
      [
       17700.0,
       0.0
      ],
      [
       12700.0,
       0.0
      ],
      [
       10200.0,
       0.0
      ],
      [
       5700.0,
       0.0
      ],
      [
       3000.0,
       0.0
      ],
      [
       0.0,
       0.0
      ],
      [
       0.0,
       4862.2246696035245
      ]
     ]
    ]
   },
   "properties": {
    "code": "102A",
    "family": "판상4베이+서재",
    "exclusive_m2": 102.0,
    "frame_m2": 108.12,
    "balcony_m2": 26.55,
    "frontage_mm": 17700,
    "depth_mm": 7184.2,
    "efficiency": 0.943,
    "tower_corner": false,
    "sheet": "A-105",
    "line": "골조 외곽"
   }
  },
  {
   "type": "Feature",
   "geometry": {
    "type": "Polygon",
    "coordinates": [
     [
      [
       17700.0,
       -1500.0
      ],
      [
       0.0,
       -1500.0
      ],
      [
       0.0,
       0.0
      ],
      [
       0.0,
       4862.2246696035245
      ],
      [
       3000.0,
       4862.2246696035245
      ],
      [
       5700.0,
       4862.2246696035245
      ],
      [
       5700.0,
       7184.185022026432
      ],
      [
       10200.0,
       7184.185022026432
      ],
      [
       10200.0,
       4862.2246696035245
      ],
      [
       12700.0,
       4862.2246696035245
      ],
      [
       12700.0,
       7184.185022026432
      ],
      [
       17700.0,
       7184.185022026432
      ],
      [
       17700.0,
       0.0
      ],
      [
       17700.0,
       -1500.0
      ]
     ]
    ]
   },
   "properties": {
    "code": "102A",
    "family": "판상4베이+서재",
    "exclusive_m2": 102.0,
    "frame_m2": 108.12,
    "balcony_m2": 26.55,
    "frontage_mm": 17700,
    "depth_mm": 7184.2,
    "efficiency": 0.943,
    "tower_corner": false,
    "sheet": "A-105",
    "line": "발코니 포함 외형"
   }
  },
  {
   "type": "Feature",
   "geometry": {
    "type": "Polygon",
    "coordinates": [
     [
      [
       0.0,
       5831.33501259446
      ],
      [
       4200.0,
       5831.33501259446
      ],
      [
       6500.0,
       5831.33501259446
      ],
      [
       6500.0,
       9531.989924433252
      ],
      [
       11000.0,
       9531.989924433252
      ],
      [
       14200.0,
       9531.989924433252
      ],
      [
       14200.0,
       0.0
      ],
      [
       11000.0,
       0.0
      ],
      [
       6500.0,
       0.0
      ],
      [
       4200.0,
       0.0
      ],
      [
       0.0,
       0.0
      ],
      [
       0.0,
       5831.33501259446
      ]
     ]
    ]
   },
   "properties": {
    "code": "105A",
    "family": "타워형(L)",
    "exclusive_m2": 105.0,
    "frame_m2": 111.3,
    "balcony_m2": 21.3,
    "frontage_mm": 14200,
    "depth_mm": 9532.0,
    "efficiency": 0.943,
    "tower_corner": true,
    "sheet": "A-106",
    "line": "골조 외곽"
   }
  },
  {
   "type": "Feature",
   "geometry": {
    "type": "Polygon",
    "coordinates": [
     [
      [
       14200.0,
       -1500.0
      ],
      [
       0.0,
       -1500.0
      ],
      [
       0.0,
       0.0
      ],
      [
       0.0,
       5831.33501259446
      ],
      [
       4200.0,
       5831.33501259446
      ],
      [
       6500.0,
       5831.33501259446
      ],
      [
       6500.0,
       9531.989924433252
      ],
      [
       11000.0,
       9531.989924433252
      ],
      [
       14200.0,
       9531.989924433252
      ],
      [
       14200.0,
       0.0
      ],
      [
       14200.0,
       -1500.0
      ]
     ]
    ]
   },
   "properties": {
    "code": "105A",
    "family": "타워형(L)",
    "exclusive_m2": 105.0,
    "frame_m2": 111.3,
    "balcony_m2": 21.3,
    "frontage_mm": 14200,
    "depth_mm": 9532.0,
    "efficiency": 0.943,
    "tower_corner": true,
    "sheet": "A-106",
    "line": "발코니 포함 외형"
   }
  },
  {
   "type": "Feature",
   "geometry": {
    "type": "Polygon",
    "coordinates": [
     [
      [
       9020.0,
       6584.892415888637
      ],
      [
       12020.0,
       6584.892415888637
      ],
      [
       15320.0,
       6584.892415888637
      ],
      [
       15320.0,
       0.0
      ],
      [
       12020.0,
       0.0
      ],
      [
       9020.0,
       0.0
      ],
      [
       4120.0,
       0.0
      ],
      [
       0.0,
       0.0
      ],
      [
       0.0,
       11943.981782050312
      ],
      [
       4120.0,
       11943.981782050312
      ],
      [
       4120.0,
       6584.892415888637
      ],
      [
       9020.0,
       6584.892415888637
      ]
     ]
    ]
   },
   "properties": {
    "code": "116A",
    "family": "타워형(대L)",
    "exclusive_m2": 116.0,
    "frame_m2": 122.96,
    "balcony_m2": 22.98,
    "frontage_mm": 15320,
    "depth_mm": 11944.0,
    "efficiency": 0.943,
    "tower_corner": true,
    "sheet": "A-107",
    "line": "골조 외곽"
   }
  },
  {
   "type": "Feature",
   "geometry": {
    "type": "Polygon",
    "coordinates": [
     [
      [
       15320.0,
       -1500.0
      ],
      [
       0.0,
       -1500.0
      ],
      [
       0.0,
       0.0
      ],
      [
       0.0,
       11943.981782050312
      ],
      [
       4120.0,
       11943.981782050312
      ],
      [
       4120.0,
       6584.892415888637
      ],
      [
       9020.0,
       6584.892415888637
      ],
      [
       12020.0,
       6584.892415888637
      ],
      [
       15320.0,
       6584.892415888637
      ],
      [
       15320.0,
       0.0
      ],
      [
       15320.0,
       -1500.0
      ]
     ]
    ]
   },
   "properties": {
    "code": "116A",
    "family": "타워형(대L)",
    "exclusive_m2": 116.0,
    "frame_m2": 122.96,
    "balcony_m2": 22.98,
    "frontage_mm": 15320,
    "depth_mm": 11944.0,
    "efficiency": 0.943,
    "tower_corner": true,
    "sheet": "A-107",
    "line": "발코니 포함 외형"
   }
  }
 ]
}