{
 "type": "FeatureCollection",
 "features": [
  {
   "type": "Feature",
   "geometry": {
    "type": "Polygon",
    "coordinates": [
     [
      [
       194323.3408845862,
       546982.9466268757
      ],
      [
       194305.4905753164,
       546978.1636509221
      ],
      [
       194315.0591154138,
       546942.4533731242
      ],
      [
       194332.90942468363,
       546947.2363490778
      ],
      [
       194323.3408845862,
       546982.9466268757
      ]
     ]
    ]
   },
   "properties": {
    "line": "기준층 연면적선",
    "area_m2": 683.3
   }
  },
  {
   "type": "Feature",
   "geometry": {
    "type": "Polygon",
    "coordinates": [
     [
      [
       194317.92943052872,
       546974.7828661011
      ],
      [
       194314.25891238885,
       546973.7993537297
      ],
      [
       194320.4705694713,
       546950.6171338988
      ],
      [
       194324.14108761118,
       546951.6006462702
      ],
      [
       194317.92943052872,
       546974.7828661011
      ]
     ]
    ]
   },
   "properties": {
    "line": "코어(가정)",
    "area_m2": 91.2
   }
  }
 ],
 "crs": {
  "type": "name",
  "properties": {
   "name": "urn:ogc:def:crs:EPSG::5186"
  }
 }
}