{
 "type": "FeatureCollection",
 "features": [
  {
   "type": "Feature",
   "geometry": {
    "type": "Polygon",
    "coordinates": [
     [
      [
       126.93345243253715,
       37.52326207954164
      ],
      [
       126.93518437986118,
       37.521548519637975
      ],
      [
       126.93424622300303,
       37.520946984607974
      ],
      [
       126.93237544393212,
       37.522797875113085
      ],
      [
       126.93276959455635,
       37.5230506058823
      ],
      [
       126.93290841854102,
       37.52291326123372
      ],
      [
       126.93345243253715,
       37.52326207954164
      ]
     ]
    ]
   },
   "properties": {
    "name": "대지경계선(사업시행인가 대지)",
    "area_m2": 26869.5
   }
  }
 ]
}