{
 "type": "FeatureCollection",
 "features": [
  {
   "type": "Feature",
   "geometry": {
    "type": "Polygon",
    "coordinates": [
     [
      [
       194117.32741370838,
       547087.9986629655
      ],
      [
       194270.29709070388,
       546897.7080726178
      ],
      [
       194187.31731991295,
       546831.0027840806
      ],
      [
       194022.08671460862,
       547036.5456736546
      ],
      [
       194056.94911284026,
       547064.5706526462
      ],
      [
       194069.21004114905,
       547049.3183534199
      ],
      [
       194117.32741370838,
       547087.9986629655
      ]
     ]
    ]
   },
   "properties": {
    "name": "대지경계선(사업시행인가 대지)",
    "area_m2": 26869.5
   }
  }
 ],
 "crs": {
  "type": "name",
  "properties": {
   "name": "urn:ogc:def:crs:EPSG::5186"
  }
 }
}