{
 "type": "FeatureCollection",
 "features": [
  {
   "type": "Feature",
   "geometry": {
    "type": "Polygon",
    "coordinates": [
     [
      [
       126.93271424815093,
       37.522780674778815
      ],
      [
       126.93285472439472,
       37.52264169513297
      ],
      [
       126.93270075971768,
       37.522542972438615
      ],
      [
       126.93256028337397,
       37.52268195190357
      ],
      [
       126.93271424815093,
       37.522780674778815
      ]
     ]
    ]
   },
   "properties": {
    "id": "101-A",
    "dong": "101동",
    "part": "A(주동 서측)",
    "use": "공동주택",
    "floors": 48,
    "floor_h_m": 2.95,
    "roof_m": 4.0,
    "height_m": 145.6,
    "base_elev_m": 13.3,
    "top_elev_m": 158.9,
    "source": "배치도 트레이싱(개략)",
    "area_m2": 346.0,
    "gfa_m2": 16608.1
   }
  },
  {
   "type": "Feature",
   "geometry": {
    "type": "Polygon",
    "coordinates": [
     [
      [
       126.9328034027906,
       37.52260878759063
      ],
      [
       126.9328942989274,
       37.522518859532454
      ],
      [
       126.93279165589759,
       37.52245304445847
      ],
      [
       126.93270075971768,
       37.522542972438615
      ],
      [
       126.9328034027906,
       37.52260878759063
      ]
     ]
    ]
   },
   "properties": {
    "id": "101-B",
    "dong": "101동",
    "part": "B(주동 동측)",
    "use": "공동주택",
    "floors": 43,
    "floor_h_m": 2.95,
    "roof_m": 4.0,
    "height_m": 130.85,
    "base_elev_m": 13.3,
    "top_elev_m": 144.15,
    "source": "배치도 트레이싱(개략)",
    "area_m2": 149.3,
    "gfa_m2": 6418.0
   }
  },
  {
   "type": "Feature",
   "geometry": {
    "type": "Polygon",
    "coordinates": [
     [
      [
       126.93291631037916,
       37.522681184154166
      ],
      [
       126.93300720646853,
       37.52259125601015
      ],
      [
       126.9328942989274,
       37.522518859532454
      ],
      [
       126.9328034027906,
       37.52260878759063
      ],
      [
       126.93291631037916,
       37.522681184154166
      ]
     ]
    ]
   },
   "properties": {
    "id": "101-C",
    "dong": "101동",
    "part": "C(저층 연결부)",
    "use": "공동주택",
    "floors": 34,
    "floor_h_m": 2.95,
    "roof_m": 4.0,
    "height_m": 104.3,
    "base_elev_m": 13.3,
    "top_elev_m": 117.6,
    "source": "배치도 트레이싱(개략)",
    "area_m2": 164.2,
    "gfa_m2": 5582.2
   }
  },
  {
   "type": "Feature",
   "geometry": {
    "type": "Polygon",
    "coordinates": [
     [
      [
       126.93363914569369,
       37.52255182203605
      ],
      [
       126.93377135662587,
       37.52242101662585
      ],
      [
       126.93361739119229,
       37.52232229512199
      ],
      [
       126.93348518016604,
       37.52245310036193
      ],
      [
       126.93363914569369,
       37.52255182203605
      ]
     ]
    ]
   },
   "properties": {
    "id": "102-A",
    "dong": "102동",
    "part": "A(주동 서측)",
    "use": "공동주택",
    "floors": 48,
    "floor_h_m": 2.95,
    "roof_m": 4.0,
    "height_m": 145.6,
    "base_elev_m": 13.3,
    "top_elev_m": 158.9,
    "source": "배치도 트레이싱(개략)",
    "area_m2": 325.6,
    "gfa_m2": 15631.1
   }
  },
  {
   "type": "Feature",
   "geometry": {
    "type": "Polygon",
    "coordinates": [
     [
      [
       126.93377135662587,
       37.52242101662585
      ],
      [
       126.93385398822397,
       37.52233926316762
      ],
      [
       126.93373081589169,
       37.5222602860658
      ],
      [
       126.93364818424652,
       37.52234203943891
      ],
      [
       126.93377135662587,
       37.52242101662585
      ]
     ]
    ]
   },
   "properties": {
    "id": "102-B",
    "dong": "102동",
    "part": "B(주동 동측)",
    "use": "공동주택",
    "floors": 46,
    "floor_h_m": 2.95,
    "roof_m": 4.0,
    "height_m": 139.7,
    "base_elev_m": 13.3,
    "top_elev_m": 153.0,
    "source": "배치도 트레이싱(개략)",
    "area_m2": 162.8,
    "gfa_m2": 7489.9
   }
  },
  {
   "type": "Feature",
   "geometry": {
    "type": "Polygon",
    "coordinates": [
     [
      [
       126.93349344336872,
       37.522444925038876
      ],
      [
       126.93359260166002,
       37.522346821116
      ],
      [
       126.93348995825136,
       37.5222810066466
      ],
      [
       126.933390799913,
       37.522379110484344
      ],
      [
       126.93349344336872,
       37.522444925038876
      ]
     ]
    ]
   },
   "properties": {
    "id": "102-C",
    "dong": "102동",
    "part": "C(저층 연결부)",
    "use": "공동주택",
    "floors": 34,
    "floor_h_m": 2.95,
    "roof_m": 4.0,
    "height_m": 104.3,
    "base_elev_m": 13.3,
    "top_elev_m": 117.6,
    "source": "배치도 트레이싱(개략)",
    "area_m2": 162.8,
    "gfa_m2": 5536.0
   }
  },
  {
   "type": "Feature",
   "geometry": {
    "type": "Polygon",
    "coordinates": [
     [
      [
       126.93372010066575,
       37.52183573330787
      ],
      [
       126.93384404710943,
       37.52171310313913
      ],
      [
       126.93366955452039,
       37.52160121884823
      ],
      [
       126.93354560797675,
       37.521723848836096
      ],
      [
       126.93372010066575,
       37.52183573330787
      ]
     ]
    ]
   },
   "properties": {
    "id": "103-A",
    "dong": "103동",
    "part": "A(주동 서측)",
    "use": "공동주택",
    "floors": 42,
    "floor_h_m": 2.95,
    "roof_m": 4.0,
    "height_m": 127.9,
    "base_elev_m": 13.3,
    "top_elev_m": 141.2,
    "source": "배치도 트레이싱(개략)",
    "area_m2": 346.0,
    "gfa_m2": 14532.1
   }
  },
  {
   "type": "Feature",
   "geometry": {
    "type": "Polygon",
    "coordinates": [
     [
      [
       126.93378246143025,
       37.52167361459549
      ],
      [
       126.93387335525694,
       37.521583685767354
      ],
      [
       126.93376044839447,
       37.52151129010593
      ],
      [
       126.93366955452039,
       37.52160121884823
      ],
      [
       126.93378246143025,
       37.52167361459549
      ]
     ]
    ]
   },
   "properties": {
    "id": "103-B",
    "dong": "103동",
    "part": "B(주동 동측)",
    "use": "공동주택",
    "floors": 42,
    "floor_h_m": 2.95,
    "roof_m": 4.0,
    "height_m": 127.9,
    "base_elev_m": 13.3,
    "top_elev_m": 141.2,
    "source": "배치도 트레이싱(개략)",
    "area_m2": 164.2,
    "gfa_m2": 6895.6
   }
  },
  {
   "type": "Feature",
   "geometry": {
    "type": "Polygon",
    "coordinates": [
     [
      [
       126.93389536855838,
       37.52174601023412
      ],
      [
       126.9339862623376,
       37.52165608132017
      ],
      [
       126.93387335525694,
       37.521583685767354
      ],
      [
       126.93378246143025,
       37.52167361459549
      ],
      [
       126.93389536855838,
       37.52174601023412
      ]
     ]
    ]
   },
   "properties": {
    "id": "103-C",
    "dong": "103동",
    "part": "C(저층 연결부)",
    "use": "공동주택",
    "floors": 34,
    "floor_h_m": 2.95,
    "roof_m": 4.0,
    "height_m": 104.3,
    "base_elev_m": 13.3,
    "top_elev_m": 117.6,
    "source": "배치도 트레이싱(개략)",
    "area_m2": 164.2,
    "gfa_m2": 5582.2
   }
  },
  {
   "type": "Feature",
   "geometry": {
    "type": "Polygon",
    "coordinates": [
     [
      [
       126.9344819824752,
       37.52171793495317
      ],
      [
       126.93461419046375,
       37.521587128578204
      ],
      [
       126.93446022562995,
       37.52148840815964
      ],
      [
       126.9343280175473,
       37.521619214364364
      ],
      [
       126.9344819824752,
       37.52171793495317
      ]
     ]
    ]
   },
   "properties": {
    "id": "104-A",
    "dong": "104동",
    "part": "A(주동 서측)",
    "use": "공동주택",
    "floors": 43,
    "floor_h_m": 2.95,
    "roof_m": 4.0,
    "height_m": 130.85,
    "base_elev_m": 13.3,
    "top_elev_m": 144.15,
    "source": "배치도 트레이싱(개략)",
    "area_m2": 325.6,
    "gfa_m2": 14002.9
   }
  },
  {
   "type": "Feature",
   "geometry": {
    "type": "Polygon",
    "coordinates": [
     [
      [
       126.93461419046375,
       37.521587128578204
      ],
      [
       126.93469682022214,
       37.521505374517
      ],
      [
       126.93457364836964,
       37.521426398283424
      ],
      [
       126.93449101856423,
       37.521508152259514
      ],
      [
       126.93461419046375,
       37.521587128578204
      ]
     ]
    ]
   },
   "properties": {
    "id": "104-B",
    "dong": "104동",
    "part": "B(주동 동측)",
    "use": "공동주택",
    "floors": 43,
    "floor_h_m": 2.95,
    "roof_m": 4.0,
    "height_m": 130.85,
    "base_elev_m": 13.3,
    "top_elev_m": 144.15,
    "source": "배치도 트레이싱(개략)",
    "area_m2": 162.8,
    "gfa_m2": 7001.4
   }
  },
  {
   "type": "Feature",
   "geometry": {
    "type": "Polygon",
    "coordinates": [
     [
      [
       126.9343280175473,
       37.521619214364364
      ],
      [
       126.93442717365258,
       37.521521109725015
      ],
      [
       126.93432453063978,
       37.52145529597206
      ],
      [
       126.9342253744875,
       37.52155340052629
      ],
      [
       126.9343280175473,
       37.521619214364364
      ]
     ]
    ]
   },
   "properties": {
    "id": "104-C",
    "dong": "104동",
    "part": "C(저층 연결부)",
    "use": "공동주택",
    "floors": 34,
    "floor_h_m": 2.95,
    "roof_m": 4.0,
    "height_m": 104.3,
    "base_elev_m": 13.3,
    "top_elev_m": 117.6,
    "source": "배치도 트레이싱(개략)",
    "area_m2": 162.8,
    "gfa_m2": 5536.0
   }
  },
  {
   "type": "Feature",
   "geometry": {
    "type": "Polygon",
    "coordinates": [
     [
      [
       126.93349059883998,
       37.523184151619574
      ],
      [
       126.93504406430478,
       37.521647180625926
      ],
      [
       126.93484904137584,
       37.52152213543857
      ],
      [
       126.93329557451078,
       37.52305910389838
      ],
      [
       126.93349059883998,
       37.523184151619574
      ]
     ]
    ]
   },
   "properties": {
    "id": "P-N1",
    "dong": "저층부",
    "part": "북측 저층부(키즈카페·돌봄센터·경로당·공공기여)",
    "use": "근린생활시설/공공시설",
    "floors": 1,
    "floor_h_m": 4.5,
    "roof_m": 0.0,
    "height_m": 4.5,
    "base_elev_m": 13.3,
    "top_elev_m": 17.8,
    "source": "배치도 트레이싱(개략)",
    "area_m2": 4846.7,
    "gfa_m2": 4846.7
   }
  },
  {
   "type": "Feature",
   "geometry": {
    "type": "Polygon",
    "coordinates": [
     [
      [
       126.93328931234777,
       37.52308203598285
      ],
      [
       126.93375205400523,
       37.522624217802026
      ],
      [
       126.93356729506363,
       37.52250575194659
      ],
      [
       126.93310455301106,
       37.52296356941237
      ],
      [
       126.93328931234777,
       37.52308203598285
      ]
     ]
    ]
   },
   "properties": {
    "id": "P-N2",
    "dong": "저층부",
    "part": "북서측 저층부(어린이집·유아돌봄)",
    "use": "주민공동시설",
    "floors": 1,
    "floor_h_m": 4.5,
    "roof_m": 0.0,
    "height_m": 4.5,
    "base_elev_m": 13.3,
    "top_elev_m": 17.8,
    "source": "배치도 트레이싱(개략)",
    "area_m2": 1367.7,
    "gfa_m2": 1367.7
   }
  },
  {
   "type": "Feature",
   "geometry": {
    "type": "Polygon",
    "coordinates": [
     [
      [
       126.9336629678447,
       37.52224372957415
      ],
      [
       126.93419180645887,
       37.52172050688907
      ],
      [
       126.93396599192398,
       37.52157571606884
      ],
      [
       126.93343715275792,
       37.52209893775516
      ],
      [
       126.9336629678447,
       37.52224372957415
      ]
     ]
    ]
   },
   "properties": {
    "id": "P-C1",
    "dong": "저층부",
    "part": "중앙 저층부(작은도서관·피트니스·공유주방)",
    "use": "주민공동시설",
    "floors": 1,
    "floor_h_m": 4.5,
    "roof_m": 0.0,
    "height_m": 4.5,
    "base_elev_m": 13.3,
    "top_elev_m": 17.8,
    "source": "배치도 트레이싱(개략)",
    "area_m2": 1910.5,
    "gfa_m2": 1910.5
   }
  },
  {
   "type": "Feature",
   "geometry": {
    "type": "Polygon",
    "coordinates": [
     [
      [
       126.93414274416217,
       37.521635154256465
      ],
      [
       126.93449805328139,
       37.52128361279731
      ],
      [
       126.93430303221041,
       37.52115856670242
      ],
      [
       126.93394772277095,
       37.52151010758204
      ],
      [
       126.93414274416217,
       37.521635154256465
      ]
     ]
    ]
   },
   "properties": {
    "id": "P-E1",
    "dong": "저층부",
    "part": "동측 저층부(복합문화체육센터·노인복지시설)",
    "use": "공공기여시설",
    "floors": 2,
    "floor_h_m": 4.5,
    "roof_m": 0.0,
    "height_m": 9.0,
    "base_elev_m": 13.3,
    "top_elev_m": 22.3,
    "source": "배치도 트레이싱(개략)",
    "area_m2": 1108.6,
    "gfa_m2": 2217.1
   }
  },
  {
   "type": "Feature",
   "geometry": {
    "type": "Polygon",
    "coordinates": [
     [
      [
       126.93272887749536,
       37.52272268648877
      ],
      [
       126.93430713791045,
       37.52116119925512
      ],
      [
       126.93412854022513,
       37.521046683079675
      ],
      [
       126.93255027850743,
       37.52260816795585
      ],
      [
       126.93272887749536,
       37.52272268648877
      ]
     ]
    ]
   },
   "properties": {
    "id": "P-S1",
    "dong": "저층부",
    "part": "남측 저층부(근린생활시설)",
    "use": "근린생활시설",
    "floors": 1,
    "floor_h_m": 4.5,
    "roof_m": 0.0,
    "height_m": 4.5,
    "base_elev_m": 13.3,
    "top_elev_m": 17.8,
    "source": "배치도 트레이싱(개략)",
    "area_m2": 4509.4,
    "gfa_m2": 4509.4
   }
  }
 ]
}