{
 "type": "FeatureCollection",
 "features": [
  {
   "type": "Feature",
   "geometry": {
    "type": "Polygon",
    "coordinates": [
     [
      [
       194031.70799065568,
       547091.507940004
      ],
      [
       194050.68323684786,
       547067.9031912014
      ],
      [
       193994.39498970303,
       547022.6545272046
      ],
      [
       193975.4197435108,
       547046.2592760073
      ],
      [
       194031.70799065568,
       547091.507940004
      ]
     ]
    ]
   },
   "properties": {
    "id": "CTX-SAMBU",
    "dong": "삼부아파트(기존)",
    "part": "주변 참고 건물",
    "use": "참고(주변현황)",
    "floors": 12,
    "floor_h_m": 2.95,
    "roof_m": 4.0,
    "height_m": 39.4,
    "base_elev_m": 13.3,
    "top_elev_m": 52.7,
    "source": "배치도 참고표기(개략) - 실측 대체 필요",
    "area_m2": 2187.3,
    "gfa_m2": 26247.3
   }
  },
  {
   "type": "Feature",
   "geometry": {
    "type": "Polygon",
    "coordinates": [
     [
      [
       194164.04230626996,
       547135.1167139969
      ],
      [
       194212.21023891168,
       547075.1969670362
      ],
      [
       194194.0527398327,
       547060.6006238115
      ],
      [
       194145.88480719097,
       547120.5203707721
      ],
      [
       194164.04230626996,
       547135.1167139969
      ]
     ]
    ]
   },
   "properties": {
    "id": "CTX-JANGMI",
    "dong": "장미아파트(기존)",
    "part": "주변 참고 건물",
    "use": "참고(주변현황)",
    "floors": 13,
    "floor_h_m": 2.95,
    "roof_m": 4.0,
    "height_m": 42.35,
    "base_elev_m": 13.3,
    "top_elev_m": 55.65,
    "source": "배치도 참고표기(개략) - 실측 대체 필요",
    "area_m2": 1791.1,
    "gfa_m2": 23283.9
   }
  },
  {
   "type": "Feature",
   "geometry": {
    "type": "Polygon",
    "coordinates": [
     [
      [
       194232.64511942636,
       547049.7764683256
      ],
      [
       194270.59561181074,
       547002.5669707203
      ],
      [
       194245.17511310015,
       546982.1320902056
      ],
      [
       194207.22462071577,
       547029.3415878109
      ],
      [
       194232.64511942636,
       547049.7764683256
      ]
     ]
    ]
   },
   "properties": {
    "id": "CTX-YEOGO",
    "dong": "여의도여자고등학교",
    "part": "주변 참고 건물",
    "use": "참고(주변현황)",
    "floors": 5,
    "floor_h_m": 2.95,
    "roof_m": 4.0,
    "height_m": 18.75,
    "base_elev_m": 13.3,
    "top_elev_m": 32.05,
    "source": "배치도 참고표기(개략) - 실측 대체 필요",
    "area_m2": 1975.6,
    "gfa_m2": 9878.0
   }
  },
  {
   "type": "Feature",
   "geometry": {
    "type": "Polygon",
    "coordinates": [
     [
      [
       194285.1919550355,
       546984.4094716413
      ],
      [
       194324.60208174237,
       546935.384224128
      ],
      [
       194304.6288327555,
       546919.3282465808
      ],
      [
       194265.21870604862,
       546968.353494094
      ],
      [
       194285.1919550355,
       546984.4094716413
      ]
     ]
    ]
   },
   "properties": {
    "id": "CTX-HWARANG",
    "dong": "화랑아파트(기존, 여의도동 40-4)",
    "part": "주변 참고 건물",
    "use": "참고(주변현황)",
    "floors": 10,
    "floor_h_m": 2.95,
    "roof_m": 4.0,
    "height_m": 33.5,
    "base_elev_m": 13.3,
    "top_elev_m": 46.8,
    "source": "배치도 참고표기(개략) - 실측 대체 필요",
    "area_m2": 1612.0,
    "gfa_m2": 16119.6
   }
  },
  {
   "type": "Feature",
   "geometry": {
    "type": "Polygon",
    "coordinates": [
     [
      [
       194076.16968374248,
       546906.0552455329
      ],
      [
       194118.4990790943,
       546853.3984982038
      ],
      [
       194085.81558075213,
       546827.1250803992
      ],
      [
       194043.4861854003,
       546879.7818277283
      ],
      [
       194076.16968374248,
       546906.0552455329
      ]
     ]
    ]
   },
   "properties": {
    "id": "CTX-HANYANG",
    "dong": "한양아파트(기존)",
    "part": "주변 참고 건물",
    "use": "참고(주변현황)",
    "floors": 12,
    "floor_h_m": 2.95,
    "roof_m": 4.0,
    "height_m": 39.4,
    "base_elev_m": 13.3,
    "top_elev_m": 52.7,
    "source": "배치도 참고표기(개략) - 실측 대체 필요",
    "area_m2": 2833.1,
    "gfa_m2": 33997.7
   }
  },
  {
   "type": "Feature",
   "geometry": {
    "type": "Polygon",
    "coordinates": [
     [
      [
       194039.32271009515,
       546948.1736089999
      ],
      [
       194065.5961278997,
       546915.4901106578
      ],
      [
       194040.17562918915,
       546895.0552301431
      ],
      [
       194013.9022113846,
       546927.7387284853
      ],
      [
       194039.32271009515,
       546948.1736089999
      ]
     ]
    ]
   },
   "properties": {
    "id": "CTX-HANYANG-102",
    "dong": "한양아파트 재건축(안) 102동",
    "part": "주변 참고 건물",
    "use": "참고(주변현황)",
    "floors": 54,
    "floor_h_m": 2.95,
    "roof_m": 4.0,
    "height_m": 163.3,
    "base_elev_m": 13.3,
    "top_elev_m": 176.6,
    "source": "배치도 참고표기(개략) - 실측 대체 필요",
    "area_m2": 1367.7,
    "gfa_m2": 73857.1
   }
  },
  {
   "type": "Feature",
   "geometry": {
    "type": "Polygon",
    "coordinates": [
     [
      [
       194128.68134737085,
       546855.605535678
      ],
      [
       194154.9547651754,
       546822.9220373358
      ],
      [
       194115.00826720166,
       546790.8100822413
      ],
      [
       194088.73484939706,
       546823.4935805835
      ],
      [
       194128.68134737085,
       546855.605535678
      ]
     ]
    ]
   },
   "properties": {
    "id": "CTX-HANYANG-103",
    "dong": "한양아파트 재건축(안) 103동",
    "part": "주변 참고 건물",
    "use": "참고(주변현황)",
    "floors": 51,
    "floor_h_m": 2.95,
    "roof_m": 4.0,
    "height_m": 154.45,
    "base_elev_m": 13.3,
    "top_elev_m": 167.75,
    "source": "배치도 참고표기(개략) - 실측 대체 필요",
    "area_m2": 2149.3,
    "gfa_m2": 109613.4
   }
  }
 ],
 "crs": {
  "type": "name",
  "properties": {
   "name": "urn:ogc:def:crs:EPSG::5186"
  }
 }
}