{
 "type": "FeatureCollection",
 "features": [
  {
   "type": "Feature",
   "geometry": {
    "type": "Polygon",
    "coordinates": [
     [
      [
       126.92741857001948,
       37.523023050045026
      ],
      [
       126.92769936959883,
       37.52286670591421
      ],
      [
       126.92723128219762,
       37.5223333888528
      ],
      [
       126.92695048364396,
       37.52248973188596
      ],
      [
       126.92741857001948,
       37.523023050045026
      ]
     ]
    ]
   },
   "properties": {
    "id": "CTX-SAMBU",
    "dong": "삼부아파트(기존)",
    "part": "주변 참고 건물",
    "use": "참고(주변현황)",
    "floors": 12,
    "floor_h_m": 2.95,
    "roof_m": 4.0,
    "height_m": 39.4,
    "base_elev_m": 13.3,
    "top_elev_m": 52.7,
    "source": "배치도 참고표기(개략) - 실측 대체 필요",
    "area_m2": 2187.3,
    "gfa_m2": 26247.3
   }
  },
  {
   "type": "Feature",
   "geometry": {
    "type": "Polygon",
    "coordinates": [
     [
      [
       126.92871776402271,
       37.52373389924504
      ],
      [
       126.9294305605673,
       37.52333701657506
      ],
      [
       126.92927955897892,
       37.52316498124247
      ],
      [
       126.92856676327406,
       37.52356186301358
      ],
      [
       126.92871776402271,
       37.52373389924504
      ]
     ]
    ]
   },
   "properties": {
    "id": "CTX-JANGMI",
    "dong": "장미아파트(기존)",
    "part": "주변 참고 건물",
    "use": "참고(주변현황)",
    "floors": 13,
    "floor_h_m": 2.95,
    "roof_m": 4.0,
    "height_m": 42.35,
    "base_elev_m": 13.3,
    "top_elev_m": 55.65,
    "source": "배치도 참고표기(개략) - 실측 대체 필요",
    "area_m2": 1791.1,
    "gfa_m2": 23283.9
   }
  },
  {
   "type": "Feature",
   "geometry": {
    "type": "Polygon",
    "coordinates": [
     [
      [
       126.92973295682097,
       37.523168640798964
      ],
      [
       126.93029454625926,
       37.52285594085858
      ],
      [
       126.93008314280466,
       37.522615092863056
      ],
      [
       126.92952155429255,
       37.52292779181196
      ],
      [
       126.92973295682097,
       37.523168640798964
      ]
     ]
    ]
   },
   "properties": {
    "id": "CTX-YEOGO",
    "dong": "여의도여자고등학교",
    "part": "주변 참고 건물",
    "use": "참고(주변현황)",
    "floors": 5,
    "floor_h_m": 2.95,
    "roof_m": 4.0,
    "height_m": 18.75,
    "base_elev_m": 13.3,
    "top_elev_m": 32.05,
    "source": "배치도 참고표기(개략) - 실측 대체 필요",
    "area_m2": 1975.6,
    "gfa_m2": 9878.0
   }
  },
  {
   "type": "Feature",
   "geometry": {
    "type": "Polygon",
    "coordinates": [
     [
      [
       126.93051054094943,
       37.52273567093403
      ],
      [
       126.9310937231508,
       37.522410940149
      ],
      [
       126.9309276192866,
       37.52222170357942
      ],
      [
       126.93034443784089,
       37.52254643355546
      ],
      [
       126.93051054094943,
       37.52273567093403
      ]
     ]
    ]
   },
   "properties": {
    "id": "CTX-HWARANG",
    "dong": "화랑아파트(기존)",
    "part": "주변 참고 건물",
    "use": "참고(주변현황)",
    "floors": 12,
    "floor_h_m": 2.95,
    "roof_m": 4.0,
    "height_m": 39.4,
    "base_elev_m": 13.3,
    "top_elev_m": 52.7,
    "source": "배치도 참고표기(개략) - 실측 대체 필요",
    "area_m2": 1612.0,
    "gfa_m2": 19343.5
   }
  },
  {
   "type": "Feature",
   "geometry": {
    "type": "Polygon",
    "coordinates": [
     [
      [
       126.92848846125828,
       37.52153095567005
      ],
      [
       126.92911484125557,
       37.521182181289284
      ],
      [
       126.92884304800393,
       37.52087251671806
      ],
      [
       126.9282166693349,
       37.521221289677094
      ],
      [
       126.92848846125828,
       37.52153095567005
      ]
     ]
    ]
   },
   "properties": {
    "id": "CTX-HANYANG",
    "dong": "한양아파트(기존)",
    "part": "주변 참고 건물",
    "use": "참고(주변현황)",
    "floors": 12,
    "floor_h_m": 2.95,
    "roof_m": 4.0,
    "height_m": 39.4,
    "base_elev_m": 13.3,
    "top_elev_m": 52.7,
    "source": "배치도 참고표기(개략) - 실측 대체 필요",
    "area_m2": 2833.1,
    "gfa_m2": 33997.7
   }
  },
  {
   "type": "Feature",
   "geometry": {
    "type": "Polygon",
    "coordinates": [
     [
      [
       126.92795497385525,
       37.52180239028964
      ],
      [
       126.92834376507412,
       37.521585911802845
      ],
      [
       126.92813237147267,
       37.52134506027383
      ],
      [
       126.92774358089508,
       37.521561538074295
      ],
      [
       126.92795497385525,
       37.52180239028964
      ]
     ]
    ]
   },
   "properties": {
    "id": "CTX-HANYANG-102",
    "dong": "한양아파트 재건축(안) 102동",
    "part": "주변 참고 건물",
    "use": "참고(주변현황)",
    "floors": 54,
    "floor_h_m": 2.95,
    "roof_m": 4.0,
    "height_m": 163.3,
    "base_elev_m": 13.3,
    "top_elev_m": 176.6,
    "source": "배치도 참고표기(개략) - 실측 대체 필요",
    "area_m2": 1367.7,
    "gfa_m2": 73857.1
   }
  },
  {
   "type": "Feature",
   "geometry": {
    "type": "Polygon",
    "coordinates": [
     [
      [
       126.92921843848687,
       37.521226942000816
      ],
      [
       126.92960722307349,
       37.52101045932703
      ],
      [
       126.92927502989704,
       37.52063198169187
      ],
      [
       126.928886246318,
       37.520848463287095
      ],
      [
       126.92921843848687,
       37.521226942000816
      ]
     ]
    ]
   },
   "properties": {
    "id": "CTX-HANYANG-103",
    "dong": "한양아파트 재건축(안) 103동",
    "part": "주변 참고 건물",
    "use": "참고(주변현황)",
    "floors": 51,
    "floor_h_m": 2.95,
    "roof_m": 4.0,
    "height_m": 154.45,
    "base_elev_m": 13.3,
    "top_elev_m": 167.75,
    "source": "배치도 참고표기(개략) - 실측 대체 필요",
    "area_m2": 2149.3,
    "gfa_m2": 109613.4
   }
  }
 ]
}