{
 "type": "FeatureCollection",
 "features": [
  {
   "type": "Feature",
   "geometry": {
    "type": "Polygon",
    "coordinates": [
     [
      [
       193619.32241236177,
       547012.9043036236
      ],
      [
       193635.5435968755,
       547001.5461079484
      ],
      [
       193625.521659515,
       546987.2332980834
      ],
      [
       193609.3004750013,
       546998.5914937586
      ],
      [
       193619.32241236177,
       547012.9043036236
      ]
     ]
    ]
   },
   "properties": {
    "id": "101-A",
    "dong": "101동",
    "part": "A(주동 서측)",
    "use": "공동주택",
    "floors": 48,
    "floor_h_m": 2.95,
    "roof_m": 4.0,
    "height_m": 145.6,
    "base_elev_m": 13.3,
    "top_elev_m": 158.9,
    "source": "배치도 트레이싱(개략)",
    "area_m2": 346.0,
    "gfa_m2": 16608.1
   }
  },
  {
   "type": "Feature",
   "geometry": {
    "type": "Polygon",
    "coordinates": [
     [
      [
       193632.20295108866,
       546996.7751713268
      ],
      [
       193642.69901165637,
       546989.4257505958
      ],
      [
       193636.01772008272,
       546979.8838773523
      ],
      [
       193625.521659515,
       546987.2332980834
      ],
      [
       193632.20295108866,
       546996.7751713268
      ]
     ]
    ]
   },
   "properties": {
    "id": "101-B",
    "dong": "101동",
    "part": "B(주동 동측)",
    "use": "공동주택",
    "floors": 43,
    "floor_h_m": 2.95,
    "roof_m": 4.0,
    "height_m": 130.85,
    "base_elev_m": 13.3,
    "top_elev_m": 144.15,
    "source": "배치도 트레이싱(개략)",
    "area_m2": 149.3,
    "gfa_m2": 6418.0
   }
  },
  {
   "type": "Feature",
   "geometry": {
    "type": "Polygon",
    "coordinates": [
     [
      [
       193639.55237181968,
       547007.2712318945
      ],
      [
       193650.04843238738,
       546999.9218111634
      ],
      [
       193642.69901165637,
       546989.4257505958
      ],
      [
       193632.20295108866,
       546996.7751713268
      ],
      [
       193639.55237181968,
       547007.2712318945
      ]
     ]
    ]
   },
   "properties": {
    "id": "101-C",
    "dong": "101동",
    "part": "C(저층 연결부)",
    "use": "공동주택",
    "floors": 34,
    "floor_h_m": 2.95,
    "roof_m": 4.0,
    "height_m": 104.3,
    "base_elev_m": 13.3,
    "top_elev_m": 117.6,
    "source": "배치도 트레이싱(개략)",
    "area_m2": 164.2,
    "gfa_m2": 5582.2
   }
  },
  {
   "type": "Feature",
   "geometry": {
    "type": "Polygon",
    "coordinates": [
     [
      [
       193704.92113459826,
       547011.2701053222
      ],
      [
       193720.18813178764,
       547000.5800388043
      ],
      [
       193710.16619442718,
       546986.2672289393
      ],
      [
       193694.8991972378,
       546996.9572954571
      ],
      [
       193704.92113459826,
       547011.2701053222
      ]
     ]
    ]
   },
   "properties": {
    "id": "102-A",
    "dong": "102동",
    "part": "A(주동 서측)",
    "use": "공동주택",
    "floors": 48,
    "floor_h_m": 2.95,
    "roof_m": 4.0,
    "height_m": 145.6,
    "base_elev_m": 13.3,
    "top_elev_m": 158.9,
    "source": "배치도 트레이싱(개략)",
    "area_m2": 325.6,
    "gfa_m2": 15631.1
   }
  },
  {
   "type": "Feature",
   "geometry": {
    "type": "Polygon",
    "coordinates": [
     [
      [
       193720.18813178764,
       547000.5800388043
      ],
      [
       193729.73000503102,
       546993.8987472308
      ],
      [
       193721.71245514264,
       546982.4484993387
      ],
      [
       193712.17058189926,
       546989.1297909124
      ],
      [
       193720.18813178764,
       547000.5800388043
      ]
     ]
    ]
   },
   "properties": {
    "id": "102-B",
    "dong": "102동",
    "part": "B(주동 동측)",
    "use": "공동주택",
    "floors": 46,
    "floor_h_m": 2.95,
    "roof_m": 4.0,
    "height_m": 139.7,
    "base_elev_m": 13.3,
    "top_elev_m": 153.0,
    "source": "배치도 트레이싱(개략)",
    "area_m2": 162.8,
    "gfa_m2": 7489.9
   }
  },
  {
   "type": "Feature",
   "geometry": {
    "type": "Polygon",
    "coordinates": [
     [
      [
       193695.85338456213,
       546996.2891662997
      ],
      [
       193707.30363245416,
       546988.2716164114
      ],
      [
       193700.6223408805,
       546978.729743168
      ],
      [
       193689.17209298848,
       546986.7472930565
      ],
      [
       193695.85338456213,
       546996.2891662997
      ]
     ]
    ]
   },
   "properties": {
    "id": "102-C",
    "dong": "102동",
    "part": "C(저층 연결부)",
    "use": "공동주택",
    "floors": 34,
    "floor_h_m": 2.95,
    "roof_m": 4.0,
    "height_m": 104.3,
    "base_elev_m": 13.3,
    "top_elev_m": 117.6,
    "source": "배치도 트레이싱(개략)",
    "area_m2": 162.8,
    "gfa_m2": 5536.0
   }
  },
  {
   "type": "Feature",
   "geometry": {
    "type": "Polygon",
    "coordinates": [
     [
      [
       193733.9209041056,
       546936.9276250276
      ],
      [
       193748.23371397064,
       546926.9056876672
      ],
      [
       193736.87551829545,
       546910.6845031534
      ],
      [
       193722.5627084304,
       546920.706440514
      ],
      [
       193733.9209041056,
       546936.9276250276
      ]
     ]
    ]
   },
   "properties": {
    "id": "103-A",
    "dong": "103동",
    "part": "A(주동 서측)",
    "use": "공동주택",
    "floors": 42,
    "floor_h_m": 2.95,
    "roof_m": 4.0,
    "height_m": 127.9,
    "base_elev_m": 13.3,
    "top_elev_m": 141.2,
    "source": "배치도 트레이싱(개략)",
    "area_m2": 346.0,
    "gfa_m2": 14532.1
   }
  },
  {
   "type": "Feature",
   "geometry": {
    "type": "Polygon",
    "coordinates": [
     [
      [
       193744.22493902646,
       546921.1805637211
      ],
      [
       193754.72099959417,
       546913.8311429902
      ],
      [
       193747.37157886315,
       546903.3350824224
      ],
      [
       193736.87551829545,
       546910.6845031534
      ],
      [
       193744.22493902646,
       546921.1805637211
      ]
     ]
    ]
   },
   "properties": {
    "id": "103-B",
    "dong": "103동",
    "part": "B(주동 동측)",
    "use": "공동주택",
    "floors": 42,
    "floor_h_m": 2.95,
    "roof_m": 4.0,
    "height_m": 127.9,
    "base_elev_m": 13.3,
    "top_elev_m": 141.2,
    "source": "배치도 트레이싱(개략)",
    "area_m2": 164.2,
    "gfa_m2": 6895.6
   }
  },
  {
   "type": "Feature",
   "geometry": {
    "type": "Polygon",
    "coordinates": [
     [
      [
       193751.57435975748,
       546931.6766242888
      ],
      [
       193762.07042032518,
       546924.3272035578
      ],
      [
       193754.72099959417,
       546913.8311429902
      ],
      [
       193744.22493902646,
       546921.1805637211
      ],
      [
       193751.57435975748,
       546931.6766242888
      ]
     ]
    ]
   },
   "properties": {
    "id": "103-C",
    "dong": "103동",
    "part": "C(저층 연결부)",
    "use": "공동주택",
    "floors": 34,
    "floor_h_m": 2.95,
    "roof_m": 4.0,
    "height_m": 104.3,
    "base_elev_m": 13.3,
    "top_elev_m": 117.6,
    "source": "배치도 트레이싱(개략)",
    "area_m2": 164.2,
    "gfa_m2": 5582.2
   }
  },
  {
   "type": "Feature",
   "geometry": {
    "type": "Polygon",
    "coordinates": [
     [
      [
       193802.24824168062,
       546943.120931271
      ],
      [
       193817.51523887,
       546932.4308647532
      ],
      [
       193807.49330150953,
       546918.1180548881
      ],
      [
       193792.22630432015,
       546928.808121406
      ],
      [
       193802.24824168062,
       546943.120931271
      ]
     ]
    ]
   },
   "properties": {
    "id": "104-A",
    "dong": "104동",
    "part": "A(주동 서측)",
    "use": "공동주택",
    "floors": 43,
    "floor_h_m": 2.95,
    "roof_m": 4.0,
    "height_m": 130.85,
    "base_elev_m": 13.3,
    "top_elev_m": 144.15,
    "source": "배치도 트레이싱(개략)",
    "area_m2": 325.6,
    "gfa_m2": 14002.9
   }
  },
  {
   "type": "Feature",
   "geometry": {
    "type": "Polygon",
    "coordinates": [
     [
      [
       193817.51523887,
       546932.4308647532
      ],
      [
       193827.05711211337,
       546925.7495731795
      ],
      [
       193819.039562225,
       546914.2993252875
      ],
      [
       193809.49768898162,
       546920.9806168611
      ],
      [
       193817.51523887,
       546932.4308647532
      ]
     ]
    ]
   },
   "properties": {
    "id": "104-B",
    "dong": "104동",
    "part": "B(주동 동측)",
    "use": "공동주택",
    "floors": 43,
    "floor_h_m": 2.95,
    "roof_m": 4.0,
    "height_m": 130.85,
    "base_elev_m": 13.3,
    "top_elev_m": 144.15,
    "source": "배치도 트레이싱(개략)",
    "area_m2": 162.8,
    "gfa_m2": 7001.4
   }
  },
  {
   "type": "Feature",
   "geometry": {
    "type": "Polygon",
    "coordinates": [
     [
      [
       193792.22630432015,
       546928.808121406
      ],
      [
       193803.6765522122,
       546920.7905715175
      ],
      [
       193796.99526063853,
       546911.2486982743
      ],
      [
       193785.5450127465,
       546919.2662481626
      ],
      [
       193792.22630432015,
       546928.808121406
      ]
     ]
    ]
   },
   "properties": {
    "id": "104-C",
    "dong": "104동",
    "part": "C(저층 연결부)",
    "use": "공동주택",
    "floors": 34,
    "floor_h_m": 2.95,
    "roof_m": 4.0,
    "height_m": 104.3,
    "base_elev_m": 13.3,
    "top_elev_m": 117.6,
    "source": "배치도 트레이싱(개략)",
    "area_m2": 162.8,
    "gfa_m2": 5536.0
   }
  },
  {
   "type": "Feature",
   "geometry": {
    "type": "Polygon",
    "coordinates": [
     [
      [
       193672.77076464766,
       547075.0205122257
      ],
      [
       193852.15798162296,
       546949.4122306411
      ],
      [
       193839.46352763302,
       546931.2826714787
      ],
      [
       193660.07631065772,
       547056.8909530633
      ],
      [
       193672.77076464766,
       547075.0205122257
      ]
     ]
    ]
   },
   "properties": {
    "id": "P-N1",
    "dong": "저층부",
    "part": "북측 저층부(키즈카페·돌봄센터·경로당·공공기여)",
    "use": "근린생활시설/공공시설",
    "floors": 1,
    "floor_h_m": 4.5,
    "roof_m": 0.0,
    "height_m": 4.5,
    "base_elev_m": 13.3,
    "top_elev_m": 17.8,
    "source": "배치도 트레이싱(개략)",
    "area_m2": 4846.7,
    "gfa_m2": 4846.7
   }
  },
  {
   "type": "Feature",
   "geometry": {
    "type": "Polygon",
    "coordinates": [
     [
      [
       193658.83606516643,
       547059.1813987023
      ],
      [
       193712.27055532928,
       547021.7661658899
      ],
      [
       193700.2442304967,
       547004.5907940519
      ],
      [
       193646.80974033385,
       547042.0060268643
      ],
      [
       193658.83606516643,
       547059.1813987023
      ]
     ]
    ]
   },
   "properties": {
    "id": "P-N2",
    "dong": "저층부",
    "part": "북서측 저층부(어린이집·유아돌봄)",
    "use": "주민공동시설",
    "floors": 1,
    "floor_h_m": 4.5,
    "roof_m": 0.0,
    "height_m": 4.5,
    "base_elev_m": 13.3,
    "top_elev_m": 17.8,
    "source": "배치도 트레이싱(개략)",
    "area_m2": 1367.7,
    "gfa_m2": 1367.7
   }
  },
  {
   "type": "Feature",
   "geometry": {
    "type": "Polygon",
    "coordinates": [
     [
      [
       193716.46343470714,
       546979.0138210318
      ],
      [
       193777.5314234647,
       546936.2535549604
      ],
      [
       193762.83258200268,
       546915.261433825
      ],
      [
       193701.7645932451,
       546958.0216998963
      ],
      [
       193716.46343470714,
       546979.0138210318
      ]
     ]
    ]
   },
   "properties": {
    "id": "P-C1",
    "dong": "저층부",
    "part": "중앙 저층부(작은도서관·피트니스·공유주방)",
    "use": "주민공동시설",
    "floors": 1,
    "floor_h_m": 4.5,
    "roof_m": 0.0,
    "height_m": 4.5,
    "base_elev_m": 13.3,
    "top_elev_m": 17.8,
    "source": "배치도 트레이싱(개략)",
    "area_m2": 1910.5,
    "gfa_m2": 1910.5
   }
  },
  {
   "type": "Feature",
   "geometry": {
    "type": "Polygon",
    "coordinates": [
     [
      [
       193776.00313950313,
       546925.9475397363
      ],
      [
       193817.0331944496,
       546897.2179859695
      ],
      [
       193804.33874045967,
       546879.0884268072
      ],
      [
       193763.30868551318,
       546907.8179805739
      ],
      [
       193776.00313950313,
       546925.9475397363
      ]
     ]
    ]
   },
   "properties": {
    "id": "P-E1",
    "dong": "저층부",
    "part": "동측 저층부(복합문화체육센터·노인복지시설)",
    "use": "공공기여시설",
    "floors": 2,
    "floor_h_m": 4.5,
    "roof_m": 0.0,
    "height_m": 9.0,
    "base_elev_m": 13.3,
    "top_elev_m": 22.3,
    "source": "배치도 트레이싱(개략)",
    "area_m2": 1108.6,
    "gfa_m2": 2217.1
   }
  },
  {
   "type": "Feature",
   "geometry": {
    "type": "Polygon",
    "coordinates": [
     [
      [
       193622.3562131743,
       547007.0827707936
      ],
      [
       193804.6059921226,
       546879.4701017368
      ],
      [
       193792.98054478448,
       546862.8672422934
      ],
      [
       193610.73076583617,
       546990.4799113501
      ],
      [
       193622.3562131743,
       547007.0827707936
      ]
     ]
    ]
   },
   "properties": {
    "id": "P-S1",
    "dong": "저층부",
    "part": "남측 저층부(근린생활시설)",
    "use": "근린생활시설",
    "floors": 1,
    "floor_h_m": 4.5,
    "roof_m": 0.0,
    "height_m": 4.5,
    "base_elev_m": 13.3,
    "top_elev_m": 17.8,
    "source": "배치도 트레이싱(개략)",
    "area_m2": 4509.4,
    "gfa_m2": 4509.4
   }
  }
 ],
 "crs": {
  "type": "name",
  "properties": {
   "name": "urn:ogc:def:crs:EPSG::5186"
  }
 }
}