{
 "type": "FeatureCollection",
 "crs": {
  "type": "name",
  "properties": {
   "name": "EPSG:5186"
  }
 },
 "features": [
  {
   "type": "Feature",
   "properties": {
    "jibun": "30-1",
    "area_m2": 6459.4,
    "source": "배치도 해치영역(래스터 계측)"
   },
   "geometry": {
    "type": "Polygon",
    "coordinates": [
     [
      [
       194067.8,
       547300.86
      ],
      [
       194128.87,
       547222.69
      ],
      [
       194180.19,
       547262.78
      ],
      [
       194119.11,
       547340.95
      ],
      [
       194067.8,
       547300.86
      ]
     ]
    ]
   }
  },
  {
   "type": "Feature",
   "properties": {
    "jibun": "40-1",
    "area_m2": 7217.6,
    "source": "배치도 해치영역(래스터 계측)"
   },
   "geometry": {
    "type": "Polygon",
    "coordinates": [
     [
      [
       194204.88,
       547183.94
      ],
      [
       194276.75,
       547091.95
      ],
      [
       194325.47,
       547130.01
      ],
      [
       194253.6,
       547222.0
      ],
      [
       194204.88,
       547183.94
      ]
     ]
    ]
   }
  },
  {
   "type": "Feature",
   "properties": {
    "jibun": "40-2",
    "area_m2": 4317.6,
    "source": "배치도 해치영역(래스터 계측)"
   },
   "geometry": {
    "type": "Polygon",
    "coordinates": [
     [
      [
       194197.21,
       547004.32
      ],
      [
       194230.85,
       546961.26
      ],
      [
       194293.11,
       547009.9
      ],
      [
       194259.47,
       547052.96
      ],
      [
       194197.21,
       547004.32
      ]
     ]
    ]
   }
  },
  {
   "type": "Feature",
   "properties": {
    "jibun": "40-3",
    "area_m2": 5145.7,
    "source": "배치도 해치영역(래스터 계측)"
   },
   "geometry": {
    "type": "Polygon",
    "coordinates": [
     [
      [
       194323.87,
       547054.31
      ],
      [
       194368.55,
       546997.11
      ],
      [
       194424.42,
       547040.76
      ],
      [
       194379.73,
       547097.96
      ],
      [
       194323.87,
       547054.31
      ]
     ]
    ]
   }
  }
 ]
}