{
 "type": "FeatureCollection",
 "features": [
  {
   "type": "Feature",
   "geometry": {
    "type": "Polygon",
    "coordinates": [
     [
      [
       194052.035,
       547034.615
      ],
      [
       194064.442,
       547019.181
      ],
      [
       194050.824,
       547008.234
      ],
      [
       194038.417,
       547023.668
      ],
      [
       194052.035,
       547034.615
      ]
     ]
    ]
   },
   "properties": {
    "label": "대교0",
    "group": "대교",
    "height_m": 145.6
   }
  },
  {
   "type": "Feature",
   "geometry": {
    "type": "Polygon",
    "coordinates": [
     [
      [
       194059.903,
       547015.532
      ],
      [
       194067.931,
       547005.546
      ],
      [
       194058.852,
       546998.247
      ],
      [
       194050.824,
       547008.234
      ],
      [
       194059.903,
       547015.532
      ]
     ]
    ]
   },
   "properties": {
    "label": "대교1",
    "group": "대교",
    "height_m": 130.8
   }
  },
  {
   "type": "Feature",
   "geometry": {
    "type": "Polygon",
    "coordinates": [
     [
      [
       194069.889,
       547023.56
      ],
      [
       194077.917,
       547013.574
      ],
      [
       194067.931,
       547005.546
      ],
      [
       194059.903,
       547015.532
      ],
      [
       194069.889,
       547023.56
      ]
     ]
    ]
   },
   "properties": {
    "label": "대교2",
    "group": "대교",
    "height_m": 104.3
   }
  },
  {
   "type": "Feature",
   "geometry": {
    "type": "Polygon",
    "coordinates": [
     [
      [
       194133.777,
       547009.157
      ],
      [
       194145.454,
       546994.631
      ],
      [
       194131.836,
       546983.684
      ],
      [
       194120.159,
       546998.21
      ],
      [
       194133.777,
       547009.157
      ]
     ]
    ]
   },
   "properties": {
    "label": "대교3",
    "group": "대교",
    "height_m": 145.6
   }
  },
  {
   "type": "Feature",
   "geometry": {
    "type": "Polygon",
    "coordinates": [
     [
      [
       194145.454,
       546994.631
      ],
      [
       194152.752,
       546985.553
      ],
      [
       194141.858,
       546976.795
      ],
      [
       194134.559,
       546985.874
      ],
      [
       194145.454,
       546994.631
      ]
     ]
    ]
   },
   "properties": {
    "label": "대교4",
    "group": "대교",
    "height_m": 139.7
   }
  },
  {
   "type": "Feature",
   "geometry": {
    "type": "Polygon",
    "coordinates": [
     [
      [
       194120.889,
       546997.302
      ],
      [
       194129.646,
       546986.408
      ],
      [
       194120.568,
       546979.11
      ],
      [
       194111.81,
       546990.004
      ],
      [
       194120.889,
       546997.302
      ]
     ]
    ]
   },
   "properties": {
    "label": "대교5",
    "group": "대교",
    "height_m": 104.3
   }
  },
  {
   "type": "Feature",
   "geometry": {
    "type": "Polygon",
    "coordinates": [
     [
      [
       194140.877,
       546929.675
      ],
      [
       194151.824,
       546916.057
      ],
      [
       194136.391,
       546903.65
      ],
      [
       194125.443,
       546917.268
      ],
      [
       194140.877,
       546929.675
      ]
     ]
    ]
   },
   "properties": {
    "label": "대교6",
    "group": "대교",
    "height_m": 127.9
   }
  },
  {
   "type": "Feature",
   "geometry": {
    "type": "Polygon",
    "coordinates": [
     [
      [
       194146.377,
       546911.678
      ],
      [
       194154.405,
       546901.692
      ],
      [
       194144.419,
       546893.664
      ],
      [
       194136.391,
       546903.65
      ],
      [
       194146.377,
       546911.678
      ]
     ]
    ]
   },
   "properties": {
    "label": "대교7",
    "group": "대교",
    "height_m": 127.9
   }
  },
  {
   "type": "Feature",
   "geometry": {
    "type": "Polygon",
    "coordinates": [
     [
      [
       194156.364,
       546919.706
      ],
      [
       194164.392,
       546909.72
      ],
      [
       194154.405,
       546901.692
      ],
      [
       194146.377,
       546911.678
      ],
      [
       194156.364,
       546919.706
      ]
     ]
    ]
   },
   "properties": {
    "label": "대교8",
    "group": "대교",
    "height_m": 104.3
   }
  },
  {
   "type": "Feature",
   "geometry": {
    "type": "Polygon",
    "coordinates": [
     [
      [
       194208.218,
       546916.554
      ],
      [
       194219.895,
       546902.028
      ],
      [
       194206.277,
       546891.081
      ],
      [
       194194.6,
       546905.607
      ],
      [
       194208.218,
       546916.554
      ]
     ]
    ]
   },
   "properties": {
    "label": "대교9",
    "group": "대교",
    "height_m": 130.8
   }
  },
  {
   "type": "Feature",
   "geometry": {
    "type": "Polygon",
    "coordinates": [
     [
      [
       194219.895,
       546902.028
      ],
      [
       194227.193,
       546892.949
      ],
      [
       194216.299,
       546884.192
      ],
      [
       194209.001,
       546893.27
      ],
      [
       194219.895,
       546902.028
      ]
     ]
    ]
   },
   "properties": {
    "label": "대교10",
    "group": "대교",
    "height_m": 130.8
   }
  },
  {
   "type": "Feature",
   "geometry": {
    "type": "Polygon",
    "coordinates": [
     [
      [
       194194.6,
       546905.607
      ],
      [
       194203.358,
       546894.712
      ],
      [
       194194.279,
       546887.414
      ],
      [
       194185.521,
       546898.309
      ],
      [
       194194.6,
       546905.607
      ]
     ]
    ]
   },
   "properties": {
    "label": "대교11",
    "group": "대교",
    "height_m": 104.3
   }
  },
  {
   "type": "Feature",
   "geometry": {
    "type": "Polygon",
    "coordinates": [
     [
      [
       194120.695,
       547079.347
      ],
      [
       194257.901,
       546908.667
      ],
      [
       194240.651,
       546894.8
      ],
      [
       194103.446,
       547065.481
      ],
      [
       194120.695,
       547079.347
      ]
     ]
    ]
   },
   "properties": {
    "label": "대교12",
    "group": "대교",
    "height_m": 4.5
   }
  },
  {
   "type": "Feature",
   "geometry": {
    "type": "Polygon",
    "coordinates": [
     [
      [
       194102.894,
       547068.026
      ],
      [
       194143.764,
       547017.185
      ],
      [
       194127.422,
       547004.049
      ],
      [
       194086.552,
       547054.89
      ],
      [
       194102.894,
       547068.026
      ]
     ]
    ]
   },
   "properties": {
    "label": "대교13",
    "group": "대교",
    "height_m": 4.5
   }
  },
  {
   "type": "Feature",
   "geometry": {
    "type": "Polygon",
    "coordinates": [
     [
      [
       194135.859,
       546974.961
      ],
      [
       194182.567,
       546916.857
      ],
      [
       194162.594,
       546900.801
      ],
      [
       194115.885,
       546958.905
      ],
      [
       194135.859,
       546974.961
      ]
     ]
    ]
   },
   "properties": {
    "label": "대교14",
    "group": "대교",
    "height_m": 4.5
   }
  },
  {
   "type": "Feature",
   "geometry": {
    "type": "Polygon",
    "coordinates": [
     [
      [
       194178.223,
       546907.387
      ],
      [
       194209.605,
       546868.349
      ],
      [
       194192.356,
       546854.482
      ],
      [
       194160.974,
       546893.521
      ],
      [
       194178.223,
       546907.387
      ]
     ]
    ]
   },
   "properties": {
    "label": "대교15",
    "group": "대교",
    "height_m": 9.0
   }
  },
  {
   "type": "Feature",
   "geometry": {
    "type": "Polygon",
    "coordinates": [
     [
      [
       194053.324,
       547028.178
      ],
      [
       194192.719,
       546854.774
      ],
      [
       194176.922,
       546842.075
      ],
      [
       194037.527,
       547015.479
      ],
      [
       194053.324,
       547028.178
      ]
     ]
    ]
   },
   "properties": {
    "label": "대교16",
    "group": "대교",
    "height_m": 4.5
   }
  },
  {
   "type": "Feature",
   "geometry": {
    "type": "Polygon",
    "coordinates": [
     [
      [
       194225.061,
       546791.934
      ],
      [
       194227.902,
       546794.177
      ],
      [
       194229.024,
       546792.757
      ],
      [
       194231.154,
       546794.439
      ],
      [
       194230.742,
       546796.421
      ],
      [
       194232.163,
       546797.542
      ],
      [
       194236.089,
       546792.571
      ],
      [
       194233.248,
       546790.328
      ],
      [
       194228.987,
       546786.963
      ],
      [
       194231.791,
       546783.412
      ],
      [
       194231.081,
       546782.851
      ],
      [
       194225.622,
       546791.224
      ],
      [
       194225.061,
       546791.934
      ]
     ]
    ]
   },
   "properties": {
    "label": "시범0",
    "group": "시범",
    "height_m": 58.8
   }
  },
  {
   "type": "Feature",
   "geometry": {
    "type": "Polygon",
    "coordinates": [
     [
      [
       194232.873,
       546798.103
      ],
      [
       194243.525,
       546806.515
      ],
      [
       194248.572,
       546800.124
      ],
      [
       194242.032,
       546793.806
      ],
      [
       194244.275,
       546790.965
      ],
      [
       194237.884,
       546785.918
      ],
      [
       194239.566,
       546783.787
      ],
      [
       194235.156,
       546779.151
      ],
      [
       194237.137,
       546779.563
      ],
      [
       194238.82,
       546777.433
      ],
      [
       194240.502,
       546775.302
      ],
      [
       194238.223,
       546772.349
      ],
      [
       194232.054,
       546780.16
      ],
      [
       194232.352,
       546782.702
      ],
      [
       194234.035,
       546780.572
      ],
      [
       194234.745,
       546781.133
      ],
      [
       194230.258,
       546786.814
      ],
      [
       194241.62,
       546795.787
      ],
      [
       194241.059,
       546796.497
      ],
      [
       194236.799,
       546793.132
      ],
      [
       194233.434,
       546797.393
      ],
      [
       194232.873,
       546798.103
      ]
     ]
    ]
   },
   "properties": {
    "label": "시범1",
    "group": "시범",
    "height_m": 58.8
   }
  },
  {
   "type": "Feature",
   "geometry": {
    "type": "Polygon",
    "coordinates": [
     [
      [
       194235.233,
       546768.834
      ],
      [
       194242.334,
       546774.443
      ],
      [
       194248.092,
       546768.612
      ],
      [
       194245.251,
       546766.369
      ],
      [
       194248.616,
       546762.108
      ],
      [
       194247.196,
       546760.987
      ],
      [
       194243.419,
       546767.229
      ],
      [
       194240.054,
       546771.489
      ],
      [
       194237.065,
       546767.975
      ],
      [
       194244.355,
       546758.743
      ],
      [
       194243.645,
       546758.183
      ],
      [
       194235.794,
       546768.124
      ],
      [
       194235.233,
       546768.834
      ]
     ]
    ]
   },
   "properties": {
    "label": "시범2",
    "group": "시범",
    "height_m": 78.0
   }
  },
  {
   "type": "Feature",
   "geometry": {
    "type": "Polygon",
    "coordinates": [
     [
      [
       194246.522,
       546766.22
      ],
      [
       194252.203,
       546770.706
      ],
      [
       194258.372,
       546762.895
      ],
      [
       194254.672,
       546758.82
      ],
      [
       194255.943,
       546758.671
      ],
      [
       194260.281,
       546751.719
      ],
      [
       194253.179,
       546746.11
      ],
      [
       194247.01,
       546753.922
      ],
      [
       194244.206,
       546757.472
      ],
      [
       194244.916,
       546758.033
      ],
      [
       194253.329,
       546747.381
      ],
      [
       194255.608,
       546750.335
      ],
      [
       194247.757,
       546760.277
      ],
      [
       194249.177,
       546761.398
      ],
      [
       194252.542,
       546757.137
      ],
      [
       194253.252,
       546757.698
      ],
      [
       194247.083,
       546765.51
      ],
      [
       194246.522,
       546766.22
      ]
     ]
    ]
   },
   "properties": {
    "label": "시범3",
    "group": "시범",
    "height_m": 78.0
   }
  },
  {
   "type": "Feature",
   "geometry": {
    "type": "Polygon",
    "coordinates": [
     [
      [
       194254.887,
       546815.489
      ],
      [
       194266.81,
       546823.752
      ],
      [
       194270.736,
       546818.781
      ],
      [
       194276.417,
       546823.268
      ],
      [
       194275.856,
       546823.978
      ],
      [
       194270.885,
       546820.052
      ],
      [
       194266.959,
       546825.023
      ],
      [
       194267.669,
       546825.584
      ],
      [
       194269.913,
       546822.743
      ],
      [
       194274.173,
       546826.108
      ],
      [
       194275.295,
       546824.688
      ],
      [
       194281.537,
       546828.464
      ],
      [
       194281.388,
       546827.193
      ],
      [
       194283.07,
       546825.063
      ],
      [
       194277.538,
       546821.847
      ],
      [
       194278.099,
       546821.137
      ],
      [
       194281.65,
       546823.941
      ],
      [
       194283.332,
       546821.811
      ],
      [
       194268.569,
       546811.304
      ],
      [
       194266.886,
       546813.435
      ],
      [
       194267.895,
       546816.538
      ],
      [
       194264.381,
       546819.527
      ],
      [
       194257.28,
       546813.919
      ],
      [
       194257.13,
       546812.648
      ],
      [
       194255.448,
       546814.779
      ],
      [
       194254.887,
       546815.489
      ]
     ]
    ]
   },
   "properties": {
    "label": "시범4",
    "group": "시범",
    "height_m": 52.4
   }
  },
  {
   "type": "Feature",
   "geometry": {
    "type": "Polygon",
    "coordinates": [
     [
      [
       194278.922,
       546817.175
      ],
      [
       194283.893,
       546821.101
      ],
      [
       194286.435,
       546820.802
      ],
      [
       194289.8,
       546816.541
      ],
      [
       194289.949,
       546817.812
      ],
      [
       194294.771,
       546820.467
      ],
      [
       194300.94,
       546812.656
      ],
      [
       194296.679,
       546809.291
      ],
      [
       194301.876,
       546804.17
      ],
      [
       194302.138,
       546800.918
      ],
      [
       194300.867,
       546801.068
      ],
      [
       194300.157,
       546800.507
      ],
      [
       194295.11,
       546806.898
      ],
      [
       194293.69,
       546805.776
      ],
      [
       194283.595,
       546818.559
      ],
      [
       194280.193,
       546817.026
      ],
      [
       194286.923,
       546808.504
      ],
      [
       194286.213,
       546807.943
      ],
      [
       194279.483,
       546816.465
      ],
      [
       194278.922,
       546817.175
      ]
     ]
    ]
   },
   "properties": {
    "label": "시범5",
    "group": "시범",
    "height_m": 65.2
   }
  },
  {
   "type": "Feature",
   "geometry": {
    "type": "Polygon",
    "coordinates": [
     [
      [
       194310.164,
       546863.756
      ],
      [
       194317.266,
       546869.365
      ],
      [
       194319.658,
       546867.795
      ],
      [
       194321.789,
       546869.478
      ],
      [
       194320.667,
       546870.898
      ],
      [
       194322.237,
       546873.29
      ],
      [
       194326.723,
       546867.609
      ],
      [
       194328.144,
       546868.731
      ],
      [
       194322.947,
       546873.851
      ],
      [
       194333.599,
       546882.264
      ],
      [
       194339.207,
       546875.162
      ],
      [
       194333.377,
       546869.405
      ],
      [
       194331.694,
       546871.535
      ],
      [
       194330.984,
       546870.974
      ],
      [
       194332.667,
       546868.844
      ],
      [
       194334.349,
       546866.714
      ],
      [
       194328.668,
       546862.227
      ],
      [
       194330.201,
       546858.826
      ],
      [
       194326.65,
       546856.021
      ],
      [
       194330.576,
       546851.05
      ],
      [
       194328.297,
       546848.097
      ],
      [
       194327.885,
       546850.078
      ],
      [
       194324.371,
       546853.068
      ],
      [
       194325.94,
       546855.461
      ],
      [
       194319.771,
       546863.272
      ],
      [
       194319.061,
       546862.711
      ],
      [
       194321.865,
       546859.161
      ],
      [
       194321.155,
       546858.6
      ],
      [
       194315.696,
       546866.972
      ],
      [
       194310.725,
       546863.046
      ],
      [
       194310.164,
       546863.756
      ]
     ]
    ]
   },
   "properties": {
    "label": "시범6",
    "group": "시범",
    "height_m": 46.0
   }
  },
  {
   "type": "Feature",
   "geometry": {
    "type": "Polygon",
    "coordinates": [
     [
      [
       194325.307,
       546844.583
      ],
      [
       194332.408,
       546850.191
      ],
      [
       194338.016,
       546843.09
      ],
      [
       194335.886,
       546841.407
      ],
      [
       194339.251,
       546837.146
      ],
      [
       194338.541,
       546836.586
      ],
      [
       194343.177,
       546832.176
      ],
      [
       194345.307,
       546833.858
      ],
      [
       194350.355,
       546827.467
      ],
      [
       194348.934,
       546826.345
      ],
      [
       194343.253,
       546821.859
      ],
      [
       194342.692,
       546822.569
      ],
      [
       194346.243,
       546825.373
      ],
      [
       194335.027,
       546839.575
      ],
      [
       194335.737,
       546840.136
      ],
      [
       194330.689,
       546846.527
      ],
      [
       194326.428,
       546843.163
      ],
      [
       194325.868,
       546843.873
      ],
      [
       194325.307,
       546844.583
      ]
     ]
    ]
   },
   "properties": {
    "label": "시범7",
    "group": "시범",
    "height_m": 55.6
   }
  },
  {
   "type": "Feature",
   "geometry": {
    "type": "Polygon",
    "coordinates": [
     [
      [
       194337.157,
       546841.258
      ],
      [
       194342.838,
       546845.745
      ],
      [
       194349.007,
       546837.933
      ],
      [
       194343.326,
       546833.446
      ],
      [
       194337.718,
       546840.548
      ],
      [
       194337.157,
       546841.258
      ]
     ]
    ]
   },
   "properties": {
    "label": "시범8",
    "group": "시범",
    "height_m": 55.6
   }
  },
  {
   "type": "Feature",
   "geometry": {
    "type": "Polygon",
    "coordinates": [
     [
      [
       194354.903,
       546899.089
      ],
      [
       194357.743,
       546901.332
      ],
      [
       194359.426,
       546899.201
      ],
      [
       194361.556,
       546900.884
      ],
      [
       194360.434,
       546902.304
      ],
      [
       194362.004,
       546904.697
      ],
      [
       194364.808,
       546901.146
      ],
      [
       194362.678,
       546899.464
      ],
      [
       194363.089,
       546897.483
      ],
      [
       194365.07,
       546897.894
      ],
      [
       194363.949,
       546899.314
      ],
      [
       194365.369,
       546900.436
      ],
      [
       194372.099,
       546891.914
      ],
      [
       194364.437,
       546887.016
      ],
      [
       194365.558,
       546885.596
      ],
      [
       194366.979,
       546886.718
      ],
      [
       194370.344,
       546882.457
      ],
      [
       194368.064,
       546879.503
      ],
      [
       194361.895,
       546887.315
      ],
      [
       194362.193,
       546889.857
      ],
      [
       194363.876,
       546887.726
      ],
      [
       194364.586,
       546888.287
      ],
      [
       194360.66,
       546893.258
      ],
      [
       194361.37,
       546893.819
      ],
      [
       194359.539,
       546894.678
      ],
      [
       194361.633,
       546890.567
      ],
      [
       194360.923,
       546890.006
      ],
      [
       194355.464,
       546898.378
      ],
      [
       194354.903,
       546899.089
      ]
     ]
    ]
   },
   "properties": {
    "label": "시범9",
    "group": "시범",
    "height_m": 36.4
   }
  },
  {
   "type": "Feature",
   "geometry": {
    "type": "Polygon",
    "coordinates": [
     [
      [
       194365.074,
       546875.989
      ],
      [
       194372.175,
       546881.597
      ],
      [
       194373.858,
       546879.467
      ],
      [
       194374.568,
       546880.028
      ],
      [
       194378.494,
       546875.057
      ],
      [
       194375.653,
       546872.814
      ],
      [
       194382.944,
       546863.582
      ],
      [
       194385.785,
       546865.825
      ],
      [
       194390.122,
       546858.873
      ],
      [
       194383.021,
       546853.265
      ],
      [
       194374.608,
       546863.917
      ],
      [
       194376.44,
       546863.058
      ],
      [
       194383.17,
       546854.536
      ],
      [
       194386.011,
       546856.779
      ],
      [
       194370.457,
       546877.934
      ],
      [
       194367.467,
       546874.42
      ],
      [
       194374.197,
       546865.898
      ],
      [
       194373.487,
       546865.337
      ],
      [
       194365.635,
       546875.279
      ],
      [
       194365.074,
       546875.989
      ]
     ]
    ]
   },
   "properties": {
    "label": "시범10",
    "group": "시범",
    "height_m": 46.0
   }
  },
  {
   "type": "Feature",
   "geometry": {
    "type": "Polygon",
    "coordinates": [
     [
      [
       194376.924,
       546872.664
      ],
      [
       194382.605,
       546877.151
      ],
      [
       194388.775,
       546869.34
      ],
      [
       194383.093,
       546864.853
      ],
      [
       194377.485,
       546871.954
      ],
      [
       194376.924,
       546872.664
      ]
     ]
    ]
   },
   "properties": {
    "label": "시범11",
    "group": "시범",
    "height_m": 46.0
   }
  },
  {
   "type": "Feature",
   "geometry": {
    "type": "Polygon",
    "coordinates": [
     [
      [
       194374.076,
       546914.231
      ],
      [
       194383.869,
       546920.812
      ],
      [
       194385.701,
       546919.952
      ],
      [
       194388.541,
       546922.195
      ],
      [
       194386.859,
       546924.326
      ],
      [
       194398.221,
       546933.299
      ],
      [
       194398.782,
       546932.589
      ],
      [
       194400.351,
       546934.982
      ],
      [
       194403.716,
       546930.721
      ],
      [
       194401.586,
       546929.038
      ],
      [
       194403.829,
       546926.198
      ],
      [
       194401.699,
       546924.515
      ],
      [
       194403.942,
       546921.675
      ],
      [
       194404.652,
       546922.236
      ],
      [
       194402.97,
       546924.366
      ],
      [
       194406.072,
       546923.357
      ],
      [
       194415.606,
       546911.285
      ],
      [
       194411.346,
       546907.92
      ],
      [
       194407.795,
       546905.116
      ],
      [
       194399.943,
       546915.058
      ],
      [
       194400.093,
       546916.329
      ],
      [
       194394.412,
       546911.842
      ],
      [
       194392.58,
       546912.702
      ],
      [
       194388.319,
       546909.337
      ],
      [
       194384.805,
       546912.326
      ],
      [
       194389.776,
       546916.252
      ],
      [
       194388.654,
       546917.672
      ],
      [
       194385.664,
       546914.158
      ],
      [
       194382.86,
       546917.709
      ],
      [
       194374.339,
       546910.979
      ],
      [
       194378.264,
       546906.008
      ],
      [
       194377.554,
       546905.447
      ],
      [
       194373.628,
       546910.418
      ],
      [
       194373.217,
       546912.399
      ],
      [
       194374.637,
       546913.521
      ],
      [
       194374.076,
       546914.231
      ]
     ]
    ]
   },
   "properties": {
    "label": "시범12",
    "group": "시범",
    "height_m": 27.0
   }
  },
  {
   "type": "Feature",
   "geometry": {
    "type": "Polygon",
    "coordinates": [
     [
      [
       194410.599,
       546901.565
      ],
      [
       194416.28,
       546906.052
      ],
      [
       194419.084,
       546902.501
      ],
      [
       194418.225,
       546900.669
      ],
      [
       194421.065,
       546902.913
      ],
      [
       194424.43,
       546898.652
      ],
      [
       194426.561,
       546900.334
      ],
      [
       194423.196,
       546904.595
      ],
      [
       194426.747,
       546907.399
      ],
      [
       194428.429,
       546905.269
      ],
      [
       194429.849,
       546906.391
      ],
      [
       194431.532,
       546904.26
      ],
      [
       194432.242,
       546904.821
      ],
      [
       194427.755,
       546910.502
      ],
      [
       194435.567,
       546916.671
      ],
      [
       194436.128,
       546915.961
      ],
      [
       194439.117,
       546919.475
      ],
      [
       194451.044,
       546905.834
      ],
      [
       194453.287,
       546902.993
      ],
      [
       194436.244,
       546889.533
      ],
      [
       194435.683,
       546890.243
      ],
      [
       194426.302,
       546881.682
      ],
      [
       194419.012,
       546890.913
      ],
      [
       194423.983,
       546894.839
      ],
      [
       194425.104,
       546893.419
      ],
      [
       194425.403,
       546895.961
      ],
      [
       194424.281,
       546897.381
      ],
      [
       194418.451,
       546891.623
      ],
      [
       194411.16,
       546900.855
      ],
      [
       194410.599,
       546901.565
      ]
     ]
    ]
   },
   "properties": {
    "label": "시범13",
    "group": "시범",
    "height_m": 43.0
   }
  },
  {
   "type": "Feature",
   "geometry": {
    "type": "Polygon",
    "coordinates": [
     [
      [
       194301.916,
       546788.059
      ],
      [
       194307.597,
       546792.546
      ],
      [
       194310.252,
       546787.725
      ],
      [
       194318.064,
       546793.894
      ],
      [
       194319.746,
       546791.763
      ],
      [
       194321.166,
       546792.885
      ],
      [
       194318.213,
       546795.165
      ],
      [
       194321.764,
       546797.969
      ],
      [
       194323.595,
       546797.109
      ],
      [
       194321.913,
       546799.24
      ],
      [
       194329.724,
       546805.409
      ],
      [
       194329.874,
       546806.68
      ],
      [
       194333.799,
       546801.709
      ],
      [
       194333.089,
       546801.148
      ],
      [
       194339.969,
       546793.897
      ],
      [
       194337.128,
       546791.654
      ],
      [
       194337.689,
       546790.944
      ],
      [
       194340.529,
       546793.187
      ],
      [
       194343.894,
       546788.926
      ],
      [
       194343.184,
       546788.366
      ],
      [
       194328.271,
       546776.588
      ],
      [
       194326.44,
       546777.448
      ],
      [
       194334.251,
       546783.617
      ],
      [
       194332.419,
       546784.476
      ],
      [
       194330.999,
       546783.355
      ],
      [
       194329.877,
       546784.775
      ],
      [
       194319.936,
       546776.923
      ],
      [
       194322.03,
       546772.812
      ],
      [
       194317.059,
       546768.886
      ],
      [
       194302.477,
       546787.349
      ],
      [
       194301.916,
       546788.059
      ]
     ]
    ]
   },
   "properties": {
    "label": "시범14",
    "group": "시범",
    "height_m": 100.6
   }
  },
  {
   "type": "Feature",
   "geometry": {
    "type": "Polygon",
    "coordinates": [
     [
      [
       194388.928,
       546848.706
      ],
      [
       194394.609,
       546853.192
      ],
      [
       194397.413,
       546849.642
      ],
      [
       194395.993,
       546848.52
      ],
      [
       194399.918,
       546843.549
      ],
      [
       194400.628,
       546844.11
      ],
      [
       194397.263,
       546848.371
      ],
      [
       194399.394,
       546850.053
      ],
      [
       194403.32,
       546845.082
      ],
      [
       194405.45,
       546846.765
      ],
      [
       194401.524,
       546851.736
      ],
      [
       194406.346,
       546854.39
      ],
      [
       194405.374,
       546857.082
      ],
      [
       194417.296,
       546865.345
      ],
      [
       194418.979,
       546863.214
      ],
      [
       194418.269,
       546862.653
      ],
      [
       194424.026,
       546856.823
      ],
      [
       194420.625,
       546855.29
      ],
      [
       194422.457,
       546854.431
      ],
      [
       194425.297,
       546856.674
      ],
      [
       194430.906,
       546849.573
      ],
      [
       194429.485,
       546848.451
      ],
      [
       194427.355,
       546846.768
      ],
      [
       194427.916,
       546846.058
      ],
      [
       194414.573,
       546836.673
      ],
      [
       194414.423,
       546835.402
      ],
      [
       194409.525,
       546843.065
      ],
      [
       194408.815,
       546842.504
      ],
      [
       194413.302,
       546836.823
      ],
      [
       194404.631,
       546828.822
      ],
      [
       194397.34,
       546838.054
      ],
      [
       194401.601,
       546841.419
      ],
      [
       194405.676,
       546837.719
      ],
      [
       194406.386,
       546838.279
      ],
      [
       194401.75,
       546842.689
      ],
      [
       194396.779,
       546838.764
      ],
      [
       194389.488,
       546847.995
      ],
      [
       194388.928,
       546848.706
      ]
     ]
    ]
   },
   "properties": {
    "label": "시범15",
    "group": "시범",
    "height_m": 62.2
   }
  },
  {
   "type": "Feature",
   "geometry": {
    "type": "Polygon",
    "coordinates": [
     [
      [
       194365.985,
       546795.995
      ],
      [
       194371.666,
       546800.482
      ],
      [
       194374.321,
       546795.66
      ],
      [
       194376.451,
       546797.343
      ],
      [
       194380.377,
       546792.372
      ],
      [
       194382.508,
       546794.054
      ],
      [
       194378.582,
       546799.025
      ],
      [
       194382.132,
       546801.829
      ],
      [
       194383.815,
       546799.699
      ],
      [
       194384.525,
       546800.26
      ],
      [
       194382.282,
       546803.1
      ],
      [
       194383.141,
       546804.932
      ],
      [
       194395.064,
       546813.195
      ],
      [
       194401.794,
       546804.674
      ],
      [
       194398.953,
       546802.43
      ],
      [
       194399.514,
       546801.72
      ],
      [
       194402.355,
       546803.963
      ],
      [
       194405.72,
       546799.703
      ],
      [
       194408.524,
       546796.152
      ],
      [
       194395.031,
       546785.496
      ],
      [
       194391.069,
       546784.673
      ],
      [
       194386.098,
       546780.747
      ],
      [
       194387.22,
       546779.327
      ],
      [
       194382.249,
       546775.401
      ],
      [
       194374.397,
       546785.343
      ],
      [
       194379.368,
       546789.269
      ],
      [
       194381.2,
       546788.41
      ],
      [
       194379.518,
       546790.54
      ],
      [
       194373.837,
       546786.053
      ],
      [
       194366.546,
       546795.285
      ],
      [
       194365.985,
       546795.995
      ]
     ]
    ]
   },
   "properties": {
    "label": "시범16",
    "group": "시범",
    "height_m": 78.2
   }
  },
  {
   "type": "Feature",
   "geometry": {
    "type": "Polygon",
    "coordinates": [
     [
      [
       194295.831,
       546741.744
      ],
      [
       194313.734,
       546757.036
      ],
      [
       194327.194,
       546739.993
      ],
      [
       194314.411,
       546729.898
      ],
      [
       194313.29,
       546731.318
      ],
      [
       194308.169,
       546726.121
      ],
      [
       194302.488,
       546721.635
      ],
      [
       194301.217,
       546721.784
      ],
      [
       194299.123,
       546725.895
      ],
      [
       194297.703,
       546724.774
      ],
      [
       194299.946,
       546721.933
      ],
      [
       194294.415,
       546718.717
      ],
      [
       194287.124,
       546727.949
      ],
      [
       194292.954,
       546733.707
      ],
      [
       194295.758,
       546730.156
      ],
      [
       194296.469,
       546730.717
      ],
      [
       194292.543,
       546735.688
      ],
      [
       194294.673,
       546737.37
      ],
      [
       194294.112,
       546738.08
      ],
      [
       194297.514,
       546739.614
      ],
      [
       194295.831,
       546741.744
      ]
     ]
    ]
   },
   "properties": {
    "label": "시범17",
    "group": "시범",
    "height_m": 123.0
   }
  },
  {
   "type": "Feature",
   "geometry": {
    "type": "Polygon",
    "coordinates": [
     [
      [
       194284.094,
       546740.546
      ],
      [
       194292.616,
       546747.276
      ],
      [
       194293.737,
       546745.856
      ],
      [
       194295.868,
       546747.538
      ],
      [
       194298.111,
       546744.698
      ],
      [
       194295.27,
       546742.454
      ],
      [
       194295.831,
       546741.744
      ],
      [
       194295.121,
       546741.183
      ],
      [
       194295.682,
       546740.473
      ],
      [
       194291.272,
       546735.837
      ],
      [
       194292.393,
       546734.417
      ],
      [
       194290.263,
       546732.734
      ],
      [
       194284.655,
       546739.836
      ],
      [
       194284.094,
       546740.546
      ]
     ]
    ]
   },
   "properties": {
    "label": "시범18",
    "group": "시범",
    "height_m": 123.0
   }
  },
  {
   "type": "Feature",
   "geometry": {
    "type": "Polygon",
    "coordinates": [
     [
      [
       194351.269,
       546725.568
      ],
      [
       194360.501,
       546732.859
      ],
      [
       194361.623,
       546731.438
      ],
      [
       194363.753,
       546733.121
      ],
      [
       194365.286,
       546729.719
      ],
      [
       194370.818,
       546732.935
      ],
      [
       194371.94,
       546731.515
      ],
      [
       194372.65,
       546732.076
      ],
      [
       194370.967,
       546734.206
      ],
      [
       194381.619,
       546742.619
      ],
      [
       194386.106,
       546736.937
      ],
      [
       194384.686,
       546735.816
      ],
      [
       194387.228,
       546735.517
      ],
      [
       194392.836,
       546728.416
      ],
      [
       194389.995,
       546726.173
      ],
      [
       194393.51,
       546723.183
      ],
      [
       194385.698,
       546717.014
      ],
      [
       194385.137,
       546717.724
      ],
      [
       194384.278,
       546715.892
      ],
      [
       194382.297,
       546715.48
      ],
      [
       194381.175,
       546716.901
      ],
      [
       194377.064,
       546714.807
      ],
      [
       194369.252,
       546708.638
      ],
      [
       194369.103,
       546707.367
      ],
      [
       194367.42,
       546709.497
      ],
      [
       194370.261,
       546711.74
      ],
      [
       194369.7,
       546712.45
      ],
      [
       194367.57,
       546710.768
      ],
      [
       194365.887,
       546712.898
      ],
      [
       194365.589,
       546710.356
      ],
      [
       194367.271,
       546708.226
      ],
      [
       194362.3,
       546704.3
      ],
      [
       194354.448,
       546714.242
      ],
      [
       194359.569,
       546719.439
      ],
      [
       194362.784,
       546713.907
      ],
      [
       194364.205,
       546715.029
      ],
      [
       194360.279,
       546720.0
      ],
      [
       194364.689,
       546724.636
      ],
      [
       194364.128,
       546725.346
      ],
      [
       194356.878,
       546718.467
      ],
      [
       194351.83,
       546724.858
      ],
      [
       194351.269,
       546725.568
      ]
     ]
    ]
   },
   "properties": {
    "label": "시범19",
    "group": "시범",
    "height_m": 110.2
   }
  },
  {
   "type": "Feature",
   "geometry": {
    "type": "Polygon",
    "coordinates": [
     [
      [
       194343.691,
       546666.543
      ],
      [
       194354.194,
       546673.684
      ],
      [
       194357.708,
       546670.694
      ],
      [
       194359.838,
       546672.377
      ],
      [
       194363.203,
       546668.116
      ],
      [
       194363.502,
       546670.658
      ],
      [
       194360.549,
       546672.938
      ],
      [
       194361.969,
       546674.059
      ],
      [
       194364.212,
       546671.219
      ],
      [
       194364.922,
       546671.78
      ],
      [
       194362.118,
       546675.33
      ],
      [
       194363.389,
       546675.181
      ],
      [
       194363.538,
       546676.452
      ],
      [
       194370.64,
       546682.06
      ],
      [
       194371.201,
       546681.35
      ],
      [
       194372.77,
       546683.743
      ],
      [
       194373.892,
       546682.323
      ],
      [
       194375.461,
       546684.715
      ],
      [
       194378.266,
       546681.164
      ],
      [
       194378.116,
       546679.894
      ],
      [
       194376.135,
       546679.482
      ],
      [
       194377.818,
       546677.352
      ],
      [
       194377.107,
       546676.791
      ],
      [
       194384.548,
       546668.83
      ],
      [
       194381.707,
       546666.587
      ],
      [
       194382.268,
       546665.877
      ],
      [
       194385.108,
       546668.12
      ],
      [
       194386.23,
       546666.7
      ],
      [
       194386.081,
       546665.429
      ],
      [
       194383.39,
       546664.456
      ],
      [
       194383.95,
       546663.746
      ],
      [
       194374.008,
       546655.895
      ],
      [
       194368.961,
       546662.286
      ],
      [
       194368.251,
       546661.725
      ],
      [
       194370.494,
       546658.884
      ],
      [
       194364.103,
       546653.837
      ],
      [
       194364.664,
       546653.127
      ],
      [
       194371.055,
       546658.174
      ],
      [
       194371.616,
       546657.464
      ],
      [
       194360.254,
       546648.491
      ],
      [
       194359.693,
       546649.201
      ],
      [
       194363.244,
       546652.005
      ],
      [
       194362.683,
       546652.715
      ],
      [
       194359.132,
       546649.911
      ],
      [
       194358.01,
       546651.331
      ],
      [
       194358.273,
       546648.079
      ],
      [
       194354.012,
       546644.714
      ],
      [
       194346.16,
       546654.656
      ],
      [
       194349.86,
       546658.731
      ],
      [
       194344.252,
       546665.833
      ],
      [
       194343.691,
       546666.543
      ]
     ]
    ]
   },
   "properties": {
    "label": "시범20",
    "group": "시범",
    "height_m": 132.6
   }
  },
  {
   "type": "Feature",
   "geometry": {
    "type": "Polygon",
    "coordinates": [
     [
      [
       194516.431,
       546853.699
      ],
      [
       194518.114,
       546851.569
      ],
      [
       194520.244,
       546853.251
      ],
      [
       194518.263,
       546852.84
      ],
      [
       194518.562,
       546855.382
      ],
      [
       194529.214,
       546863.794
      ],
      [
       194530.485,
       546863.645
      ],
      [
       194530.336,
       546862.374
      ],
      [
       194536.654,
       546855.833
      ],
      [
       194534.524,
       546854.151
      ],
      [
       194535.084,
       546853.441
      ],
      [
       194537.215,
       546855.123
      ],
      [
       194540.019,
       546851.572
      ],
      [
       194539.309,
       546851.012
      ],
      [
       194548.992,
       546840.21
      ],
      [
       194548.282,
       546839.649
      ],
      [
       194544.356,
       546844.62
      ],
      [
       194543.646,
       546844.06
      ],
      [
       194548.133,
       546838.378
      ],
      [
       194541.742,
       546833.331
      ],
      [
       194546.228,
       546827.65
      ],
      [
       194543.948,
       546824.697
      ],
      [
       194534.717,
       546817.406
      ],
      [
       194536.96,
       546814.565
      ],
      [
       194531.279,
       546810.079
      ],
      [
       194516.697,
       546828.542
      ],
      [
       194521.818,
       546833.739
      ],
      [
       194521.257,
       546834.449
      ],
      [
       194517.706,
       546831.645
      ],
      [
       194517.145,
       546832.355
      ],
      [
       194515.576,
       546829.962
      ],
      [
       194511.65,
       546834.933
      ],
      [
       194514.491,
       546837.177
      ],
      [
       194513.93,
       546837.887
      ],
      [
       194511.089,
       546835.643
      ],
      [
       194504.92,
       546843.455
      ],
      [
       194516.431,
       546853.699
      ]
     ]
    ]
   },
   "properties": {
    "label": "시범21",
    "group": "시범",
    "height_m": 196.5
   }
  },
  {
   "type": "Feature",
   "geometry": {
    "type": "Polygon",
    "coordinates": [
     [
      [
       194433.39,
       546750.066
      ],
      [
       194448.303,
       546761.844
      ],
      [
       194454.472,
       546754.032
      ],
      [
       194454.173,
       546751.49
      ],
      [
       194461.052,
       546744.24
      ],
      [
       194458.212,
       546741.996
      ],
      [
       194455.969,
       546744.837
      ],
      [
       194455.258,
       546744.276
      ],
      [
       194457.502,
       546741.435
      ],
      [
       194449.69,
       546735.266
      ],
      [
       194446.886,
       546738.817
      ],
      [
       194445.466,
       546737.695
      ],
      [
       194448.98,
       546734.705
      ],
      [
       194447.148,
       546735.565
      ],
      [
       194443.598,
       546732.761
      ],
      [
       194443.037,
       546733.471
      ],
      [
       194440.794,
       546736.311
      ],
      [
       194438.962,
       546737.171
      ],
      [
       194437.542,
       546736.049
      ],
      [
       194441.467,
       546731.078
      ],
      [
       194441.318,
       546729.807
      ],
      [
       194438.627,
       546728.835
      ],
      [
       194439.748,
       546727.415
      ],
      [
       194441.169,
       546728.536
      ],
      [
       194443.412,
       546725.696
      ],
      [
       194437.731,
       546721.209
      ],
      [
       194422.589,
       546740.383
      ],
      [
       194431.82,
       546747.674
      ],
      [
       194435.185,
       546743.413
      ],
      [
       194435.895,
       546743.974
      ],
      [
       194432.53,
       546748.234
      ],
      [
       194433.951,
       546749.356
      ],
      [
       194433.39,
       546750.066
      ]
     ]
    ]
   },
   "properties": {
    "label": "시범22",
    "group": "시범",
    "height_m": 91.0
   }
  },
  {
   "type": "Feature",
   "geometry": {
    "type": "Polygon",
    "coordinates": [
     [
      [
       194483.627,
       546760.915
      ],
      [
       194488.598,
       546764.841
      ],
      [
       194489.159,
       546764.131
      ],
      [
       194509.902,
       546781.666
      ],
      [
       194515.511,
       546774.564
      ],
      [
       194511.96,
       546771.76
      ],
      [
       194512.521,
       546771.05
      ],
      [
       194515.361,
       546773.293
      ],
      [
       194515.922,
       546772.583
      ],
      [
       194513.082,
       546770.34
      ],
      [
       194513.642,
       546769.63
      ],
      [
       194515.773,
       546771.312
      ],
      [
       194522.091,
       546764.772
      ],
      [
       194519.251,
       546762.529
      ],
      [
       194517.568,
       546764.659
      ],
      [
       194516.858,
       546764.098
      ],
      [
       194518.541,
       546761.968
      ],
      [
       194519.101,
       546761.258
      ],
      [
       194510.58,
       546754.528
      ],
      [
       194508.748,
       546755.387
      ],
      [
       194504.487,
       546752.022
      ],
      [
       194500.561,
       546756.993
      ],
      [
       194499.141,
       546755.871
      ],
      [
       194502.357,
       546750.34
      ],
      [
       194500.226,
       546748.657
      ],
      [
       194502.207,
       546749.069
      ],
      [
       194505.012,
       546745.518
      ],
      [
       194499.331,
       546741.031
      ],
      [
       194498.06,
       546741.181
      ],
      [
       194485.721,
       546756.804
      ],
      [
       194486.432,
       546757.364
      ],
      [
       194483.478,
       546759.644
      ],
      [
       194484.188,
       546760.205
      ],
      [
       194483.627,
       546760.915
      ]
     ]
    ]
   },
   "properties": {
    "label": "시범23",
    "group": "시범",
    "height_m": 87.8
   }
  },
  {
   "type": "Feature",
   "geometry": {
    "type": "Polygon",
    "coordinates": [
     [
      [
       194508.639,
       546738.005
      ],
      [
       194513.46,
       546740.66
      ],
      [
       194519.63,
       546732.849
      ],
      [
       194518.209,
       546731.727
      ],
      [
       194518.621,
       546729.746
      ],
      [
       194522.958,
       546722.794
      ],
      [
       194517.277,
       546718.307
      ],
      [
       194514.324,
       546720.587
      ],
      [
       194509.276,
       546726.978
      ],
      [
       194512.117,
       546729.221
      ],
      [
       194511.556,
       546729.931
      ],
      [
       194509.425,
       546728.249
      ],
      [
       194507.594,
       546729.108
      ],
      [
       194507.182,
       546731.09
      ],
      [
       194512.714,
       546734.305
      ],
      [
       194510.471,
       546737.146
      ],
      [
       194510.733,
       546733.894
      ],
      [
       194509.2,
       546737.295
      ],
      [
       194508.639,
       546738.005
      ]
     ]
    ]
   },
   "properties": {
    "label": "시범24",
    "group": "시범",
    "height_m": 84.4
   }
  },
  {
   "type": "Feature",
   "geometry": {
    "type": "Polygon",
    "coordinates": [
     [
      [
       194567.459,
       546832.887
      ],
      [
       194574.561,
       546838.495
      ],
      [
       194576.243,
       546836.365
      ],
      [
       194575.832,
       546838.346
      ],
      [
       194578.374,
       546838.047
      ],
      [
       194576.691,
       546840.178
      ],
      [
       194589.324,
       546849.002
      ],
      [
       194590.446,
       546847.581
      ],
      [
       194591.156,
       546848.142
      ],
      [
       194589.473,
       546850.273
      ],
      [
       194597.285,
       546856.442
      ],
      [
       194601.921,
       546852.032
      ],
      [
       194598.37,
       546849.227
      ],
      [
       194598.931,
       546848.517
      ],
      [
       194601.772,
       546850.761
      ],
      [
       194603.454,
       546848.63
      ],
      [
       194601.324,
       546846.948
      ],
      [
       194599.492,
       546847.807
      ],
      [
       194601.735,
       546844.967
      ],
      [
       194601.885,
       546846.238
      ],
      [
       194605.286,
       546847.771
      ],
      [
       194610.333,
       546841.38
      ],
      [
       194606.783,
       546838.575
      ],
      [
       194607.343,
       546837.865
      ],
      [
       194610.184,
       546840.109
      ],
      [
       194611.306,
       546838.688
      ],
      [
       194608.465,
       546836.445
      ],
      [
       194612.952,
       546830.764
      ],
      [
       194611.532,
       546829.642
      ],
      [
       194605.85,
       546825.156
      ],
      [
       194606.972,
       546823.735
      ],
      [
       194605.552,
       546822.614
      ],
      [
       194609.066,
       546819.624
      ],
      [
       194605.515,
       546816.82
      ],
      [
       194606.076,
       546816.11
      ],
      [
       194599.834,
       546812.333
      ],
      [
       194598.152,
       546814.464
      ],
      [
       194597.442,
       546813.903
      ],
      [
       194599.124,
       546811.772
      ],
      [
       194595.574,
       546808.968
      ],
      [
       194596.134,
       546808.258
      ],
      [
       194592.584,
       546805.454
      ],
      [
       194592.023,
       546806.164
      ],
      [
       194583.352,
       546798.163
      ],
      [
       194576.061,
       546807.395
      ],
      [
       194578.902,
       546809.638
      ],
      [
       194578.341,
       546810.348
      ],
      [
       194576.211,
       546808.666
      ],
      [
       194574.379,
       546809.525
      ],
      [
       194569.331,
       546815.916
      ],
      [
       194570.34,
       546819.019
      ],
      [
       194575.872,
       546822.235
      ],
      [
       194573.068,
       546825.786
      ],
      [
       194572.358,
       546825.225
      ],
      [
       194567.31,
       546831.616
      ],
      [
       194568.02,
       546832.177
      ],
      [
       194567.459,
       546832.887
      ]
     ]
    ]
   },
   "properties": {
    "label": "시범25",
    "group": "시범",
    "height_m": 196.5
   }
  },
  {
   "type": "Feature",
   "geometry": {
    "type": "Polygon",
    "coordinates": [
     [
      [
       194632.613,
       546833.608
      ],
      [
       194640.425,
       546839.777
      ],
      [
       194642.107,
       546837.647
      ],
      [
       194644.238,
       546839.33
      ],
      [
       194642.257,
       546838.918
      ],
      [
       194641.135,
       546840.338
      ],
      [
       194642.406,
       546840.189
      ],
      [
       194642.555,
       546841.46
      ],
      [
       194654.628,
       546850.994
      ],
      [
       194661.357,
       546842.472
      ],
      [
       194661.059,
       546839.93
      ],
      [
       194663.04,
       546840.342
      ],
      [
       194665.283,
       546837.501
      ],
      [
       194662.443,
       546835.258
      ],
      [
       194665.247,
       546831.707
      ],
      [
       194665.957,
       546832.268
      ],
      [
       194663.714,
       546835.109
      ],
      [
       194665.134,
       546836.231
      ],
      [
       194672.986,
       546826.289
      ],
      [
       194670.855,
       546824.606
      ],
      [
       194670.294,
       546825.316
      ],
      [
       194666.594,
       546821.241
      ],
      [
       194653.812,
       546811.146
      ],
      [
       194652.69,
       546812.567
      ],
      [
       194653.102,
       546810.585
      ],
      [
       194644.58,
       546803.856
      ],
      [
       194638.972,
       546810.957
      ],
      [
       194640.392,
       546812.078
      ],
      [
       194638.411,
       546811.667
      ],
      [
       194636.168,
       546814.507
      ],
      [
       194637.588,
       546815.629
      ],
      [
       194635.607,
       546815.218
      ],
      [
       194633.364,
       546818.058
      ],
      [
       194640.465,
       546823.666
      ],
      [
       194643.83,
       546819.406
      ],
      [
       194644.54,
       546819.966
      ],
      [
       194637.81,
       546828.488
      ],
      [
       194634.97,
       546826.245
      ],
      [
       194635.418,
       546830.058
      ],
      [
       194633.174,
       546832.898
      ],
      [
       194632.613,
       546833.608
      ]
     ]
    ]
   },
   "properties": {
    "label": "시범26",
    "group": "시범",
    "height_m": 94.4
   }
  },
  {
   "type": "Feature",
   "geometry": {
    "type": "Polygon",
    "coordinates": [
     [
      [
       194409.144,
       546669.806
      ],
      [
       194411.835,
       546670.778
      ],
      [
       194414.49,
       546665.957
      ],
      [
       194417.891,
       546667.49
      ],
      [
       194424.06,
       546659.679
      ],
      [
       194422.64,
       546658.557
      ],
      [
       194423.612,
       546655.866
      ],
      [
       194422.192,
       546654.744
      ],
      [
       194419.949,
       546657.585
      ],
      [
       194419.239,
       546657.024
      ],
      [
       194422.043,
       546653.473
      ],
      [
       194424.173,
       546655.156
      ],
      [
       194426.828,
       546650.334
      ],
      [
       194427.389,
       546649.624
      ],
      [
       194421.708,
       546645.137
      ],
      [
       194414.417,
       546654.369
      ],
      [
       194416.547,
       546656.051
      ],
      [
       194415.987,
       546656.762
      ],
      [
       194413.856,
       546655.079
      ],
      [
       194411.613,
       546657.92
      ],
      [
       194415.724,
       546660.014
      ],
      [
       194408.994,
       546668.535
      ],
      [
       194409.705,
       546669.096
      ],
      [
       194409.144,
       546669.806
      ]
     ]
    ]
   },
   "properties": {
    "label": "시범27",
    "group": "시범",
    "height_m": 84.4
   }
  },
  {
   "type": "Feature",
   "geometry": {
    "type": "Polygon",
    "coordinates": [
     [
      [
       194358.164,
       546630.697
      ],
      [
       194358.874,
       546631.258
      ],
      [
       194360.407,
       546627.857
      ],
      [
       194362.388,
       546628.268
      ],
      [
       194366.314,
       546623.297
      ],
      [
       194368.444,
       546624.98
      ],
      [
       194374.052,
       546617.879
      ],
      [
       194371.212,
       546615.635
      ],
      [
       194368.258,
       546617.915
      ],
      [
       194366.128,
       546616.233
      ],
      [
       194363.288,
       546613.989
      ],
      [
       194362.166,
       546615.409
      ],
      [
       194366.427,
       546618.774
      ],
      [
       194365.866,
       546619.485
      ],
      [
       194361.605,
       546616.12
      ],
      [
       194353.753,
       546626.061
      ],
      [
       194358.724,
       546629.987
      ],
      [
       194358.164,
       546630.697
      ]
     ]
    ]
   },
   "properties": {
    "label": "시범28",
    "group": "시범",
    "height_m": 84.4
   }
  },
  {
   "type": "Feature",
   "geometry": {
    "type": "Polygon",
    "coordinates": [
     [
      [
       194371.773,
       546614.925
      ],
      [
       194372.483,
       546615.486
      ],
      [
       194375.848,
       546611.225
      ],
      [
       194374.988,
       546609.393
      ],
      [
       194376.671,
       546607.263
      ],
      [
       194371.7,
       546603.337
      ],
      [
       194371.139,
       546604.047
      ],
      [
       194374.839,
       546608.122
      ],
      [
       194373.007,
       546608.982
      ],
      [
       194370.913,
       546613.093
      ],
      [
       194372.334,
       546614.215
      ],
      [
       194371.773,
       546614.925
      ]
     ]
    ]
   },
   "properties": {
    "label": "시범29",
    "group": "시범",
    "height_m": 84.4
   }
  },
  {
   "type": "Feature",
   "geometry": {
    "type": "Polygon",
    "coordinates": [
     [
      [
       194372.261,
       546602.627
      ],
      [
       194386.463,
       546613.844
      ],
      [
       194389.417,
       546611.564
      ],
      [
       194379.475,
       546603.712
      ],
      [
       194378.353,
       546605.133
      ],
      [
       194373.382,
       546601.207
      ],
      [
       194372.822,
       546601.917
      ],
      [
       194372.261,
       546602.627
      ]
     ]
    ]
   },
   "properties": {
    "label": "시범30",
    "group": "시범",
    "height_m": 84.4
   }
  },
  {
   "type": "Feature",
   "geometry": {
    "type": "Polygon",
    "coordinates": [
     [
      [
       194380.036,
       546603.002
      ],
      [
       194385.717,
       546607.489
      ],
      [
       194389.643,
       546602.518
      ],
      [
       194388.933,
       546601.957
      ],
      [
       194384.672,
       546598.592
      ],
      [
       194382.989,
       546600.723
      ],
      [
       194380.447,
       546601.021
      ],
      [
       194380.597,
       546602.292
      ],
      [
       194380.036,
       546603.002
      ]
     ]
    ]
   },
   "properties": {
    "label": "시범31",
    "group": "시범",
    "height_m": 84.4
   }
  },
  {
   "type": "Feature",
   "geometry": {
    "type": "Polygon",
    "coordinates": [
     [
      [
       194400.666,
       546625.06
      ],
      [
       194412.028,
       546634.034
      ],
      [
       194412.44,
       546632.052
      ],
      [
       194414.271,
       546631.193
      ],
      [
       194417.261,
       546634.707
      ],
      [
       194419.803,
       546634.409
      ],
      [
       194423.729,
       546629.438
      ],
      [
       194412.367,
       546620.464
      ],
      [
       194410.124,
       546623.305
      ],
      [
       194411.544,
       546624.427
      ],
      [
       194409.002,
       546624.725
      ],
      [
       194408.703,
       546622.183
      ],
      [
       194401.751,
       546617.846
      ],
      [
       194399.77,
       546617.434
      ],
      [
       194403.135,
       546613.174
      ],
      [
       194401.715,
       546612.052
      ],
      [
       194400.593,
       546613.472
      ],
      [
       194401.005,
       546611.491
      ],
      [
       194390.353,
       546603.079
      ],
      [
       194386.427,
       546608.05
      ],
      [
       194390.688,
       546611.415
      ],
      [
       194389.005,
       546613.545
      ],
      [
       194395.397,
       546618.593
      ],
      [
       194397.64,
       546615.752
      ],
      [
       194398.088,
       546619.565
      ],
      [
       194401.638,
       546622.369
      ],
      [
       194403.47,
       546621.51
      ],
      [
       194401.227,
       546624.35
      ],
      [
       194400.666,
       546625.06
      ]
     ]
    ]
   },
   "properties": {
    "label": "시범32",
    "group": "시범",
    "height_m": 75.0
   }
  },
  {
   "type": "Feature",
   "geometry": {
    "type": "Polygon",
    "coordinates": [
     [
      [
       194450.892,
       546701.624
      ],
      [
       194455.863,
       546705.55
      ],
      [
       194458.966,
       546704.541
      ],
      [
       194462.892,
       546699.57
      ],
      [
       194462.032,
       546697.738
      ],
      [
       194465.583,
       546700.543
      ],
      [
       194471.191,
       546693.441
      ],
      [
       194468.351,
       546691.198
      ],
      [
       194473.547,
       546686.078
      ],
      [
       194473.959,
       546684.097
      ],
      [
       194471.829,
       546682.414
      ],
      [
       194468.052,
       546688.656
      ],
      [
       194468.912,
       546690.488
      ],
      [
       194466.37,
       546690.786
      ],
      [
       194462.109,
       546687.421
      ],
      [
       194459.305,
       546690.972
      ],
      [
       194460.015,
       546691.533
      ],
      [
       194458.744,
       546691.682
      ],
      [
       194451.453,
       546700.914
      ],
      [
       194450.892,
       546701.624
      ]
     ]
    ]
   },
   "properties": {
    "label": "시범33",
    "group": "시범",
    "height_m": 87.6
   }
  },
  {
   "type": "Feature",
   "geometry": {
    "type": "Polygon",
    "coordinates": [
     [
      [
       194468.839,
       546678.9
      ],
      [
       194482.331,
       546689.556
      ],
      [
       194486.556,
       546687.127
      ],
      [
       194477.324,
       546679.836
      ],
      [
       194475.492,
       546680.695
      ],
      [
       194470.521,
       546676.769
      ],
      [
       194469.4,
       546678.19
      ],
      [
       194468.839,
       546678.9
      ]
     ]
    ]
   },
   "properties": {
    "label": "시범34",
    "group": "시범",
    "height_m": 87.6
   }
  },
  {
   "type": "Feature",
   "geometry": {
    "type": "Polygon",
    "coordinates": [
     [
      [
       194486.144,
       546689.108
      ],
      [
       194491.825,
       546693.594
      ],
      [
       194495.638,
       546693.146
      ],
      [
       194494.928,
       546692.586
      ],
      [
       194498.854,
       546687.615
      ],
      [
       194488.202,
       546679.202
      ],
      [
       194487.641,
       546679.912
      ],
      [
       194481.811,
       546674.155
      ],
      [
       194477.175,
       546678.565
      ],
      [
       194484.837,
       546683.463
      ],
      [
       194484.276,
       546684.173
      ],
      [
       194487.827,
       546686.977
      ],
      [
       194486.705,
       546688.398
      ],
      [
       194486.144,
       546689.108
      ]
     ]
    ]
   },
   "properties": {
    "label": "시범35",
    "group": "시범",
    "height_m": 78.0
   }
  },
  {
   "type": "Feature",
   "geometry": {
    "type": "Polygon",
    "coordinates": [
     [
      [
       194495.638,
       546693.146
      ],
      [
       194495.937,
       546695.688
      ],
      [
       194498.777,
       546697.932
      ],
      [
       194499.899,
       546696.511
      ],
      [
       194504.87,
       546700.437
      ],
      [
       194505.842,
       546697.746
      ],
      [
       194500.871,
       546693.82
      ],
      [
       194496.909,
       546692.997
      ],
      [
       194500.274,
       546688.736
      ],
      [
       194499.564,
       546688.175
      ],
      [
       194495.638,
       546693.146
      ]
     ]
    ]
   },
   "properties": {
    "label": "시범36",
    "group": "시범",
    "height_m": 78.0
   }
  },
  {
   "type": "Feature",
   "geometry": {
    "type": "Polygon",
    "coordinates": [
     [
      [
       194497.954,
       546701.894
      ],
      [
       194507.896,
       546709.745
      ],
      [
       194511.971,
       546706.045
      ],
      [
       194511.56,
       546708.027
      ],
      [
       194514.4,
       546710.27
      ],
      [
       194516.232,
       546709.41
      ],
      [
       194517.652,
       546710.532
      ],
      [
       194521.017,
       546706.271
      ],
      [
       194521.578,
       546705.561
      ],
      [
       194510.216,
       546696.588
      ],
      [
       194505.019,
       546701.708
      ],
      [
       194500.048,
       546697.782
      ],
      [
       194497.805,
       546700.623
      ],
      [
       194498.515,
       546701.184
      ],
      [
       194497.954,
       546701.894
      ]
     ]
    ]
   },
   "properties": {
    "label": "시범37",
    "group": "시범",
    "height_m": 62.0
   }
  },
  {
   "type": "Feature",
   "geometry": {
    "type": "Polygon",
    "coordinates": [
     [
      [
       194542.499,
       546773.971
      ],
      [
       194547.47,
       546777.897
      ],
      [
       194549.153,
       546775.766
      ],
      [
       194550.573,
       546776.888
      ],
      [
       194554.499,
       546771.917
      ],
      [
       194552.368,
       546770.235
      ],
      [
       194554.612,
       546767.394
      ],
      [
       194555.322,
       546767.955
      ],
      [
       194553.639,
       546770.085
      ],
      [
       194557.19,
       546772.889
      ],
      [
       194562.798,
       546765.788
      ],
      [
       194559.958,
       546763.545
      ],
      [
       194557.565,
       546765.114
      ],
      [
       194557.977,
       546763.133
      ],
      [
       194554.426,
       546760.329
      ],
      [
       194554.987,
       546759.619
      ],
      [
       194553.006,
       546759.208
      ],
      [
       194553.155,
       546760.478
      ],
      [
       194542.35,
       546772.7
      ],
      [
       194543.06,
       546773.261
      ],
      [
       194542.499,
       546773.971
      ]
     ]
    ]
   },
   "properties": {
    "label": "시범38",
    "group": "시범",
    "height_m": 88.0
   }
  },
  {
   "type": "Feature",
   "geometry": {
    "type": "Polygon",
    "coordinates": [
     [
      [
       194559.809,
       546762.274
      ],
      [
       194561.229,
       546763.396
      ],
      [
       194565.155,
       546758.425
      ],
      [
       194563.734,
       546757.303
      ],
      [
       194564.856,
       546755.883
      ],
      [
       194563.436,
       546754.761
      ],
      [
       194559.51,
       546759.732
      ],
      [
       194560.369,
       546761.564
      ],
      [
       194559.809,
       546762.274
      ]
     ]
    ]
   },
   "properties": {
    "label": "시범39",
    "group": "시범",
    "height_m": 88.0
   }
  },
  {
   "type": "Feature",
   "geometry": {
    "type": "Polygon",
    "coordinates": [
     [
      [
       194558.614,
       546752.106
      ],
      [
       194561.156,
       546751.808
      ],
      [
       194573.938,
       546761.902
      ],
      [
       194578.163,
       546759.473
      ],
      [
       194568.221,
       546751.622
      ],
      [
       194568.782,
       546750.912
      ],
      [
       194568.072,
       546750.351
      ],
      [
       194567.099,
       546753.042
      ],
      [
       194562.128,
       546749.116
      ],
      [
       194560.857,
       546749.266
      ],
      [
       194559.885,
       546751.957
      ],
      [
       194559.175,
       546751.396
      ],
      [
       194558.614,
       546752.106
      ]
     ]
    ]
   },
   "properties": {
    "label": "시범40",
    "group": "시범",
    "height_m": 84.8
   }
  },
  {
   "type": "Feature",
   "geometry": {
    "type": "Polygon",
    "coordinates": [
     [
      [
       194568.782,
       546750.912
      ],
      [
       194570.912,
       546752.594
      ],
      [
       194574.463,
       546755.398
      ],
      [
       194578.389,
       546750.427
      ],
      [
       194573.418,
       546746.502
      ],
      [
       194568.782,
       546750.912
      ]
     ]
    ]
   },
   "properties": {
    "label": "시범41",
    "group": "시범",
    "height_m": 84.8
   }
  },
  {
   "type": "Feature",
   "geometry": {
    "type": "Polygon",
    "coordinates": [
     [
      [
       194577.751,
       546761.455
      ],
      [
       194585.413,
       546766.353
      ],
      [
       194589.751,
       546759.401
      ],
      [
       194586.2,
       546756.597
      ],
      [
       194579.099,
       546750.988
      ],
      [
       194575.173,
       546755.959
      ],
      [
       194579.434,
       546759.324
      ],
      [
       194578.312,
       546760.744
      ],
      [
       194577.751,
       546761.455
      ]
     ]
    ]
   },
   "properties": {
    "label": "시범42",
    "group": "시범",
    "height_m": 68.8
   }
  },
  {
   "type": "Feature",
   "geometry": {
    "type": "Polygon",
    "coordinates": [
     [
      [
       194588.851,
       546773.68
      ],
      [
       194599.503,
       546782.092
      ],
      [
       194603.017,
       546779.102
      ],
      [
       194598.607,
       546774.467
      ],
      [
       194599.729,
       546773.046
      ],
      [
       194601.448,
       546776.71
      ],
      [
       194604.288,
       546778.953
      ],
      [
       194603.167,
       546780.373
      ],
      [
       194606.007,
       546782.617
      ],
      [
       194607.839,
       546781.757
      ],
      [
       194609.259,
       546782.879
      ],
      [
       194613.185,
       546777.908
      ],
      [
       194604.664,
       546771.178
      ],
      [
       194601.113,
       546768.374
      ],
      [
       194597.187,
       546773.345
      ],
      [
       194596.477,
       546772.784
      ],
      [
       194595.916,
       546773.494
      ],
      [
       194591.655,
       546770.129
      ],
      [
       194589.412,
       546772.97
      ],
      [
       194588.851,
       546773.68
      ]
     ]
    ]
   },
   "properties": {
    "label": "시범43",
    "group": "시범",
    "height_m": 56.0
   }
  },
  {
   "type": "Feature",
   "geometry": {
    "type": "Polygon",
    "coordinates": [
     [
      [
       194596.477,
       546772.784
      ],
      [
       194600.403,
       546767.813
      ],
      [
       194590.461,
       546759.962
      ],
      [
       194586.535,
       546764.932
      ],
      [
       194587.955,
       546766.054
      ],
      [
       194586.834,
       546767.474
      ],
      [
       194590.384,
       546770.279
      ],
      [
       194591.506,
       546768.858
      ],
      [
       194596.477,
       546772.784
      ]
     ]
    ]
   },
   "properties": {
    "label": "시범44",
    "group": "시범",
    "height_m": 56.0
   }
  },
  {
   "type": "Feature",
   "geometry": {
    "type": "Polygon",
    "coordinates": [
     [
      [
       194254.853,
       546958.795
      ],
      [
       194289.253,
       546915.025
      ],
      [
       194290.523,
       546915.475
      ],
      [
       194292.763,
       546912.675
      ],
      [
       194285.793,
       546906.875
      ],
      [
       194285.313,
       546907.525
      ],
      [
       194281.713,
       546904.845
      ],
      [
       194243.703,
       546953.565
      ],
      [
       194247.363,
       546956.385
      ],
      [
       194246.923,
       546956.955
      ],
      [
       194253.892,
       546962.325
      ],
      [
       194256.042,
       546959.535
      ],
      [
       194254.853,
       546958.795
      ]
     ]
    ]
   },
   "properties": {
    "label": "A_화랑현재0",
    "group": "A_화랑현재",
    "height_m": 30.0
   }
  },
  {
   "type": "Feature",
   "geometry": {
    "type": "Polygon",
    "coordinates": [
     [
      [
       194289.623,
       546986.126
      ],
      [
       194324.063,
       546941.926
      ],
      [
       194325.273,
       546942.326
      ],
      [
       194327.433,
       546939.776
      ],
      [
       194320.623,
       546933.996
      ],
      [
       194320.123,
       546934.576
      ],
      [
       194316.753,
       546931.926
      ],
      [
       194278.563,
       546980.606
      ],
      [
       194282.003,
       546983.306
      ],
      [
       194281.503,
       546983.936
      ],
      [
       194288.593,
       546989.506
      ],
      [
       194290.833,
       546986.886
      ],
      [
       194289.623,
       546986.126
      ]
     ]
    ]
   },
   "properties": {
    "label": "A_화랑현재1",
    "group": "A_화랑현재",
    "height_m": 30.0
   }
  },
  {
   "type": "Feature",
   "geometry": {
    "type": "Polygon",
    "coordinates": [
     [
      [
       194323.943,
       547014.406
      ],
      [
       194356.902,
       546972.256
      ],
      [
       194357.502,
       546972.596
      ],
      [
       194358.782,
       546971.136
      ],
      [
       194356.613,
       546969.236
      ],
      [
       194355.953,
       546970.056
      ],
      [
       194347.553,
       546963.356
      ],
      [
       194313.453,
       547007.526
      ],
      [
       194321.673,
       547013.876
      ],
      [
       194321.053,
       547014.756
      ],
      [
       194323.573,
       547016.546
      ],
      [
       194324.913,
       547014.926
      ],
      [
       194323.943,
       547014.406
      ]
     ]
    ]
   },
   "properties": {
    "label": "A_화랑현재2",
    "group": "A_화랑현재",
    "height_m": 30.0
   }
  },
  {
   "type": "Feature",
   "geometry": {
    "type": "Polygon",
    "coordinates": [
     [
      [
       194267.592,
       546913.109
      ],
      [
       194283.243,
       546925.336
      ],
      [
       194252.808,
       546964.291
      ],
      [
       194237.157,
       546952.064
      ],
      [
       194267.592,
       546913.109
      ]
     ]
    ]
   },
   "properties": {
    "label": "B_화랑고층안0",
    "group": "B_화랑고층안",
    "height_m": 162.4
   }
  },
  {
   "type": "Feature",
   "geometry": {
    "type": "Polygon",
    "coordinates": [
     [
      [
       194365.219,
       546966.081
      ],
      [
       194337.704,
       547002.595
      ],
      [
       194300.181,
       546974.319
      ],
      [
       194327.696,
       546937.805
      ],
      [
       194365.219,
       546966.081
      ]
     ]
    ]
   },
   "properties": {
    "label": "C_화랑20층이하안0",
    "group": "C_화랑20층이하안",
    "height_m": 70.0
   }
  }
 ],
 "crs": {
  "type": "name",
  "properties": {
   "name": "urn:ogc:def:crs:EPSG::5186"
  }
 }
}