{
 "type": "FeatureCollection",
 "features": [
  {
   "type": "Feature",
   "geometry": {
    "type": "Polygon",
    "coordinates": [
     [
      [
       126.93574881,
       37.52196647
      ],
      [
       126.9359605,
       37.52197986
      ],
      [
       126.93591757,
       37.52241056
      ],
      [
       126.93570587,
       37.52239717
      ],
      [
       126.93574881,
       37.52196647
      ]
     ]
    ]
   },
   "properties": {
    "label": "타워1 외형선",
    "kind": "타워1 외형선",
    "height_m": 178.9
   }
  },
  {
   "type": "Feature",
   "geometry": {
    "type": "Polygon",
    "coordinates": [
     [
      [
       126.93527217,
       37.52150157
      ],
      [
       126.93473908,
       37.52204503
      ],
      [
       126.93583321,
       37.52272589
      ],
      [
       126.93636631,
       37.52218242
      ],
      [
       126.93527217,
       37.52150157
      ]
     ]
    ]
   },
   "properties": {
    "label": "화랑 대지",
    "kind": "대지",
    "area_m2": 9395
   }
  }
 ]
}