{
 "type": "FeatureCollection",
 "crs": {
  "type": "name",
  "properties": {
   "name": "urn:ogc:def:crs:EPSG::5186"
  }
 },
 "features": [
  {
   "type": "Feature",
   "geometry": {
    "type": "Polygon",
    "coordinates": [
     [
      [
       194278.57436472367,
       546896.7027472738
      ],
      [
       194235.1812496103,
       546952.3219458018
      ],
      [
       194327.2227459477,
       547024.1310935635
      ],
      [
       194370.6158610611,
       546968.5118950355
      ],
      [
       194278.57436472367,
       546896.7027472738
      ]
     ]
    ]
   },
   "properties": {
    "name": "법정 이격선(3 m) 내 이동가능 범위",
    "area_m2": 8235.3
   }
  }
 ]
}