{
 "type": "FeatureCollection",
 "crs": {
  "type": "name",
  "properties": {
   "name": "urn:ogc:def:crs:EPSG::5186"
  }
 },
 "features": [
  {
   "type": "Feature",
   "geometry": {
    "type": "Polygon",
    "coordinates": [
     [
      [
       194327.68963689907,
       546983.8400882836
      ],
      [
       194305.10641953038,
       546977.7889334272
      ],
      [
       194312.67036310091,
       546949.5599117163
      ],
      [
       194335.2535804696,
       546955.6110665727
      ],
      [
       194327.68963689907,
       546983.8400882836
      ]
     ]
    ]
   },
   "properties": {
    "rank": 1,
    "x": 194320.18,
    "y": 546966.7,
    "floors": 55,
    "height_m": 166.25,
    "base_elev_m": 13.3,
    "top_elev_m": 179.55,
    "long_m": 29.2,
    "short_m": 23.4,
    "long_azimuth": 345.0,
    "pass_a_pct": 85.4,
    "delta_vs_now_pp": 2.8,
    "view_all_pct": 89.5,
    "view_low_pct": 61.5,
    "min_setback_m": 14.6
   }
  },
  {
   "type": "Feature",
   "geometry": {
    "type": "Polygon",
    "coordinates": [
     [
      [
       194327.68963689907,
       546984.8400882836
      ],
      [
       194305.10641953038,
       546978.7889334272
      ],
      [
       194312.67036310091,
       546950.5599117163
      ],
      [
       194335.2535804696,
       546956.6110665727
      ],
      [
       194327.68963689907,
       546984.8400882836
      ]
     ]
    ]
   },
   "properties": {
    "rank": 2,
    "x": 194320.18,
    "y": 546967.7,
    "floors": 55,
    "height_m": 166.25,
    "base_elev_m": 13.3,
    "top_elev_m": 179.55,
    "long_m": 29.2,
    "short_m": 23.4,
    "long_azimuth": 345.0,
    "pass_a_pct": 85.4,
    "delta_vs_now_pp": 2.8,
    "view_all_pct": 89.5,
    "view_low_pct": 61.5,
    "min_setback_m": 15.4
   }
  },
  {
   "type": "Feature",
   "geometry": {
    "type": "Polygon",
    "coordinates": [
     [
      [
       194327.68963689907,
       546986.8400882836
      ],
      [
       194305.10641953038,
       546980.7889334272
      ],
      [
       194312.67036310091,
       546952.5599117163
      ],
      [
       194335.2535804696,
       546958.6110665727
      ],
      [
       194327.68963689907,
       546986.8400882836
      ]
     ]
    ]
   },
   "properties": {
    "rank": 3,
    "x": 194320.18,
    "y": 546969.7,
    "floors": 55,
    "height_m": 166.25,
    "base_elev_m": 13.3,
    "top_elev_m": 179.55,
    "long_m": 29.2,
    "short_m": 23.4,
    "long_azimuth": 345.0,
    "pass_a_pct": 85.4,
    "delta_vs_now_pp": 2.8,
    "view_all_pct": 89.5,
    "view_low_pct": 61.5,
    "min_setback_m": 16.9
   }
  },
  {
   "type": "Feature",
   "geometry": {
    "type": "Polygon",
    "coordinates": [
     [
      [
       194327.68963689907,
       546987.8400882836
      ],
      [
       194305.10641953038,
       546981.7889334272
      ],
      [
       194312.67036310091,
       546953.5599117163
      ],
      [
       194335.2535804696,
       546959.6110665727
      ],
      [
       194327.68963689907,
       546987.8400882836
      ]
     ]
    ]
   },
   "properties": {
    "rank": 4,
    "x": 194320.18,
    "y": 546970.7,
    "floors": 55,
    "height_m": 166.25,
    "base_elev_m": 13.3,
    "top_elev_m": 179.55,
    "long_m": 29.2,
    "short_m": 23.4,
    "long_azimuth": 345.0,
    "pass_a_pct": 85.4,
    "delta_vs_now_pp": 2.8,
    "view_all_pct": 89.5,
    "view_low_pct": 61.5,
    "min_setback_m": 17.7
   }
  },
  {
   "type": "Feature",
   "geometry": {
    "type": "Polygon",
    "coordinates": [
     [
      [
       194327.68963689907,
       546988.8400882836
      ],
      [
       194305.10641953038,
       546982.7889334272
      ],
      [
       194312.67036310091,
       546954.5599117163
      ],
      [
       194335.2535804696,
       546960.6110665727
      ],
      [
       194327.68963689907,
       546988.8400882836
      ]
     ]
    ]
   },
   "properties": {
    "rank": 5,
    "x": 194320.18,
    "y": 546971.7,
    "floors": 55,
    "height_m": 166.25,
    "base_elev_m": 13.3,
    "top_elev_m": 179.55,
    "long_m": 29.2,
    "short_m": 23.4,
    "long_azimuth": 345.0,
    "pass_a_pct": 85.4,
    "delta_vs_now_pp": 2.8,
    "view_all_pct": 89.5,
    "view_low_pct": 61.5,
    "min_setback_m": 18.5
   }
  },
  {
   "type": "Feature",
   "geometry": {
    "type": "Polygon",
    "coordinates": [
     [
      [
       194328.68963689907,
       546983.8400882836
      ],
      [
       194306.10641953038,
       546977.7889334272
      ],
      [
       194313.67036310091,
       546949.5599117163
      ],
      [
       194336.2535804696,
       546955.6110665727
      ],
      [
       194328.68963689907,
       546983.8400882836
      ]
     ]
    ]
   },
   "properties": {
    "rank": 6,
    "x": 194321.18,
    "y": 546966.7,
    "floors": 55,
    "height_m": 166.25,
    "base_elev_m": 13.3,
    "top_elev_m": 179.55,
    "long_m": 29.2,
    "short_m": 23.4,
    "long_azimuth": 345.0,
    "pass_a_pct": 85.4,
    "delta_vs_now_pp": 2.8,
    "view_all_pct": 89.5,
    "view_low_pct": 61.5,
    "min_setback_m": 14.0
   }
  },
  {
   "type": "Feature",
   "geometry": {
    "type": "Polygon",
    "coordinates": [
     [
      [
       194328.68963689907,
       546982.8400882836
      ],
      [
       194306.10641953038,
       546976.7889334272
      ],
      [
       194313.67036310091,
       546948.5599117163
      ],
      [
       194336.2535804696,
       546954.6110665727
      ],
      [
       194328.68963689907,
       546982.8400882836
      ]
     ]
    ]
   },
   "properties": {
    "rank": 7,
    "x": 194321.18,
    "y": 546965.7,
    "floors": 55,
    "height_m": 166.25,
    "base_elev_m": 13.3,
    "top_elev_m": 179.55,
    "long_m": 29.2,
    "short_m": 23.4,
    "long_azimuth": 345.0,
    "pass_a_pct": 85.4,
    "delta_vs_now_pp": 2.8,
    "view_all_pct": 89.4,
    "view_low_pct": 61.0,
    "min_setback_m": 13.2
   }
  },
  {
   "type": "Feature",
   "geometry": {
    "type": "Polygon",
    "coordinates": [
     [
      [
       194327.68963689907,
       546974.8400882836
      ],
      [
       194305.10641953038,
       546968.7889334272
      ],
      [
       194312.67036310091,
       546940.5599117163
      ],
      [
       194335.2535804696,
       546946.6110665727
      ],
      [
       194327.68963689907,
       546974.8400882836
      ]
     ]
    ]
   },
   "properties": {
    "rank": 8,
    "x": 194320.18,
    "y": 546957.7,
    "floors": 55,
    "height_m": 166.25,
    "base_elev_m": 13.3,
    "top_elev_m": 179.55,
    "long_m": 29.2,
    "short_m": 23.4,
    "long_azimuth": 345.0,
    "pass_a_pct": 85.4,
    "delta_vs_now_pp": 2.8,
    "view_all_pct": 89.3,
    "view_low_pct": 60.7,
    "min_setback_m": 7.5
   }
  },
  {
   "type": "Feature",
   "geometry": {
    "type": "Polygon",
    "coordinates": [
     [
      [
       194327.68963689907,
       546975.8400882836
      ],
      [
       194305.10641953038,
       546969.7889334272
      ],
      [
       194312.67036310091,
       546941.5599117163
      ],
      [
       194335.2535804696,
       546947.6110665727
      ],
      [
       194327.68963689907,
       546975.8400882836
      ]
     ]
    ]
   },
   "properties": {
    "rank": 9,
    "x": 194320.18,
    "y": 546958.7,
    "floors": 55,
    "height_m": 166.25,
    "base_elev_m": 13.3,
    "top_elev_m": 179.55,
    "long_m": 29.2,
    "short_m": 23.4,
    "long_azimuth": 345.0,
    "pass_a_pct": 85.4,
    "delta_vs_now_pp": 2.8,
    "view_all_pct": 89.3,
    "view_low_pct": 60.7,
    "min_setback_m": 8.3
   }
  },
  {
   "type": "Feature",
   "geometry": {
    "type": "Polygon",
    "coordinates": [
     [
      [
       194328.68963689907,
       546980.8400882836
      ],
      [
       194306.10641953038,
       546974.7889334272
      ],
      [
       194313.67036310091,
       546946.5599117163
      ],
      [
       194336.2535804696,
       546952.6110665727
      ],
      [
       194328.68963689907,
       546980.8400882836
      ]
     ]
    ]
   },
   "properties": {
    "rank": 10,
    "x": 194321.18,
    "y": 546963.7,
    "floors": 55,
    "height_m": 166.25,
    "base_elev_m": 13.3,
    "top_elev_m": 179.55,
    "long_m": 29.2,
    "short_m": 23.4,
    "long_azimuth": 345.0,
    "pass_a_pct": 85.4,
    "delta_vs_now_pp": 2.8,
    "view_all_pct": 89.3,
    "view_low_pct": 60.7,
    "min_setback_m": 11.6
   }
  }
 ]
}