{
 "type": "FeatureCollection",
 "features": [
  {
   "type": "Feature",
   "geometry": {
    "type": "Polygon",
    "coordinates": [
     [
      [
       194360.212,
       546978.329
      ],
      [
       194336.703,
       547010.687
      ],
      [
       194293.188,
       546979.071
      ],
      [
       194316.697,
       546946.713
      ],
      [
       194360.212,
       546978.329
      ]
     ]
    ]
   },
   "properties": {
    "label": "타워1 외형선",
    "kind": "타워1 외형선",
    "height_m": 63.0
   }
  },
  {
   "type": "Feature",
   "geometry": {
    "type": "Polygon",
    "coordinates": [
     [
      [
       194278.054,
       546892.492
      ],
      [
       194230.971,
       546952.842
      ],
      [
       194327.743,
       547028.342
      ],
      [
       194374.827,
       546967.992
      ],
      [
       194278.054,
       546892.492
      ]
     ]
    ]
   },
   "properties": {
    "label": "화랑 대지",
    "kind": "대지",
    "area_m2": 9395
   }
  }
 ],
 "crs": {
  "type": "name",
  "properties": {
   "name": "urn:ogc:def:crs:EPSG::5186"
  }
 }
}