{
 "type": "FeatureCollection",
 "features": [
  {
   "type": "Feature",
   "geometry": {
    "type": "Point",
    "coordinates": [
     126.93538988,
     37.52329441
    ]
   },
   "properties": {
    "pid": "체육관동 부속(원형부) 1층-1",
    "school": "여의도중학교",
    "jibun": "40-1",
    "kind": "교사동 창면",
    "dong": "체육관동 부속(원형부)",
    "floor": 1,
    "z_m": 2.05,
    "normal_az": 260.7,
    "grade": "A-",
    "근거등급": "A− 도면기준(대응·제원 추론 포함)",
    "근거": "체육관동 4면도(폴리곤 대응은 추론)",
    "추정항목": "AL_D010 에 용도·층수·높이가 모두 결측인 787.5㎡ 동. 체육관동과 2.3m 거리·합계 면적 일치로 **같은 건물의 분할 폴리곤이라고 추론**해 같은 Z그리드와 창 높이를 적용. 높이 15.0m 도 그 추론에 따른 값",
    "estimated": false
   }
  },
  {
   "type": "Feature",
   "geometry": {
    "type": "Point",
    "coordinates": [
     126.93538988,
     37.52329441
    ]
   },
   "properties": {
    "pid": "체육관동 부속(원형부) 2층-1",
    "school": "여의도중학교",
    "jibun": "40-1",
    "kind": "교사동 창면",
    "dong": "체육관동 부속(원형부)",
    "floor": 2,
    "z_m": 5.95,
    "normal_az": 260.7,
    "grade": "A-",
    "근거등급": "A− 도면기준(대응·제원 추론 포함)",
    "근거": "체육관동 4면도(폴리곤 대응은 추론)",
    "추정항목": "AL_D010 에 용도·층수·높이가 모두 결측인 787.5㎡ 동. 체육관동과 2.3m 거리·합계 면적 일치로 **같은 건물의 분할 폴리곤이라고 추론**해 같은 Z그리드와 창 높이를 적용. 높이 15.0m 도 그 추론에 따른 값",
    "estimated": false
   }
  },
  {
   "type": "Feature",
   "geometry": {
    "type": "Point",
    "coordinates": [
     126.93538988,
     37.52329441
    ]
   },
   "properties": {
    "pid": "체육관동 부속(원형부) 3층-1",
    "school": "여의도중학교",
    "jibun": "40-1",
    "kind": "교사동 창면",
    "dong": "체육관동 부속(원형부)",
    "floor": 3,
    "z_m": 9.55,
    "normal_az": 260.7,
    "grade": "A-",
    "근거등급": "A− 도면기준(대응·제원 추론 포함)",
    "근거": "체육관동 4면도(폴리곤 대응은 추론)",
    "추정항목": "AL_D010 에 용도·층수·높이가 모두 결측인 787.5㎡ 동. 체육관동과 2.3m 거리·합계 면적 일치로 **같은 건물의 분할 폴리곤이라고 추론**해 같은 Z그리드와 창 높이를 적용. 높이 15.0m 도 그 추론에 따른 값",
    "estimated": false
   }
  },
  {
   "type": "Feature",
   "geometry": {
    "type": "Point",
    "coordinates": [
     126.93538988,
     37.52329441
    ]
   },
   "properties": {
    "pid": "체육관동 부속(원형부) 4층-1",
    "school": "여의도중학교",
    "jibun": "40-1",
    "kind": "교사동 창면",
    "dong": "체육관동 부속(원형부)",
    "floor": 4,
    "z_m": 13.15,
    "normal_az": 260.7,
    "grade": "A-",
    "근거등급": "A− 도면기준(대응·제원 추론 포함)",
    "근거": "체육관동 4면도(폴리곤 대응은 추론)",
    "추정항목": "AL_D010 에 용도·층수·높이가 모두 결측인 787.5㎡ 동. 체육관동과 2.3m 거리·합계 면적 일치로 **같은 건물의 분할 폴리곤이라고 추론**해 같은 Z그리드와 창 높이를 적용. 높이 15.0m 도 그 추론에 따른 값",
    "estimated": false
   }
  },
  {
   "type": "Feature",
   "geometry": {
    "type": "Point",
    "coordinates": [
     126.93540066,
     37.52326256
    ]
   },
   "properties": {
    "pid": "체육관동 부속(원형부) 1층-2",
    "school": "여의도중학교",
    "jibun": "40-1",
    "kind": "교사동 창면",
    "dong": "체육관동 부속(원형부)",
    "floor": 1,
    "z_m": 2.05,
    "normal_az": 249.6,
    "grade": "A-",
    "근거등급": "A− 도면기준(대응·제원 추론 포함)",
    "근거": "체육관동 4면도(폴리곤 대응은 추론)",
    "추정항목": "AL_D010 에 용도·층수·높이가 모두 결측인 787.5㎡ 동. 체육관동과 2.3m 거리·합계 면적 일치로 **같은 건물의 분할 폴리곤이라고 추론**해 같은 Z그리드와 창 높이를 적용. 높이 15.0m 도 그 추론에 따른 값",
    "estimated": false
   }
  },
  {
   "type": "Feature",
   "geometry": {
    "type": "Point",
    "coordinates": [
     126.93540066,
     37.52326256
    ]
   },
   "properties": {
    "pid": "체육관동 부속(원형부) 2층-2",
    "school": "여의도중학교",
    "jibun": "40-1",
    "kind": "교사동 창면",
    "dong": "체육관동 부속(원형부)",
    "floor": 2,
    "z_m": 5.95,
    "normal_az": 249.6,
    "grade": "A-",
    "근거등급": "A− 도면기준(대응·제원 추론 포함)",
    "근거": "체육관동 4면도(폴리곤 대응은 추론)",
    "추정항목": "AL_D010 에 용도·층수·높이가 모두 결측인 787.5㎡ 동. 체육관동과 2.3m 거리·합계 면적 일치로 **같은 건물의 분할 폴리곤이라고 추론**해 같은 Z그리드와 창 높이를 적용. 높이 15.0m 도 그 추론에 따른 값",
    "estimated": false
   }
  },
  {
   "type": "Feature",
   "geometry": {
    "type": "Point",
    "coordinates": [
     126.93540066,
     37.52326256
    ]
   },
   "properties": {
    "pid": "체육관동 부속(원형부) 3층-2",
    "school": "여의도중학교",
    "jibun": "40-1",
    "kind": "교사동 창면",
    "dong": "체육관동 부속(원형부)",
    "floor": 3,
    "z_m": 9.55,
    "normal_az": 249.6,
    "grade": "A-",
    "근거등급": "A− 도면기준(대응·제원 추론 포함)",
    "근거": "체육관동 4면도(폴리곤 대응은 추론)",
    "추정항목": "AL_D010 에 용도·층수·높이가 모두 결측인 787.5㎡ 동. 체육관동과 2.3m 거리·합계 면적 일치로 **같은 건물의 분할 폴리곤이라고 추론**해 같은 Z그리드와 창 높이를 적용. 높이 15.0m 도 그 추론에 따른 값",
    "estimated": false
   }
  },
  {
   "type": "Feature",
   "geometry": {
    "type": "Point",
    "coordinates": [
     126.93540066,
     37.52326256
    ]
   },
   "properties": {
    "pid": "체육관동 부속(원형부) 4층-2",
    "school": "여의도중학교",
    "jibun": "40-1",
    "kind": "교사동 창면",
    "dong": "체육관동 부속(원형부)",
    "floor": 4,
    "z_m": 13.15,
    "normal_az": 249.6,
    "grade": "A-",
    "근거등급": "A− 도면기준(대응·제원 추론 포함)",
    "근거": "체육관동 4면도(폴리곤 대응은 추론)",
    "추정항목": "AL_D010 에 용도·층수·높이가 모두 결측인 787.5㎡ 동. 체육관동과 2.3m 거리·합계 면적 일치로 **같은 건물의 분할 폴리곤이라고 추론**해 같은 Z그리드와 창 높이를 적용. 높이 15.0m 도 그 추론에 따른 값",
    "estimated": false
   }
  },
  {
   "type": "Feature",
   "geometry": {
    "type": "Point",
    "coordinates": [
     126.93542711,
     37.52321826
    ]
   },
   "properties": {
    "pid": "체육관동 부속(원형부) 1층-3",
    "school": "여의도중학교",
    "jibun": "40-1",
    "kind": "교사동 창면",
    "dong": "체육관동 부속(원형부)",
    "floor": 1,
    "z_m": 2.05,
    "normal_az": 241.3,
    "grade": "A-",
    "근거등급": "A− 도면기준(대응·제원 추론 포함)",
    "근거": "체육관동 4면도(폴리곤 대응은 추론)",
    "추정항목": "AL_D010 에 용도·층수·높이가 모두 결측인 787.5㎡ 동. 체육관동과 2.3m 거리·합계 면적 일치로 **같은 건물의 분할 폴리곤이라고 추론**해 같은 Z그리드와 창 높이를 적용. 높이 15.0m 도 그 추론에 따른 값",
    "estimated": false
   }
  },
  {
   "type": "Feature",
   "geometry": {
    "type": "Point",
    "coordinates": [
     126.93542711,
     37.52321826
    ]
   },
   "properties": {
    "pid": "체육관동 부속(원형부) 2층-3",
    "school": "여의도중학교",
    "jibun": "40-1",
    "kind": "교사동 창면",
    "dong": "체육관동 부속(원형부)",
    "floor": 2,
    "z_m": 5.95,
    "normal_az": 241.3,
    "grade": "A-",
    "근거등급": "A− 도면기준(대응·제원 추론 포함)",
    "근거": "체육관동 4면도(폴리곤 대응은 추론)",
    "추정항목": "AL_D010 에 용도·층수·높이가 모두 결측인 787.5㎡ 동. 체육관동과 2.3m 거리·합계 면적 일치로 **같은 건물의 분할 폴리곤이라고 추론**해 같은 Z그리드와 창 높이를 적용. 높이 15.0m 도 그 추론에 따른 값",
    "estimated": false
   }
  },
  {
   "type": "Feature",
   "geometry": {
    "type": "Point",
    "coordinates": [
     126.93542711,
     37.52321826
    ]
   },
   "properties": {
    "pid": "체육관동 부속(원형부) 3층-3",
    "school": "여의도중학교",
    "jibun": "40-1",
    "kind": "교사동 창면",
    "dong": "체육관동 부속(원형부)",
    "floor": 3,
    "z_m": 9.55,
    "normal_az": 241.3,
    "grade": "A-",
    "근거등급": "A− 도면기준(대응·제원 추론 포함)",
    "근거": "체육관동 4면도(폴리곤 대응은 추론)",
    "추정항목": "AL_D010 에 용도·층수·높이가 모두 결측인 787.5㎡ 동. 체육관동과 2.3m 거리·합계 면적 일치로 **같은 건물의 분할 폴리곤이라고 추론**해 같은 Z그리드와 창 높이를 적용. 높이 15.0m 도 그 추론에 따른 값",
    "estimated": false
   }
  },
  {
   "type": "Feature",
   "geometry": {
    "type": "Point",
    "coordinates": [
     126.93542711,
     37.52321826
    ]
   },
   "properties": {
    "pid": "체육관동 부속(원형부) 4층-3",
    "school": "여의도중학교",
    "jibun": "40-1",
    "kind": "교사동 창면",
    "dong": "체육관동 부속(원형부)",
    "floor": 4,
    "z_m": 13.15,
    "normal_az": 241.3,
    "grade": "A-",
    "근거등급": "A− 도면기준(대응·제원 추론 포함)",
    "근거": "체육관동 4면도(폴리곤 대응은 추론)",
    "추정항목": "AL_D010 에 용도·층수·높이가 모두 결측인 787.5㎡ 동. 체육관동과 2.3m 거리·합계 면적 일치로 **같은 건물의 분할 폴리곤이라고 추론**해 같은 Z그리드와 창 높이를 적용. 높이 15.0m 도 그 추론에 따른 값",
    "estimated": false
   }
  },
  {
   "type": "Feature",
   "geometry": {
    "type": "Point",
    "coordinates": [
     126.93545077,
     37.52319121
    ]
   },
   "properties": {
    "pid": "체육관동 부속(원형부) 1층-4",
    "school": "여의도중학교",
    "jibun": "40-1",
    "kind": "교사동 창면",
    "dong": "체육관동 부속(원형부)",
    "floor": 1,
    "z_m": 2.05,
    "normal_az": 230.9,
    "grade": "A-",
    "근거등급": "A− 도면기준(대응·제원 추론 포함)",
    "근거": "체육관동 4면도(폴리곤 대응은 추론)",
    "추정항목": "AL_D010 에 용도·층수·높이가 모두 결측인 787.5㎡ 동. 체육관동과 2.3m 거리·합계 면적 일치로 **같은 건물의 분할 폴리곤이라고 추론**해 같은 Z그리드와 창 높이를 적용. 높이 15.0m 도 그 추론에 따른 값",
    "estimated": false
   }
  },
  {
   "type": "Feature",
   "geometry": {
    "type": "Point",
    "coordinates": [
     126.93545077,
     37.52319121
    ]
   },
   "properties": {
    "pid": "체육관동 부속(원형부) 2층-4",
    "school": "여의도중학교",
    "jibun": "40-1",
    "kind": "교사동 창면",
    "dong": "체육관동 부속(원형부)",
    "floor": 2,
    "z_m": 5.95,
    "normal_az": 230.9,
    "grade": "A-",
    "근거등급": "A− 도면기준(대응·제원 추론 포함)",
    "근거": "체육관동 4면도(폴리곤 대응은 추론)",
    "추정항목": "AL_D010 에 용도·층수·높이가 모두 결측인 787.5㎡ 동. 체육관동과 2.3m 거리·합계 면적 일치로 **같은 건물의 분할 폴리곤이라고 추론**해 같은 Z그리드와 창 높이를 적용. 높이 15.0m 도 그 추론에 따른 값",
    "estimated": false
   }
  },
  {
   "type": "Feature",
   "geometry": {
    "type": "Point",
    "coordinates": [
     126.93545077,
     37.52319121
    ]
   },
   "properties": {
    "pid": "체육관동 부속(원형부) 3층-4",
    "school": "여의도중학교",
    "jibun": "40-1",
    "kind": "교사동 창면",
    "dong": "체육관동 부속(원형부)",
    "floor": 3,
    "z_m": 9.55,
    "normal_az": 230.9,
    "grade": "A-",
    "근거등급": "A− 도면기준(대응·제원 추론 포함)",
    "근거": "체육관동 4면도(폴리곤 대응은 추론)",
    "추정항목": "AL_D010 에 용도·층수·높이가 모두 결측인 787.5㎡ 동. 체육관동과 2.3m 거리·합계 면적 일치로 **같은 건물의 분할 폴리곤이라고 추론**해 같은 Z그리드와 창 높이를 적용. 높이 15.0m 도 그 추론에 따른 값",
    "estimated": false
   }
  },
  {
   "type": "Feature",
   "geometry": {
    "type": "Point",
    "coordinates": [
     126.93545077,
     37.52319121
    ]
   },
   "properties": {
    "pid": "체육관동 부속(원형부) 4층-4",
    "school": "여의도중학교",
    "jibun": "40-1",
    "kind": "교사동 창면",
    "dong": "체육관동 부속(원형부)",
    "floor": 4,
    "z_m": 13.15,
    "normal_az": 230.9,
    "grade": "A-",
    "근거등급": "A− 도면기준(대응·제원 추론 포함)",
    "근거": "체육관동 4면도(폴리곤 대응은 추론)",
    "추정항목": "AL_D010 에 용도·층수·높이가 모두 결측인 787.5㎡ 동. 체육관동과 2.3m 거리·합계 면적 일치로 **같은 건물의 분할 폴리곤이라고 추론**해 같은 Z그리드와 창 높이를 적용. 높이 15.0m 도 그 추론에 따른 값",
    "estimated": false
   }
  },
  {
   "type": "Feature",
   "geometry": {
    "type": "Point",
    "coordinates": [
     126.93548937,
     37.52315351
    ]
   },
   "properties": {
    "pid": "체육관동 부속(원형부) 1층-5",
    "school": "여의도중학교",
    "jibun": "40-1",
    "kind": "교사동 창면",
    "dong": "체육관동 부속(원형부)",
    "floor": 1,
    "z_m": 2.05,
    "normal_az": 230.9,
    "grade": "A-",
    "근거등급": "A− 도면기준(대응·제원 추론 포함)",
    "근거": "체육관동 4면도(폴리곤 대응은 추론)",
    "추정항목": "AL_D010 에 용도·층수·높이가 모두 결측인 787.5㎡ 동. 체육관동과 2.3m 거리·합계 면적 일치로 **같은 건물의 분할 폴리곤이라고 추론**해 같은 Z그리드와 창 높이를 적용. 높이 15.0m 도 그 추론에 따른 값",
    "estimated": false
   }
  },
  {
   "type": "Feature",
   "geometry": {
    "type": "Point",
    "coordinates": [
     126.93548937,
     37.52315351
    ]
   },
   "properties": {
    "pid": "체육관동 부속(원형부) 2층-5",
    "school": "여의도중학교",
    "jibun": "40-1",
    "kind": "교사동 창면",
    "dong": "체육관동 부속(원형부)",
    "floor": 2,
    "z_m": 5.95,
    "normal_az": 230.9,
    "grade": "A-",
    "근거등급": "A− 도면기준(대응·제원 추론 포함)",
    "근거": "체육관동 4면도(폴리곤 대응은 추론)",
    "추정항목": "AL_D010 에 용도·층수·높이가 모두 결측인 787.5㎡ 동. 체육관동과 2.3m 거리·합계 면적 일치로 **같은 건물의 분할 폴리곤이라고 추론**해 같은 Z그리드와 창 높이를 적용. 높이 15.0m 도 그 추론에 따른 값",
    "estimated": false
   }
  },
  {
   "type": "Feature",
   "geometry": {
    "type": "Point",
    "coordinates": [
     126.93548937,
     37.52315351
    ]
   },
   "properties": {
    "pid": "체육관동 부속(원형부) 3층-5",
    "school": "여의도중학교",
    "jibun": "40-1",
    "kind": "교사동 창면",
    "dong": "체육관동 부속(원형부)",
    "floor": 3,
    "z_m": 9.55,
    "normal_az": 230.9,
    "grade": "A-",
    "근거등급": "A− 도면기준(대응·제원 추론 포함)",
    "근거": "체육관동 4면도(폴리곤 대응은 추론)",
    "추정항목": "AL_D010 에 용도·층수·높이가 모두 결측인 787.5㎡ 동. 체육관동과 2.3m 거리·합계 면적 일치로 **같은 건물의 분할 폴리곤이라고 추론**해 같은 Z그리드와 창 높이를 적용. 높이 15.0m 도 그 추론에 따른 값",
    "estimated": false
   }
  },
  {
   "type": "Feature",
   "geometry": {
    "type": "Point",
    "coordinates": [
     126.93548937,
     37.52315351
    ]
   },
   "properties": {
    "pid": "체육관동 부속(원형부) 4층-5",
    "school": "여의도중학교",
    "jibun": "40-1",
    "kind": "교사동 창면",
    "dong": "체육관동 부속(원형부)",
    "floor": 4,
    "z_m": 13.15,
    "normal_az": 230.9,
    "grade": "A-",
    "근거등급": "A− 도면기준(대응·제원 추론 포함)",
    "근거": "체육관동 4면도(폴리곤 대응은 추론)",
    "추정항목": "AL_D010 에 용도·층수·높이가 모두 결측인 787.5㎡ 동. 체육관동과 2.3m 거리·합계 면적 일치로 **같은 건물의 분할 폴리곤이라고 추론**해 같은 Z그리드와 창 높이를 적용. 높이 15.0m 도 그 추론에 따른 값",
    "estimated": false
   }
  },
  {
   "type": "Feature",
   "geometry": {
    "type": "Point",
    "coordinates": [
     126.9355151,
     37.52312836
    ]
   },
   "properties": {
    "pid": "체육관동 부속(원형부) 1층-6",
    "school": "여의도중학교",
    "jibun": "40-1",
    "kind": "교사동 창면",
    "dong": "체육관동 부속(원형부)",
    "floor": 1,
    "z_m": 2.05,
    "normal_az": 230.9,
    "grade": "A-",
    "근거등급": "A− 도면기준(대응·제원 추론 포함)",
    "근거": "체육관동 4면도(폴리곤 대응은 추론)",
    "추정항목": "AL_D010 에 용도·층수·높이가 모두 결측인 787.5㎡ 동. 체육관동과 2.3m 거리·합계 면적 일치로 **같은 건물의 분할 폴리곤이라고 추론**해 같은 Z그리드와 창 높이를 적용. 높이 15.0m 도 그 추론에 따른 값",
    "estimated": false
   }
  },
  {
   "type": "Feature",
   "geometry": {
    "type": "Point",
    "coordinates": [
     126.9355151,
     37.52312836
    ]
   },
   "properties": {
    "pid": "체육관동 부속(원형부) 2층-6",
    "school": "여의도중학교",
    "jibun": "40-1",
    "kind": "교사동 창면",
    "dong": "체육관동 부속(원형부)",
    "floor": 2,
    "z_m": 5.95,
    "normal_az": 230.9,
    "grade": "A-",
    "근거등급": "A− 도면기준(대응·제원 추론 포함)",
    "근거": "체육관동 4면도(폴리곤 대응은 추론)",
    "추정항목": "AL_D010 에 용도·층수·높이가 모두 결측인 787.5㎡ 동. 체육관동과 2.3m 거리·합계 면적 일치로 **같은 건물의 분할 폴리곤이라고 추론**해 같은 Z그리드와 창 높이를 적용. 높이 15.0m 도 그 추론에 따른 값",
    "estimated": false
   }
  },
  {
   "type": "Feature",
   "geometry": {
    "type": "Point",
    "coordinates": [
     126.9355151,
     37.52312836
    ]
   },
   "properties": {
    "pid": "체육관동 부속(원형부) 3층-6",
    "school": "여의도중학교",
    "jibun": "40-1",
    "kind": "교사동 창면",
    "dong": "체육관동 부속(원형부)",
    "floor": 3,
    "z_m": 9.55,
    "normal_az": 230.9,
    "grade": "A-",
    "근거등급": "A− 도면기준(대응·제원 추론 포함)",
    "근거": "체육관동 4면도(폴리곤 대응은 추론)",
    "추정항목": "AL_D010 에 용도·층수·높이가 모두 결측인 787.5㎡ 동. 체육관동과 2.3m 거리·합계 면적 일치로 **같은 건물의 분할 폴리곤이라고 추론**해 같은 Z그리드와 창 높이를 적용. 높이 15.0m 도 그 추론에 따른 값",
    "estimated": false
   }
  },
  {
   "type": "Feature",
   "geometry": {
    "type": "Point",
    "coordinates": [
     126.9355151,
     37.52312836
    ]
   },
   "properties": {
    "pid": "체육관동 부속(원형부) 4층-6",
    "school": "여의도중학교",
    "jibun": "40-1",
    "kind": "교사동 창면",
    "dong": "체육관동 부속(원형부)",
    "floor": 4,
    "z_m": 13.15,
    "normal_az": 230.9,
    "grade": "A-",
    "근거등급": "A− 도면기준(대응·제원 추론 포함)",
    "근거": "체육관동 4면도(폴리곤 대응은 추론)",
    "추정항목": "AL_D010 에 용도·층수·높이가 모두 결측인 787.5㎡ 동. 체육관동과 2.3m 거리·합계 면적 일치로 **같은 건물의 분할 폴리곤이라고 추론**해 같은 Z그리드와 창 높이를 적용. 높이 15.0m 도 그 추론에 따른 값",
    "estimated": false
   }
  },
  {
   "type": "Feature",
   "geometry": {
    "type": "Point",
    "coordinates": [
     126.9355537,
     37.52309065
    ]
   },
   "properties": {
    "pid": "체육관동 부속(원형부) 1층-7",
    "school": "여의도중학교",
    "jibun": "40-1",
    "kind": "교사동 창면",
    "dong": "체육관동 부속(원형부)",
    "floor": 1,
    "z_m": 2.05,
    "normal_az": 230.9,
    "grade": "A-",
    "근거등급": "A− 도면기준(대응·제원 추론 포함)",
    "근거": "체육관동 4면도(폴리곤 대응은 추론)",
    "추정항목": "AL_D010 에 용도·층수·높이가 모두 결측인 787.5㎡ 동. 체육관동과 2.3m 거리·합계 면적 일치로 **같은 건물의 분할 폴리곤이라고 추론**해 같은 Z그리드와 창 높이를 적용. 높이 15.0m 도 그 추론에 따른 값",
    "estimated": false
   }
  },
  {
   "type": "Feature",
   "geometry": {
    "type": "Point",
    "coordinates": [
     126.9355537,
     37.52309065
    ]
   },
   "properties": {
    "pid": "체육관동 부속(원형부) 2층-7",
    "school": "여의도중학교",
    "jibun": "40-1",
    "kind": "교사동 창면",
    "dong": "체육관동 부속(원형부)",
    "floor": 2,
    "z_m": 5.95,
    "normal_az": 230.9,
    "grade": "A-",
    "근거등급": "A− 도면기준(대응·제원 추론 포함)",
    "근거": "체육관동 4면도(폴리곤 대응은 추론)",
    "추정항목": "AL_D010 에 용도·층수·높이가 모두 결측인 787.5㎡ 동. 체육관동과 2.3m 거리·합계 면적 일치로 **같은 건물의 분할 폴리곤이라고 추론**해 같은 Z그리드와 창 높이를 적용. 높이 15.0m 도 그 추론에 따른 값",
    "estimated": false
   }
  },
  {
   "type": "Feature",
   "geometry": {
    "type": "Point",
    "coordinates": [
     126.9355537,
     37.52309065
    ]
   },
   "properties": {
    "pid": "체육관동 부속(원형부) 3층-7",
    "school": "여의도중학교",
    "jibun": "40-1",
    "kind": "교사동 창면",
    "dong": "체육관동 부속(원형부)",
    "floor": 3,
    "z_m": 9.55,
    "normal_az": 230.9,
    "grade": "A-",
    "근거등급": "A− 도면기준(대응·제원 추론 포함)",
    "근거": "체육관동 4면도(폴리곤 대응은 추론)",
    "추정항목": "AL_D010 에 용도·층수·높이가 모두 결측인 787.5㎡ 동. 체육관동과 2.3m 거리·합계 면적 일치로 **같은 건물의 분할 폴리곤이라고 추론**해 같은 Z그리드와 창 높이를 적용. 높이 15.0m 도 그 추론에 따른 값",
    "estimated": false
   }
  },
  {
   "type": "Feature",
   "geometry": {
    "type": "Point",
    "coordinates": [
     126.9355537,
     37.52309065
    ]
   },
   "properties": {
    "pid": "체육관동 부속(원형부) 4층-7",
    "school": "여의도중학교",
    "jibun": "40-1",
    "kind": "교사동 창면",
    "dong": "체육관동 부속(원형부)",
    "floor": 4,
    "z_m": 13.15,
    "normal_az": 230.9,
    "grade": "A-",
    "근거등급": "A− 도면기준(대응·제원 추론 포함)",
    "근거": "체육관동 4면도(폴리곤 대응은 추론)",
    "추정항목": "AL_D010 에 용도·층수·높이가 모두 결측인 787.5㎡ 동. 체육관동과 2.3m 거리·합계 면적 일치로 **같은 건물의 분할 폴리곤이라고 추론**해 같은 Z그리드와 창 높이를 적용. 높이 15.0m 도 그 추론에 따른 값",
    "estimated": false
   }
  },
  {
   "type": "Feature",
   "geometry": {
    "type": "Point",
    "coordinates": [
     126.93557943,
     37.52306551
    ]
   },
   "properties": {
    "pid": "체육관동 부속(원형부) 1층-8",
    "school": "여의도중학교",
    "jibun": "40-1",
    "kind": "교사동 창면",
    "dong": "체육관동 부속(원형부)",
    "floor": 1,
    "z_m": 2.05,
    "normal_az": 230.9,
    "grade": "A-",
    "근거등급": "A− 도면기준(대응·제원 추론 포함)",
    "근거": "체육관동 4면도(폴리곤 대응은 추론)",
    "추정항목": "AL_D010 에 용도·층수·높이가 모두 결측인 787.5㎡ 동. 체육관동과 2.3m 거리·합계 면적 일치로 **같은 건물의 분할 폴리곤이라고 추론**해 같은 Z그리드와 창 높이를 적용. 높이 15.0m 도 그 추론에 따른 값",
    "estimated": false
   }
  },
  {
   "type": "Feature",
   "geometry": {
    "type": "Point",
    "coordinates": [
     126.93557943,
     37.52306551
    ]
   },
   "properties": {
    "pid": "체육관동 부속(원형부) 2층-8",
    "school": "여의도중학교",
    "jibun": "40-1",
    "kind": "교사동 창면",
    "dong": "체육관동 부속(원형부)",
    "floor": 2,
    "z_m": 5.95,
    "normal_az": 230.9,
    "grade": "A-",
    "근거등급": "A− 도면기준(대응·제원 추론 포함)",
    "근거": "체육관동 4면도(폴리곤 대응은 추론)",
    "추정항목": "AL_D010 에 용도·층수·높이가 모두 결측인 787.5㎡ 동. 체육관동과 2.3m 거리·합계 면적 일치로 **같은 건물의 분할 폴리곤이라고 추론**해 같은 Z그리드와 창 높이를 적용. 높이 15.0m 도 그 추론에 따른 값",
    "estimated": false
   }
  },
  {
   "type": "Feature",
   "geometry": {
    "type": "Point",
    "coordinates": [
     126.93557943,
     37.52306551
    ]
   },
   "properties": {
    "pid": "체육관동 부속(원형부) 3층-8",
    "school": "여의도중학교",
    "jibun": "40-1",
    "kind": "교사동 창면",
    "dong": "체육관동 부속(원형부)",
    "floor": 3,
    "z_m": 9.55,
    "normal_az": 230.9,
    "grade": "A-",
    "근거등급": "A− 도면기준(대응·제원 추론 포함)",
    "근거": "체육관동 4면도(폴리곤 대응은 추론)",
    "추정항목": "AL_D010 에 용도·층수·높이가 모두 결측인 787.5㎡ 동. 체육관동과 2.3m 거리·합계 면적 일치로 **같은 건물의 분할 폴리곤이라고 추론**해 같은 Z그리드와 창 높이를 적용. 높이 15.0m 도 그 추론에 따른 값",
    "estimated": false
   }
  },
  {
   "type": "Feature",
   "geometry": {
    "type": "Point",
    "coordinates": [
     126.93557943,
     37.52306551
    ]
   },
   "properties": {
    "pid": "체육관동 부속(원형부) 4층-8",
    "school": "여의도중학교",
    "jibun": "40-1",
    "kind": "교사동 창면",
    "dong": "체육관동 부속(원형부)",
    "floor": 4,
    "z_m": 13.15,
    "normal_az": 230.9,
    "grade": "A-",
    "근거등급": "A− 도면기준(대응·제원 추론 포함)",
    "근거": "체육관동 4면도(폴리곤 대응은 추론)",
    "추정항목": "AL_D010 에 용도·층수·높이가 모두 결측인 787.5㎡ 동. 체육관동과 2.3m 거리·합계 면적 일치로 **같은 건물의 분할 폴리곤이라고 추론**해 같은 Z그리드와 창 높이를 적용. 높이 15.0m 도 그 추론에 따른 값",
    "estimated": false
   }
  },
  {
   "type": "Feature",
   "geometry": {
    "type": "Point",
    "coordinates": [
     126.93563239,
     37.52308951
    ]
   },
   "properties": {
    "pid": "체육관동 부속(원형부) 1층-9",
    "school": "여의도중학교",
    "jibun": "40-1",
    "kind": "교사동 창면",
    "dong": "체육관동 부속(원형부)",
    "floor": 1,
    "z_m": 2.05,
    "normal_az": 140.9,
    "grade": "A-",
    "근거등급": "A− 도면기준(대응·제원 추론 포함)",
    "근거": "체육관동 4면도(폴리곤 대응은 추론)",
    "추정항목": "AL_D010 에 용도·층수·높이가 모두 결측인 787.5㎡ 동. 체육관동과 2.3m 거리·합계 면적 일치로 **같은 건물의 분할 폴리곤이라고 추론**해 같은 Z그리드와 창 높이를 적용. 높이 15.0m 도 그 추론에 따른 값",
    "estimated": false
   }
  },
  {
   "type": "Feature",
   "geometry": {
    "type": "Point",
    "coordinates": [
     126.93563239,
     37.52308951
    ]
   },
   "properties": {
    "pid": "체육관동 부속(원형부) 2층-9",
    "school": "여의도중학교",
    "jibun": "40-1",
    "kind": "교사동 창면",
    "dong": "체육관동 부속(원형부)",
    "floor": 2,
    "z_m": 5.95,
    "normal_az": 140.9,
    "grade": "A-",
    "근거등급": "A− 도면기준(대응·제원 추론 포함)",
    "근거": "체육관동 4면도(폴리곤 대응은 추론)",
    "추정항목": "AL_D010 에 용도·층수·높이가 모두 결측인 787.5㎡ 동. 체육관동과 2.3m 거리·합계 면적 일치로 **같은 건물의 분할 폴리곤이라고 추론**해 같은 Z그리드와 창 높이를 적용. 높이 15.0m 도 그 추론에 따른 값",
    "estimated": false
   }
  },
  {
   "type": "Feature",
   "geometry": {
    "type": "Point",
    "coordinates": [
     126.93563239,
     37.52308951
    ]
   },
   "properties": {
    "pid": "체육관동 부속(원형부) 3층-9",
    "school": "여의도중학교",
    "jibun": "40-1",
    "kind": "교사동 창면",
    "dong": "체육관동 부속(원형부)",
    "floor": 3,
    "z_m": 9.55,
    "normal_az": 140.9,
    "grade": "A-",
    "근거등급": "A− 도면기준(대응·제원 추론 포함)",
    "근거": "체육관동 4면도(폴리곤 대응은 추론)",
    "추정항목": "AL_D010 에 용도·층수·높이가 모두 결측인 787.5㎡ 동. 체육관동과 2.3m 거리·합계 면적 일치로 **같은 건물의 분할 폴리곤이라고 추론**해 같은 Z그리드와 창 높이를 적용. 높이 15.0m 도 그 추론에 따른 값",
    "estimated": false
   }
  },
  {
   "type": "Feature",
   "geometry": {
    "type": "Point",
    "coordinates": [
     126.93563239,
     37.52308951
    ]
   },
   "properties": {
    "pid": "체육관동 부속(원형부) 4층-9",
    "school": "여의도중학교",
    "jibun": "40-1",
    "kind": "교사동 창면",
    "dong": "체육관동 부속(원형부)",
    "floor": 4,
    "z_m": 13.15,
    "normal_az": 140.9,
    "grade": "A-",
    "근거등급": "A− 도면기준(대응·제원 추론 포함)",
    "근거": "체육관동 4면도(폴리곤 대응은 추론)",
    "추정항목": "AL_D010 에 용도·층수·높이가 모두 결측인 787.5㎡ 동. 체육관동과 2.3m 거리·합계 면적 일치로 **같은 건물의 분할 폴리곤이라고 추론**해 같은 Z그리드와 창 높이를 적용. 높이 15.0m 도 그 추론에 따른 값",
    "estimated": false
   }
  },
  {
   "type": "Feature",
   "geometry": {
    "type": "Point",
    "coordinates": [
     126.93566398,
     37.52310998
    ]
   },
   "properties": {
    "pid": "체육관동 부속(원형부) 1층-10",
    "school": "여의도중학교",
    "jibun": "40-1",
    "kind": "교사동 창면",
    "dong": "체육관동 부속(원형부)",
    "floor": 1,
    "z_m": 2.05,
    "normal_az": 140.9,
    "grade": "A-",
    "근거등급": "A− 도면기준(대응·제원 추론 포함)",
    "근거": "체육관동 4면도(폴리곤 대응은 추론)",
    "추정항목": "AL_D010 에 용도·층수·높이가 모두 결측인 787.5㎡ 동. 체육관동과 2.3m 거리·합계 면적 일치로 **같은 건물의 분할 폴리곤이라고 추론**해 같은 Z그리드와 창 높이를 적용. 높이 15.0m 도 그 추론에 따른 값",
    "estimated": false
   }
  },
  {
   "type": "Feature",
   "geometry": {
    "type": "Point",
    "coordinates": [
     126.93566398,
     37.52310998
    ]
   },
   "properties": {
    "pid": "체육관동 부속(원형부) 2층-10",
    "school": "여의도중학교",
    "jibun": "40-1",
    "kind": "교사동 창면",
    "dong": "체육관동 부속(원형부)",
    "floor": 2,
    "z_m": 5.95,
    "normal_az": 140.9,
    "grade": "A-",
    "근거등급": "A− 도면기준(대응·제원 추론 포함)",
    "근거": "체육관동 4면도(폴리곤 대응은 추론)",
    "추정항목": "AL_D010 에 용도·층수·높이가 모두 결측인 787.5㎡ 동. 체육관동과 2.3m 거리·합계 면적 일치로 **같은 건물의 분할 폴리곤이라고 추론**해 같은 Z그리드와 창 높이를 적용. 높이 15.0m 도 그 추론에 따른 값",
    "estimated": false
   }
  },
  {
   "type": "Feature",
   "geometry": {
    "type": "Point",
    "coordinates": [
     126.93566398,
     37.52310998
    ]
   },
   "properties": {
    "pid": "체육관동 부속(원형부) 3층-10",
    "school": "여의도중학교",
    "jibun": "40-1",
    "kind": "교사동 창면",
    "dong": "체육관동 부속(원형부)",
    "floor": 3,
    "z_m": 9.55,
    "normal_az": 140.9,
    "grade": "A-",
    "근거등급": "A− 도면기준(대응·제원 추론 포함)",
    "근거": "체육관동 4면도(폴리곤 대응은 추론)",
    "추정항목": "AL_D010 에 용도·층수·높이가 모두 결측인 787.5㎡ 동. 체육관동과 2.3m 거리·합계 면적 일치로 **같은 건물의 분할 폴리곤이라고 추론**해 같은 Z그리드와 창 높이를 적용. 높이 15.0m 도 그 추론에 따른 값",
    "estimated": false
   }
  },
  {
   "type": "Feature",
   "geometry": {
    "type": "Point",
    "coordinates": [
     126.93566398,
     37.52310998
    ]
   },
   "properties": {
    "pid": "체육관동 부속(원형부) 4층-10",
    "school": "여의도중학교",
    "jibun": "40-1",
    "kind": "교사동 창면",
    "dong": "체육관동 부속(원형부)",
    "floor": 4,
    "z_m": 13.15,
    "normal_az": 140.9,
    "grade": "A-",
    "근거등급": "A− 도면기준(대응·제원 추론 포함)",
    "근거": "체육관동 4면도(폴리곤 대응은 추론)",
    "추정항목": "AL_D010 에 용도·층수·높이가 모두 결측인 787.5㎡ 동. 체육관동과 2.3m 거리·합계 면적 일치로 **같은 건물의 분할 폴리곤이라고 추론**해 같은 Z그리드와 창 높이를 적용. 높이 15.0m 도 그 추론에 따른 값",
    "estimated": false
   }
  },
  {
   "type": "Feature",
   "geometry": {
    "type": "Point",
    "coordinates": [
     126.93571137,
     37.52314068
    ]
   },
   "properties": {
    "pid": "체육관동 부속(원형부) 1층-11",
    "school": "여의도중학교",
    "jibun": "40-1",
    "kind": "교사동 창면",
    "dong": "체육관동 부속(원형부)",
    "floor": 1,
    "z_m": 2.05,
    "normal_az": 140.9,
    "grade": "A-",
    "근거등급": "A− 도면기준(대응·제원 추론 포함)",
    "근거": "체육관동 4면도(폴리곤 대응은 추론)",
    "추정항목": "AL_D010 에 용도·층수·높이가 모두 결측인 787.5㎡ 동. 체육관동과 2.3m 거리·합계 면적 일치로 **같은 건물의 분할 폴리곤이라고 추론**해 같은 Z그리드와 창 높이를 적용. 높이 15.0m 도 그 추론에 따른 값",
    "estimated": false
   }
  },
  {
   "type": "Feature",
   "geometry": {
    "type": "Point",
    "coordinates": [
     126.93571137,
     37.52314068
    ]
   },
   "properties": {
    "pid": "체육관동 부속(원형부) 2층-11",
    "school": "여의도중학교",
    "jibun": "40-1",
    "kind": "교사동 창면",
    "dong": "체육관동 부속(원형부)",
    "floor": 2,
    "z_m": 5.95,
    "normal_az": 140.9,
    "grade": "A-",
    "근거등급": "A− 도면기준(대응·제원 추론 포함)",
    "근거": "체육관동 4면도(폴리곤 대응은 추론)",
    "추정항목": "AL_D010 에 용도·층수·높이가 모두 결측인 787.5㎡ 동. 체육관동과 2.3m 거리·합계 면적 일치로 **같은 건물의 분할 폴리곤이라고 추론**해 같은 Z그리드와 창 높이를 적용. 높이 15.0m 도 그 추론에 따른 값",
    "estimated": false
   }
  },
  {
   "type": "Feature",
   "geometry": {
    "type": "Point",
    "coordinates": [
     126.93571137,
     37.52314068
    ]
   },
   "properties": {
    "pid": "체육관동 부속(원형부) 3층-11",
    "school": "여의도중학교",
    "jibun": "40-1",
    "kind": "교사동 창면",
    "dong": "체육관동 부속(원형부)",
    "floor": 3,
    "z_m": 9.55,
    "normal_az": 140.9,
    "grade": "A-",
    "근거등급": "A− 도면기준(대응·제원 추론 포함)",
    "근거": "체육관동 4면도(폴리곤 대응은 추론)",
    "추정항목": "AL_D010 에 용도·층수·높이가 모두 결측인 787.5㎡ 동. 체육관동과 2.3m 거리·합계 면적 일치로 **같은 건물의 분할 폴리곤이라고 추론**해 같은 Z그리드와 창 높이를 적용. 높이 15.0m 도 그 추론에 따른 값",
    "estimated": false
   }
  },
  {
   "type": "Feature",
   "geometry": {
    "type": "Point",
    "coordinates": [
     126.93571137,
     37.52314068
    ]
   },
   "properties": {
    "pid": "체육관동 부속(원형부) 4층-11",
    "school": "여의도중학교",
    "jibun": "40-1",
    "kind": "교사동 창면",
    "dong": "체육관동 부속(원형부)",
    "floor": 4,
    "z_m": 13.15,
    "normal_az": 140.9,
    "grade": "A-",
    "근거등급": "A− 도면기준(대응·제원 추론 포함)",
    "근거": "체육관동 4면도(폴리곤 대응은 추론)",
    "추정항목": "AL_D010 에 용도·층수·높이가 모두 결측인 787.5㎡ 동. 체육관동과 2.3m 거리·합계 면적 일치로 **같은 건물의 분할 폴리곤이라고 추론**해 같은 Z그리드와 창 높이를 적용. 높이 15.0m 도 그 추론에 따른 값",
    "estimated": false
   }
  },
  {
   "type": "Feature",
   "geometry": {
    "type": "Point",
    "coordinates": [
     126.93574296,
     37.52316115
    ]
   },
   "properties": {
    "pid": "체육관동 부속(원형부) 1층-12",
    "school": "여의도중학교",
    "jibun": "40-1",
    "kind": "교사동 창면",
    "dong": "체육관동 부속(원형부)",
    "floor": 1,
    "z_m": 2.05,
    "normal_az": 140.9,
    "grade": "A-",
    "근거등급": "A− 도면기준(대응·제원 추론 포함)",
    "근거": "체육관동 4면도(폴리곤 대응은 추론)",
    "추정항목": "AL_D010 에 용도·층수·높이가 모두 결측인 787.5㎡ 동. 체육관동과 2.3m 거리·합계 면적 일치로 **같은 건물의 분할 폴리곤이라고 추론**해 같은 Z그리드와 창 높이를 적용. 높이 15.0m 도 그 추론에 따른 값",
    "estimated": false
   }
  },
  {
   "type": "Feature",
   "geometry": {
    "type": "Point",
    "coordinates": [
     126.93574296,
     37.52316115
    ]
   },
   "properties": {
    "pid": "체육관동 부속(원형부) 2층-12",
    "school": "여의도중학교",
    "jibun": "40-1",
    "kind": "교사동 창면",
    "dong": "체육관동 부속(원형부)",
    "floor": 2,
    "z_m": 5.95,
    "normal_az": 140.9,
    "grade": "A-",
    "근거등급": "A− 도면기준(대응·제원 추론 포함)",
    "근거": "체육관동 4면도(폴리곤 대응은 추론)",
    "추정항목": "AL_D010 에 용도·층수·높이가 모두 결측인 787.5㎡ 동. 체육관동과 2.3m 거리·합계 면적 일치로 **같은 건물의 분할 폴리곤이라고 추론**해 같은 Z그리드와 창 높이를 적용. 높이 15.0m 도 그 추론에 따른 값",
    "estimated": false
   }
  },
  {
   "type": "Feature",
   "geometry": {
    "type": "Point",
    "coordinates": [
     126.93574296,
     37.52316115
    ]
   },
   "properties": {
    "pid": "체육관동 부속(원형부) 3층-12",
    "school": "여의도중학교",
    "jibun": "40-1",
    "kind": "교사동 창면",
    "dong": "체육관동 부속(원형부)",
    "floor": 3,
    "z_m": 9.55,
    "normal_az": 140.9,
    "grade": "A-",
    "근거등급": "A− 도면기준(대응·제원 추론 포함)",
    "근거": "체육관동 4면도(폴리곤 대응은 추론)",
    "추정항목": "AL_D010 에 용도·층수·높이가 모두 결측인 787.5㎡ 동. 체육관동과 2.3m 거리·합계 면적 일치로 **같은 건물의 분할 폴리곤이라고 추론**해 같은 Z그리드와 창 높이를 적용. 높이 15.0m 도 그 추론에 따른 값",
    "estimated": false
   }
  },
  {
   "type": "Feature",
   "geometry": {
    "type": "Point",
    "coordinates": [
     126.93574296,
     37.52316115
    ]
   },
   "properties": {
    "pid": "체육관동 부속(원형부) 4층-12",
    "school": "여의도중학교",
    "jibun": "40-1",
    "kind": "교사동 창면",
    "dong": "체육관동 부속(원형부)",
    "floor": 4,
    "z_m": 13.15,
    "normal_az": 140.9,
    "grade": "A-",
    "근거등급": "A− 도면기준(대응·제원 추론 포함)",
    "근거": "체육관동 4면도(폴리곤 대응은 추론)",
    "추정항목": "AL_D010 에 용도·층수·높이가 모두 결측인 787.5㎡ 동. 체육관동과 2.3m 거리·합계 면적 일치로 **같은 건물의 분할 폴리곤이라고 추론**해 같은 Z그리드와 창 높이를 적용. 높이 15.0m 도 그 추론에 따른 값",
    "estimated": false
   }
  },
  {
   "type": "Feature",
   "geometry": {
    "type": "Point",
    "coordinates": [
     126.93530501,
     37.52271688
    ]
   },
   "properties": {
    "pid": "A동(3층) A동 남서면 1층-1",
    "school": "여의도여자고등학교",
    "jibun": "40-2",
    "kind": "교사동 창면",
    "dong": "A동(3층)",
    "floor": 1,
    "z_m": 2.3,
    "normal_az": 232.1,
    "grade": "A-",
    "근거등급": "A− 도면기준(대응·제원 추론 포함)",
    "근거": "A동 수광지침서",
    "추정항목": "AL_D010 이 5층·13.00m 로 층수와 높이가 서로 모순(5층이면 층고 2.6m). 지침서가 3개층이므로 **3층·층고 4.0m + 파라펫 1.0m 로 추정**. 창 1.5~3.1m 는 창 표기와 층 피치의 비에서 환산해 ±0.2m 오차 가능. 3층 리본창 모듈(면별 7.7m/5.8m)도 점 개수에 맞춘 역산값",
    "estimated": false
   }
  },
  {
   "type": "Feature",
   "geometry": {
    "type": "Point",
    "coordinates": [
     126.93530501,
     37.52271688
    ]
   },
   "properties": {
    "pid": "A동(3층) A동 남서면 2층-1",
    "school": "여의도여자고등학교",
    "jibun": "40-2",
    "kind": "교사동 창면",
    "dong": "A동(3층)",
    "floor": 2,
    "z_m": 6.3,
    "normal_az": 232.1,
    "grade": "A-",
    "근거등급": "A− 도면기준(대응·제원 추론 포함)",
    "근거": "A동 수광지침서",
    "추정항목": "AL_D010 이 5층·13.00m 로 층수와 높이가 서로 모순(5층이면 층고 2.6m). 지침서가 3개층이므로 **3층·층고 4.0m + 파라펫 1.0m 로 추정**. 창 1.5~3.1m 는 창 표기와 층 피치의 비에서 환산해 ±0.2m 오차 가능. 3층 리본창 모듈(면별 7.7m/5.8m)도 점 개수에 맞춘 역산값",
    "estimated": false
   }
  },
  {
   "type": "Feature",
   "geometry": {
    "type": "Point",
    "coordinates": [
     126.93533633,
     37.52268491
    ]
   },
   "properties": {
    "pid": "A동(3층) A동 남서면 1층-2",
    "school": "여의도여자고등학교",
    "jibun": "40-2",
    "kind": "교사동 창면",
    "dong": "A동(3층)",
    "floor": 1,
    "z_m": 2.3,
    "normal_az": 232.1,
    "grade": "A-",
    "근거등급": "A− 도면기준(대응·제원 추론 포함)",
    "근거": "A동 수광지침서",
    "추정항목": "AL_D010 이 5층·13.00m 로 층수와 높이가 서로 모순(5층이면 층고 2.6m). 지침서가 3개층이므로 **3층·층고 4.0m + 파라펫 1.0m 로 추정**. 창 1.5~3.1m 는 창 표기와 층 피치의 비에서 환산해 ±0.2m 오차 가능. 3층 리본창 모듈(면별 7.7m/5.8m)도 점 개수에 맞춘 역산값",
    "estimated": false
   }
  },
  {
   "type": "Feature",
   "geometry": {
    "type": "Point",
    "coordinates": [
     126.93533633,
     37.52268491
    ]
   },
   "properties": {
    "pid": "A동(3층) A동 남서면 2층-2",
    "school": "여의도여자고등학교",
    "jibun": "40-2",
    "kind": "교사동 창면",
    "dong": "A동(3층)",
    "floor": 2,
    "z_m": 6.3,
    "normal_az": 232.1,
    "grade": "A-",
    "근거등급": "A− 도면기준(대응·제원 추론 포함)",
    "근거": "A동 수광지침서",
    "추정항목": "AL_D010 이 5층·13.00m 로 층수와 높이가 서로 모순(5층이면 층고 2.6m). 지침서가 3개층이므로 **3층·층고 4.0m + 파라펫 1.0m 로 추정**. 창 1.5~3.1m 는 창 표기와 층 피치의 비에서 환산해 ±0.2m 오차 가능. 3층 리본창 모듈(면별 7.7m/5.8m)도 점 개수에 맞춘 역산값",
    "estimated": false
   }
  },
  {
   "type": "Feature",
   "geometry": {
    "type": "Point",
    "coordinates": [
     126.93536763,
     37.52265295
    ]
   },
   "properties": {
    "pid": "A동(3층) A동 남서면 1층-3",
    "school": "여의도여자고등학교",
    "jibun": "40-2",
    "kind": "교사동 창면",
    "dong": "A동(3층)",
    "floor": 1,
    "z_m": 2.3,
    "normal_az": 232.1,
    "grade": "A-",
    "근거등급": "A− 도면기준(대응·제원 추론 포함)",
    "근거": "A동 수광지침서",
    "추정항목": "AL_D010 이 5층·13.00m 로 층수와 높이가 서로 모순(5층이면 층고 2.6m). 지침서가 3개층이므로 **3층·층고 4.0m + 파라펫 1.0m 로 추정**. 창 1.5~3.1m 는 창 표기와 층 피치의 비에서 환산해 ±0.2m 오차 가능. 3층 리본창 모듈(면별 7.7m/5.8m)도 점 개수에 맞춘 역산값",
    "estimated": false
   }
  },
  {
   "type": "Feature",
   "geometry": {
    "type": "Point",
    "coordinates": [
     126.93536763,
     37.52265295
    ]
   },
   "properties": {
    "pid": "A동(3층) A동 남서면 2층-3",
    "school": "여의도여자고등학교",
    "jibun": "40-2",
    "kind": "교사동 창면",
    "dong": "A동(3층)",
    "floor": 2,
    "z_m": 6.3,
    "normal_az": 232.1,
    "grade": "A-",
    "근거등급": "A− 도면기준(대응·제원 추론 포함)",
    "근거": "A동 수광지침서",
    "추정항목": "AL_D010 이 5층·13.00m 로 층수와 높이가 서로 모순(5층이면 층고 2.6m). 지침서가 3개층이므로 **3층·층고 4.0m + 파라펫 1.0m 로 추정**. 창 1.5~3.1m 는 창 표기와 층 피치의 비에서 환산해 ±0.2m 오차 가능. 3층 리본창 모듈(면별 7.7m/5.8m)도 점 개수에 맞춘 역산값",
    "estimated": false
   }
  },
  {
   "type": "Feature",
   "geometry": {
    "type": "Point",
    "coordinates": [
     126.93539895,
     37.52262098
    ]
   },
   "properties": {
    "pid": "A동(3층) A동 남서면 1층-4",
    "school": "여의도여자고등학교",
    "jibun": "40-2",
    "kind": "교사동 창면",
    "dong": "A동(3층)",
    "floor": 1,
    "z_m": 2.3,
    "normal_az": 232.1,
    "grade": "A-",
    "근거등급": "A− 도면기준(대응·제원 추론 포함)",
    "근거": "A동 수광지침서",
    "추정항목": "AL_D010 이 5층·13.00m 로 층수와 높이가 서로 모순(5층이면 층고 2.6m). 지침서가 3개층이므로 **3층·층고 4.0m + 파라펫 1.0m 로 추정**. 창 1.5~3.1m 는 창 표기와 층 피치의 비에서 환산해 ±0.2m 오차 가능. 3층 리본창 모듈(면별 7.7m/5.8m)도 점 개수에 맞춘 역산값",
    "estimated": false
   }
  },
  {
   "type": "Feature",
   "geometry": {
    "type": "Point",
    "coordinates": [
     126.93539895,
     37.52262098
    ]
   },
   "properties": {
    "pid": "A동(3층) A동 남서면 2층-4",
    "school": "여의도여자고등학교",
    "jibun": "40-2",
    "kind": "교사동 창면",
    "dong": "A동(3층)",
    "floor": 2,
    "z_m": 6.3,
    "normal_az": 232.1,
    "grade": "A-",
    "근거등급": "A− 도면기준(대응·제원 추론 포함)",
    "근거": "A동 수광지침서",
    "추정항목": "AL_D010 이 5층·13.00m 로 층수와 높이가 서로 모순(5층이면 층고 2.6m). 지침서가 3개층이므로 **3층·층고 4.0m + 파라펫 1.0m 로 추정**. 창 1.5~3.1m 는 창 표기와 층 피치의 비에서 환산해 ±0.2m 오차 가능. 3층 리본창 모듈(면별 7.7m/5.8m)도 점 개수에 맞춘 역산값",
    "estimated": false
   }
  },
  {
   "type": "Feature",
   "geometry": {
    "type": "Point",
    "coordinates": [
     126.93543026,
     37.52258901
    ]
   },
   "properties": {
    "pid": "A동(3층) A동 남서면 1층-5",
    "school": "여의도여자고등학교",
    "jibun": "40-2",
    "kind": "교사동 창면",
    "dong": "A동(3층)",
    "floor": 1,
    "z_m": 2.3,
    "normal_az": 232.1,
    "grade": "A-",
    "근거등급": "A− 도면기준(대응·제원 추론 포함)",
    "근거": "A동 수광지침서",
    "추정항목": "AL_D010 이 5층·13.00m 로 층수와 높이가 서로 모순(5층이면 층고 2.6m). 지침서가 3개층이므로 **3층·층고 4.0m + 파라펫 1.0m 로 추정**. 창 1.5~3.1m 는 창 표기와 층 피치의 비에서 환산해 ±0.2m 오차 가능. 3층 리본창 모듈(면별 7.7m/5.8m)도 점 개수에 맞춘 역산값",
    "estimated": false
   }
  },
  {
   "type": "Feature",
   "geometry": {
    "type": "Point",
    "coordinates": [
     126.93543026,
     37.52258901
    ]
   },
   "properties": {
    "pid": "A동(3층) A동 남서면 2층-5",
    "school": "여의도여자고등학교",
    "jibun": "40-2",
    "kind": "교사동 창면",
    "dong": "A동(3층)",
    "floor": 2,
    "z_m": 6.3,
    "normal_az": 232.1,
    "grade": "A-",
    "근거등급": "A− 도면기준(대응·제원 추론 포함)",
    "근거": "A동 수광지침서",
    "추정항목": "AL_D010 이 5층·13.00m 로 층수와 높이가 서로 모순(5층이면 층고 2.6m). 지침서가 3개층이므로 **3층·층고 4.0m + 파라펫 1.0m 로 추정**. 창 1.5~3.1m 는 창 표기와 층 피치의 비에서 환산해 ±0.2m 오차 가능. 3층 리본창 모듈(면별 7.7m/5.8m)도 점 개수에 맞춘 역산값",
    "estimated": false
   }
  },
  {
   "type": "Feature",
   "geometry": {
    "type": "Point",
    "coordinates": [
     126.93547622,
     37.5225809
    ]
   },
   "properties": {
    "pid": "A동(3층) A동 남동면 1층-1",
    "school": "여의도여자고등학교",
    "jibun": "40-2",
    "kind": "교사동 창면",
    "dong": "A동(3층)",
    "floor": 1,
    "z_m": 2.3,
    "normal_az": 142.1,
    "grade": "A-",
    "근거등급": "A− 도면기준(대응·제원 추론 포함)",
    "근거": "A동 수광지침서",
    "추정항목": "AL_D010 이 5층·13.00m 로 층수와 높이가 서로 모순(5층이면 층고 2.6m). 지침서가 3개층이므로 **3층·층고 4.0m + 파라펫 1.0m 로 추정**. 창 1.5~3.1m 는 창 표기와 층 피치의 비에서 환산해 ±0.2m 오차 가능. 3층 리본창 모듈(면별 7.7m/5.8m)도 점 개수에 맞춘 역산값",
    "estimated": false
   }
  },
  {
   "type": "Feature",
   "geometry": {
    "type": "Point",
    "coordinates": [
     126.93547622,
     37.5225809
    ]
   },
   "properties": {
    "pid": "A동(3층) A동 남동면 2층-1",
    "school": "여의도여자고등학교",
    "jibun": "40-2",
    "kind": "교사동 창면",
    "dong": "A동(3층)",
    "floor": 2,
    "z_m": 6.3,
    "normal_az": 142.1,
    "grade": "A-",
    "근거등급": "A− 도면기준(대응·제원 추론 포함)",
    "근거": "A동 수광지침서",
    "추정항목": "AL_D010 이 5층·13.00m 로 층수와 높이가 서로 모순(5층이면 층고 2.6m). 지침서가 3개층이므로 **3층·층고 4.0m + 파라펫 1.0m 로 추정**. 창 1.5~3.1m 는 창 표기와 층 피치의 비에서 환산해 ±0.2m 오차 가능. 3층 리본창 모듈(면별 7.7m/5.8m)도 점 개수에 맞춘 역산값",
    "estimated": false
   }
  },
  {
   "type": "Feature",
   "geometry": {
    "type": "Point",
    "coordinates": [
     126.93551636,
     37.52260584
    ]
   },
   "properties": {
    "pid": "A동(3층) A동 남동면 1층-2",
    "school": "여의도여자고등학교",
    "jibun": "40-2",
    "kind": "교사동 창면",
    "dong": "A동(3층)",
    "floor": 1,
    "z_m": 2.3,
    "normal_az": 142.1,
    "grade": "A-",
    "근거등급": "A− 도면기준(대응·제원 추론 포함)",
    "근거": "A동 수광지침서",
    "추정항목": "AL_D010 이 5층·13.00m 로 층수와 높이가 서로 모순(5층이면 층고 2.6m). 지침서가 3개층이므로 **3층·층고 4.0m + 파라펫 1.0m 로 추정**. 창 1.5~3.1m 는 창 표기와 층 피치의 비에서 환산해 ±0.2m 오차 가능. 3층 리본창 모듈(면별 7.7m/5.8m)도 점 개수에 맞춘 역산값",
    "estimated": false
   }
  },
  {
   "type": "Feature",
   "geometry": {
    "type": "Point",
    "coordinates": [
     126.93551636,
     37.52260584
    ]
   },
   "properties": {
    "pid": "A동(3층) A동 남동면 2층-2",
    "school": "여의도여자고등학교",
    "jibun": "40-2",
    "kind": "교사동 창면",
    "dong": "A동(3층)",
    "floor": 2,
    "z_m": 6.3,
    "normal_az": 142.1,
    "grade": "A-",
    "근거등급": "A− 도면기준(대응·제원 추론 포함)",
    "근거": "A동 수광지침서",
    "추정항목": "AL_D010 이 5층·13.00m 로 층수와 높이가 서로 모순(5층이면 층고 2.6m). 지침서가 3개층이므로 **3층·층고 4.0m + 파라펫 1.0m 로 추정**. 창 1.5~3.1m 는 창 표기와 층 피치의 비에서 환산해 ±0.2m 오차 가능. 3층 리본창 모듈(면별 7.7m/5.8m)도 점 개수에 맞춘 역산값",
    "estimated": false
   }
  },
  {
   "type": "Feature",
   "geometry": {
    "type": "Point",
    "coordinates": [
     126.9355565,
     37.52263077
    ]
   },
   "properties": {
    "pid": "A동(3층) A동 남동면 1층-3",
    "school": "여의도여자고등학교",
    "jibun": "40-2",
    "kind": "교사동 창면",
    "dong": "A동(3층)",
    "floor": 1,
    "z_m": 2.3,
    "normal_az": 142.1,
    "grade": "A-",
    "근거등급": "A− 도면기준(대응·제원 추론 포함)",
    "근거": "A동 수광지침서",
    "추정항목": "AL_D010 이 5층·13.00m 로 층수와 높이가 서로 모순(5층이면 층고 2.6m). 지침서가 3개층이므로 **3층·층고 4.0m + 파라펫 1.0m 로 추정**. 창 1.5~3.1m 는 창 표기와 층 피치의 비에서 환산해 ±0.2m 오차 가능. 3층 리본창 모듈(면별 7.7m/5.8m)도 점 개수에 맞춘 역산값",
    "estimated": false
   }
  },
  {
   "type": "Feature",
   "geometry": {
    "type": "Point",
    "coordinates": [
     126.9355565,
     37.52263077
    ]
   },
   "properties": {
    "pid": "A동(3층) A동 남동면 2층-3",
    "school": "여의도여자고등학교",
    "jibun": "40-2",
    "kind": "교사동 창면",
    "dong": "A동(3층)",
    "floor": 2,
    "z_m": 6.3,
    "normal_az": 142.1,
    "grade": "A-",
    "근거등급": "A− 도면기준(대응·제원 추론 포함)",
    "근거": "A동 수광지침서",
    "추정항목": "AL_D010 이 5층·13.00m 로 층수와 높이가 서로 모순(5층이면 층고 2.6m). 지침서가 3개층이므로 **3층·층고 4.0m + 파라펫 1.0m 로 추정**. 창 1.5~3.1m 는 창 표기와 층 피치의 비에서 환산해 ±0.2m 오차 가능. 3층 리본창 모듈(면별 7.7m/5.8m)도 점 개수에 맞춘 역산값",
    "estimated": false
   }
  },
  {
   "type": "Feature",
   "geometry": {
    "type": "Point",
    "coordinates": [
     126.93559665,
     37.52265571
    ]
   },
   "properties": {
    "pid": "A동(3층) A동 남동면 1층-4",
    "school": "여의도여자고등학교",
    "jibun": "40-2",
    "kind": "교사동 창면",
    "dong": "A동(3층)",
    "floor": 1,
    "z_m": 2.3,
    "normal_az": 142.1,
    "grade": "A-",
    "근거등급": "A− 도면기준(대응·제원 추론 포함)",
    "근거": "A동 수광지침서",
    "추정항목": "AL_D010 이 5층·13.00m 로 층수와 높이가 서로 모순(5층이면 층고 2.6m). 지침서가 3개층이므로 **3층·층고 4.0m + 파라펫 1.0m 로 추정**. 창 1.5~3.1m 는 창 표기와 층 피치의 비에서 환산해 ±0.2m 오차 가능. 3층 리본창 모듈(면별 7.7m/5.8m)도 점 개수에 맞춘 역산값",
    "estimated": false
   }
  },
  {
   "type": "Feature",
   "geometry": {
    "type": "Point",
    "coordinates": [
     126.93559665,
     37.52265571
    ]
   },
   "properties": {
    "pid": "A동(3층) A동 남동면 2층-4",
    "school": "여의도여자고등학교",
    "jibun": "40-2",
    "kind": "교사동 창면",
    "dong": "A동(3층)",
    "floor": 2,
    "z_m": 6.3,
    "normal_az": 142.1,
    "grade": "A-",
    "근거등급": "A− 도면기준(대응·제원 추론 포함)",
    "근거": "A동 수광지침서",
    "추정항목": "AL_D010 이 5층·13.00m 로 층수와 높이가 서로 모순(5층이면 층고 2.6m). 지침서가 3개층이므로 **3층·층고 4.0m + 파라펫 1.0m 로 추정**. 창 1.5~3.1m 는 창 표기와 층 피치의 비에서 환산해 ±0.2m 오차 가능. 3층 리본창 모듈(면별 7.7m/5.8m)도 점 개수에 맞춘 역산값",
    "estimated": false
   }
  },
  {
   "type": "Feature",
   "geometry": {
    "type": "Point",
    "coordinates": [
     126.93563679,
     37.52268063
    ]
   },
   "properties": {
    "pid": "A동(3층) A동 남동면 1층-5",
    "school": "여의도여자고등학교",
    "jibun": "40-2",
    "kind": "교사동 창면",
    "dong": "A동(3층)",
    "floor": 1,
    "z_m": 2.3,
    "normal_az": 142.1,
    "grade": "A-",
    "근거등급": "A− 도면기준(대응·제원 추론 포함)",
    "근거": "A동 수광지침서",
    "추정항목": "AL_D010 이 5층·13.00m 로 층수와 높이가 서로 모순(5층이면 층고 2.6m). 지침서가 3개층이므로 **3층·층고 4.0m + 파라펫 1.0m 로 추정**. 창 1.5~3.1m 는 창 표기와 층 피치의 비에서 환산해 ±0.2m 오차 가능. 3층 리본창 모듈(면별 7.7m/5.8m)도 점 개수에 맞춘 역산값",
    "estimated": false
   }
  },
  {
   "type": "Feature",
   "geometry": {
    "type": "Point",
    "coordinates": [
     126.93563679,
     37.52268063
    ]
   },
   "properties": {
    "pid": "A동(3층) A동 남동면 2층-5",
    "school": "여의도여자고등학교",
    "jibun": "40-2",
    "kind": "교사동 창면",
    "dong": "A동(3층)",
    "floor": 2,
    "z_m": 6.3,
    "normal_az": 142.1,
    "grade": "A-",
    "근거등급": "A− 도면기준(대응·제원 추론 포함)",
    "근거": "A동 수광지침서",
    "추정항목": "AL_D010 이 5층·13.00m 로 층수와 높이가 서로 모순(5층이면 층고 2.6m). 지침서가 3개층이므로 **3층·층고 4.0m + 파라펫 1.0m 로 추정**. 창 1.5~3.1m 는 창 표기와 층 피치의 비에서 환산해 ±0.2m 오차 가능. 3층 리본창 모듈(면별 7.7m/5.8m)도 점 개수에 맞춘 역산값",
    "estimated": false
   }
  },
  {
   "type": "Feature",
   "geometry": {
    "type": "Point",
    "coordinates": [
     126.93567694,
     37.52270557
    ]
   },
   "properties": {
    "pid": "A동(3층) A동 남동면 1층-6",
    "school": "여의도여자고등학교",
    "jibun": "40-2",
    "kind": "교사동 창면",
    "dong": "A동(3층)",
    "floor": 1,
    "z_m": 2.3,
    "normal_az": 142.1,
    "grade": "A-",
    "근거등급": "A− 도면기준(대응·제원 추론 포함)",
    "근거": "A동 수광지침서",
    "추정항목": "AL_D010 이 5층·13.00m 로 층수와 높이가 서로 모순(5층이면 층고 2.6m). 지침서가 3개층이므로 **3층·층고 4.0m + 파라펫 1.0m 로 추정**. 창 1.5~3.1m 는 창 표기와 층 피치의 비에서 환산해 ±0.2m 오차 가능. 3층 리본창 모듈(면별 7.7m/5.8m)도 점 개수에 맞춘 역산값",
    "estimated": false
   }
  },
  {
   "type": "Feature",
   "geometry": {
    "type": "Point",
    "coordinates": [
     126.93567694,
     37.52270557
    ]
   },
   "properties": {
    "pid": "A동(3층) A동 남동면 2층-6",
    "school": "여의도여자고등학교",
    "jibun": "40-2",
    "kind": "교사동 창면",
    "dong": "A동(3층)",
    "floor": 2,
    "z_m": 6.3,
    "normal_az": 142.1,
    "grade": "A-",
    "근거등급": "A− 도면기준(대응·제원 추론 포함)",
    "근거": "A동 수광지침서",
    "추정항목": "AL_D010 이 5층·13.00m 로 층수와 높이가 서로 모순(5층이면 층고 2.6m). 지침서가 3개층이므로 **3층·층고 4.0m + 파라펫 1.0m 로 추정**. 창 1.5~3.1m 는 창 표기와 층 피치의 비에서 환산해 ±0.2m 오차 가능. 3층 리본창 모듈(면별 7.7m/5.8m)도 점 개수에 맞춘 역산값",
    "estimated": false
   }
  },
  {
   "type": "Feature",
   "geometry": {
    "type": "Point",
    "coordinates": [
     126.93571707,
     37.5227305
    ]
   },
   "properties": {
    "pid": "A동(3층) A동 남동면 1층-7",
    "school": "여의도여자고등학교",
    "jibun": "40-2",
    "kind": "교사동 창면",
    "dong": "A동(3층)",
    "floor": 1,
    "z_m": 2.3,
    "normal_az": 142.1,
    "grade": "A-",
    "근거등급": "A− 도면기준(대응·제원 추론 포함)",
    "근거": "A동 수광지침서",
    "추정항목": "AL_D010 이 5층·13.00m 로 층수와 높이가 서로 모순(5층이면 층고 2.6m). 지침서가 3개층이므로 **3층·층고 4.0m + 파라펫 1.0m 로 추정**. 창 1.5~3.1m 는 창 표기와 층 피치의 비에서 환산해 ±0.2m 오차 가능. 3층 리본창 모듈(면별 7.7m/5.8m)도 점 개수에 맞춘 역산값",
    "estimated": false
   }
  },
  {
   "type": "Feature",
   "geometry": {
    "type": "Point",
    "coordinates": [
     126.93571707,
     37.5227305
    ]
   },
   "properties": {
    "pid": "A동(3층) A동 남동면 2층-7",
    "school": "여의도여자고등학교",
    "jibun": "40-2",
    "kind": "교사동 창면",
    "dong": "A동(3층)",
    "floor": 2,
    "z_m": 6.3,
    "normal_az": 142.1,
    "grade": "A-",
    "근거등급": "A− 도면기준(대응·제원 추론 포함)",
    "근거": "A동 수광지침서",
    "추정항목": "AL_D010 이 5층·13.00m 로 층수와 높이가 서로 모순(5층이면 층고 2.6m). 지침서가 3개층이므로 **3층·층고 4.0m + 파라펫 1.0m 로 추정**. 창 1.5~3.1m 는 창 표기와 층 피치의 비에서 환산해 ±0.2m 오차 가능. 3층 리본창 모듈(면별 7.7m/5.8m)도 점 개수에 맞춘 역산값",
    "estimated": false
   }
  },
  {
   "type": "Feature",
   "geometry": {
    "type": "Point",
    "coordinates": [
     126.93531615,
     37.52270551
    ]
   },
   "properties": {
    "pid": "A동(3층) A동 남서면 3층-1",
    "school": "여의도여자고등학교",
    "jibun": "40-2",
    "kind": "교사동 창면",
    "dong": "A동(3층)",
    "floor": 3,
    "z_m": 10.3,
    "normal_az": 232.1,
    "grade": "A-",
    "근거등급": "A− 도면기준(대응·제원 추론 포함)",
    "근거": "A동 수광지침서",
    "추정항목": "AL_D010 이 5층·13.00m 로 층수와 높이가 서로 모순(5층이면 층고 2.6m). 지침서가 3개층이므로 **3층·층고 4.0m + 파라펫 1.0m 로 추정**. 창 1.5~3.1m 는 창 표기와 층 피치의 비에서 환산해 ±0.2m 오차 가능. 3층 리본창 모듈(면별 7.7m/5.8m)도 점 개수에 맞춘 역산값",
    "estimated": false
   }
  },
  {
   "type": "Feature",
   "geometry": {
    "type": "Point",
    "coordinates": [
     126.93536973,
     37.52265082
    ]
   },
   "properties": {
    "pid": "A동(3층) A동 남서면 3층-2",
    "school": "여의도여자고등학교",
    "jibun": "40-2",
    "kind": "교사동 창면",
    "dong": "A동(3층)",
    "floor": 3,
    "z_m": 10.3,
    "normal_az": 232.1,
    "grade": "A-",
    "근거등급": "A− 도면기준(대응·제원 추론 포함)",
    "근거": "A동 수광지침서",
    "추정항목": "AL_D010 이 5층·13.00m 로 층수와 높이가 서로 모순(5층이면 층고 2.6m). 지침서가 3개층이므로 **3층·층고 4.0m + 파라펫 1.0m 로 추정**. 창 1.5~3.1m 는 창 표기와 층 피치의 비에서 환산해 ±0.2m 오차 가능. 3층 리본창 모듈(면별 7.7m/5.8m)도 점 개수에 맞춘 역산값",
    "estimated": false
   }
  },
  {
   "type": "Feature",
   "geometry": {
    "type": "Point",
    "coordinates": [
     126.93542331,
     37.52259612
    ]
   },
   "properties": {
    "pid": "A동(3층) A동 남서면 3층-3",
    "school": "여의도여자고등학교",
    "jibun": "40-2",
    "kind": "교사동 창면",
    "dong": "A동(3층)",
    "floor": 3,
    "z_m": 10.3,
    "normal_az": 232.1,
    "grade": "A-",
    "근거등급": "A− 도면기준(대응·제원 추론 포함)",
    "근거": "A동 수광지침서",
    "추정항목": "AL_D010 이 5층·13.00m 로 층수와 높이가 서로 모순(5층이면 층고 2.6m). 지침서가 3개층이므로 **3층·층고 4.0m + 파라펫 1.0m 로 추정**. 창 1.5~3.1m 는 창 표기와 층 피치의 비에서 환산해 ±0.2m 오차 가능. 3층 리본창 모듈(면별 7.7m/5.8m)도 점 개수에 맞춘 역산값",
    "estimated": false
   }
  },
  {
   "type": "Feature",
   "geometry": {
    "type": "Point",
    "coordinates": [
     126.93548202,
     37.52258451
    ]
   },
   "properties": {
    "pid": "A동(3층) A동 남동면 3층-1",
    "school": "여의도여자고등학교",
    "jibun": "40-2",
    "kind": "교사동 창면",
    "dong": "A동(3층)",
    "floor": 3,
    "z_m": 10.3,
    "normal_az": 142.1,
    "grade": "A-",
    "근거등급": "A− 도면기준(대응·제원 추론 포함)",
    "근거": "A동 수광지침서",
    "추정항목": "AL_D010 이 5층·13.00m 로 층수와 높이가 서로 모순(5층이면 층고 2.6m). 지침서가 3개층이므로 **3층·층고 4.0m + 파라펫 1.0m 로 추정**. 창 1.5~3.1m 는 창 표기와 층 피치의 비에서 환산해 ±0.2m 오차 가능. 3층 리본창 모듈(면별 7.7m/5.8m)도 점 개수에 맞춘 역산값",
    "estimated": false
   }
  },
  {
   "type": "Feature",
   "geometry": {
    "type": "Point",
    "coordinates": [
     126.93553375,
     37.52261664
    ]
   },
   "properties": {
    "pid": "A동(3층) A동 남동면 3층-2",
    "school": "여의도여자고등학교",
    "jibun": "40-2",
    "kind": "교사동 창면",
    "dong": "A동(3층)",
    "floor": 3,
    "z_m": 10.3,
    "normal_az": 142.1,
    "grade": "A-",
    "근거등급": "A− 도면기준(대응·제원 추론 포함)",
    "근거": "A동 수광지침서",
    "추정항목": "AL_D010 이 5층·13.00m 로 층수와 높이가 서로 모순(5층이면 층고 2.6m). 지침서가 3개층이므로 **3층·층고 4.0m + 파라펫 1.0m 로 추정**. 창 1.5~3.1m 는 창 표기와 층 피치의 비에서 환산해 ±0.2m 오차 가능. 3층 리본창 모듈(면별 7.7m/5.8m)도 점 개수에 맞춘 역산값",
    "estimated": false
   }
  },
  {
   "type": "Feature",
   "geometry": {
    "type": "Point",
    "coordinates": [
     126.9355855,
     37.52264878
    ]
   },
   "properties": {
    "pid": "A동(3층) A동 남동면 3층-3",
    "school": "여의도여자고등학교",
    "jibun": "40-2",
    "kind": "교사동 창면",
    "dong": "A동(3층)",
    "floor": 3,
    "z_m": 10.3,
    "normal_az": 142.1,
    "grade": "A-",
    "근거등급": "A− 도면기준(대응·제원 추론 포함)",
    "근거": "A동 수광지침서",
    "추정항목": "AL_D010 이 5층·13.00m 로 층수와 높이가 서로 모순(5층이면 층고 2.6m). 지침서가 3개층이므로 **3층·층고 4.0m + 파라펫 1.0m 로 추정**. 창 1.5~3.1m 는 창 표기와 층 피치의 비에서 환산해 ±0.2m 오차 가능. 3층 리본창 모듈(면별 7.7m/5.8m)도 점 개수에 맞춘 역산값",
    "estimated": false
   }
  },
  {
   "type": "Feature",
   "geometry": {
    "type": "Point",
    "coordinates": [
     126.93563724,
     37.52268091
    ]
   },
   "properties": {
    "pid": "A동(3층) A동 남동면 3층-4",
    "school": "여의도여자고등학교",
    "jibun": "40-2",
    "kind": "교사동 창면",
    "dong": "A동(3층)",
    "floor": 3,
    "z_m": 10.3,
    "normal_az": 142.1,
    "grade": "A-",
    "근거등급": "A− 도면기준(대응·제원 추론 포함)",
    "근거": "A동 수광지침서",
    "추정항목": "AL_D010 이 5층·13.00m 로 층수와 높이가 서로 모순(5층이면 층고 2.6m). 지침서가 3개층이므로 **3층·층고 4.0m + 파라펫 1.0m 로 추정**. 창 1.5~3.1m 는 창 표기와 층 피치의 비에서 환산해 ±0.2m 오차 가능. 3층 리본창 모듈(면별 7.7m/5.8m)도 점 개수에 맞춘 역산값",
    "estimated": false
   }
  },
  {
   "type": "Feature",
   "geometry": {
    "type": "Point",
    "coordinates": [
     126.93568898,
     37.52271305
    ]
   },
   "properties": {
    "pid": "A동(3층) A동 남동면 3층-5",
    "school": "여의도여자고등학교",
    "jibun": "40-2",
    "kind": "교사동 창면",
    "dong": "A동(3층)",
    "floor": 3,
    "z_m": 10.3,
    "normal_az": 142.1,
    "grade": "A-",
    "근거등급": "A− 도면기준(대응·제원 추론 포함)",
    "근거": "A동 수광지침서",
    "추정항목": "AL_D010 이 5층·13.00m 로 층수와 높이가 서로 모순(5층이면 층고 2.6m). 지침서가 3개층이므로 **3층·층고 4.0m + 파라펫 1.0m 로 추정**. 창 1.5~3.1m 는 창 표기와 층 피치의 비에서 환산해 ±0.2m 오차 가능. 3층 리본창 모듈(면별 7.7m/5.8m)도 점 개수에 맞춘 역산값",
    "estimated": false
   }
  },
  {
   "type": "Feature",
   "geometry": {
    "type": "Point",
    "coordinates": [
     126.93574072,
     37.52274518
    ]
   },
   "properties": {
    "pid": "A동(3층) A동 남동면 3층-6",
    "school": "여의도여자고등학교",
    "jibun": "40-2",
    "kind": "교사동 창면",
    "dong": "A동(3층)",
    "floor": 3,
    "z_m": 10.3,
    "normal_az": 142.1,
    "grade": "A-",
    "근거등급": "A− 도면기준(대응·제원 추론 포함)",
    "근거": "A동 수광지침서",
    "추정항목": "AL_D010 이 5층·13.00m 로 층수와 높이가 서로 모순(5층이면 층고 2.6m). 지침서가 3개층이므로 **3층·층고 4.0m + 파라펫 1.0m 로 추정**. 창 1.5~3.1m 는 창 표기와 층 피치의 비에서 환산해 ±0.2m 오차 가능. 3층 리본창 모듈(면별 7.7m/5.8m)도 점 개수에 맞춘 역산값",
    "estimated": false
   }
  }
 ]
}