{
 "type": "FeatureCollection",
 "features": [
  {
   "type": "Feature",
   "geometry": {
    "type": "Point",
    "coordinates": [
     194288.596,
     547091.467
    ]
   },
   "properties": {
    "pid": "체육관동 부속(원형부) 1층-1",
    "school": "여의도중학교",
    "jibun": "40-1",
    "kind": "교사동 창면",
    "dong": "체육관동 부속(원형부)",
    "floor": 1,
    "z_m": 2.05,
    "normal_az": 260.7,
    "grade": "A-",
    "근거등급": "A− 도면기준(대응·제원 추론 포함)",
    "근거": "체육관동 4면도(폴리곤 대응은 추론)",
    "추정항목": "AL_D010 에 용도·층수·높이가 모두 결측인 787.5㎡ 동. 체육관동과 2.3m 거리·합계 면적 일치로 **같은 건물의 분할 폴리곤이라고 추론**해 같은 Z그리드와 창 높이를 적용. 높이 15.0m 도 그 추론에 따른 값",
    "estimated": false
   }
  },
  {
   "type": "Feature",
   "geometry": {
    "type": "Point",
    "coordinates": [
     194288.596,
     547091.467
    ]
   },
   "properties": {
    "pid": "체육관동 부속(원형부) 2층-1",
    "school": "여의도중학교",
    "jibun": "40-1",
    "kind": "교사동 창면",
    "dong": "체육관동 부속(원형부)",
    "floor": 2,
    "z_m": 5.95,
    "normal_az": 260.7,
    "grade": "A-",
    "근거등급": "A− 도면기준(대응·제원 추론 포함)",
    "근거": "체육관동 4면도(폴리곤 대응은 추론)",
    "추정항목": "AL_D010 에 용도·층수·높이가 모두 결측인 787.5㎡ 동. 체육관동과 2.3m 거리·합계 면적 일치로 **같은 건물의 분할 폴리곤이라고 추론**해 같은 Z그리드와 창 높이를 적용. 높이 15.0m 도 그 추론에 따른 값",
    "estimated": false
   }
  },
  {
   "type": "Feature",
   "geometry": {
    "type": "Point",
    "coordinates": [
     194288.596,
     547091.467
    ]
   },
   "properties": {
    "pid": "체육관동 부속(원형부) 3층-1",
    "school": "여의도중학교",
    "jibun": "40-1",
    "kind": "교사동 창면",
    "dong": "체육관동 부속(원형부)",
    "floor": 3,
    "z_m": 9.55,
    "normal_az": 260.7,
    "grade": "A-",
    "근거등급": "A− 도면기준(대응·제원 추론 포함)",
    "근거": "체육관동 4면도(폴리곤 대응은 추론)",
    "추정항목": "AL_D010 에 용도·층수·높이가 모두 결측인 787.5㎡ 동. 체육관동과 2.3m 거리·합계 면적 일치로 **같은 건물의 분할 폴리곤이라고 추론**해 같은 Z그리드와 창 높이를 적용. 높이 15.0m 도 그 추론에 따른 값",
    "estimated": false
   }
  },
  {
   "type": "Feature",
   "geometry": {
    "type": "Point",
    "coordinates": [
     194288.596,
     547091.467
    ]
   },
   "properties": {
    "pid": "체육관동 부속(원형부) 4층-1",
    "school": "여의도중학교",
    "jibun": "40-1",
    "kind": "교사동 창면",
    "dong": "체육관동 부속(원형부)",
    "floor": 4,
    "z_m": 13.15,
    "normal_az": 260.7,
    "grade": "A-",
    "근거등급": "A− 도면기준(대응·제원 추론 포함)",
    "근거": "체육관동 4면도(폴리곤 대응은 추론)",
    "추정항목": "AL_D010 에 용도·층수·높이가 모두 결측인 787.5㎡ 동. 체육관동과 2.3m 거리·합계 면적 일치로 **같은 건물의 분할 폴리곤이라고 추론**해 같은 Z그리드와 창 높이를 적용. 높이 15.0m 도 그 추론에 따른 값",
    "estimated": false
   }
  },
  {
   "type": "Feature",
   "geometry": {
    "type": "Point",
    "coordinates": [
     194289.547,
     547087.932
    ]
   },
   "properties": {
    "pid": "체육관동 부속(원형부) 1층-2",
    "school": "여의도중학교",
    "jibun": "40-1",
    "kind": "교사동 창면",
    "dong": "체육관동 부속(원형부)",
    "floor": 1,
    "z_m": 2.05,
    "normal_az": 249.6,
    "grade": "A-",
    "근거등급": "A− 도면기준(대응·제원 추론 포함)",
    "근거": "체육관동 4면도(폴리곤 대응은 추론)",
    "추정항목": "AL_D010 에 용도·층수·높이가 모두 결측인 787.5㎡ 동. 체육관동과 2.3m 거리·합계 면적 일치로 **같은 건물의 분할 폴리곤이라고 추론**해 같은 Z그리드와 창 높이를 적용. 높이 15.0m 도 그 추론에 따른 값",
    "estimated": false
   }
  },
  {
   "type": "Feature",
   "geometry": {
    "type": "Point",
    "coordinates": [
     194289.547,
     547087.932
    ]
   },
   "properties": {
    "pid": "체육관동 부속(원형부) 2층-2",
    "school": "여의도중학교",
    "jibun": "40-1",
    "kind": "교사동 창면",
    "dong": "체육관동 부속(원형부)",
    "floor": 2,
    "z_m": 5.95,
    "normal_az": 249.6,
    "grade": "A-",
    "근거등급": "A− 도면기준(대응·제원 추론 포함)",
    "근거": "체육관동 4면도(폴리곤 대응은 추론)",
    "추정항목": "AL_D010 에 용도·층수·높이가 모두 결측인 787.5㎡ 동. 체육관동과 2.3m 거리·합계 면적 일치로 **같은 건물의 분할 폴리곤이라고 추론**해 같은 Z그리드와 창 높이를 적용. 높이 15.0m 도 그 추론에 따른 값",
    "estimated": false
   }
  },
  {
   "type": "Feature",
   "geometry": {
    "type": "Point",
    "coordinates": [
     194289.547,
     547087.932
    ]
   },
   "properties": {
    "pid": "체육관동 부속(원형부) 3층-2",
    "school": "여의도중학교",
    "jibun": "40-1",
    "kind": "교사동 창면",
    "dong": "체육관동 부속(원형부)",
    "floor": 3,
    "z_m": 9.55,
    "normal_az": 249.6,
    "grade": "A-",
    "근거등급": "A− 도면기준(대응·제원 추론 포함)",
    "근거": "체육관동 4면도(폴리곤 대응은 추론)",
    "추정항목": "AL_D010 에 용도·층수·높이가 모두 결측인 787.5㎡ 동. 체육관동과 2.3m 거리·합계 면적 일치로 **같은 건물의 분할 폴리곤이라고 추론**해 같은 Z그리드와 창 높이를 적용. 높이 15.0m 도 그 추론에 따른 값",
    "estimated": false
   }
  },
  {
   "type": "Feature",
   "geometry": {
    "type": "Point",
    "coordinates": [
     194289.547,
     547087.932
    ]
   },
   "properties": {
    "pid": "체육관동 부속(원형부) 4층-2",
    "school": "여의도중학교",
    "jibun": "40-1",
    "kind": "교사동 창면",
    "dong": "체육관동 부속(원형부)",
    "floor": 4,
    "z_m": 13.15,
    "normal_az": 249.6,
    "grade": "A-",
    "근거등급": "A− 도면기준(대응·제원 추론 포함)",
    "근거": "체육관동 4면도(폴리곤 대응은 추론)",
    "추정항목": "AL_D010 에 용도·층수·높이가 모두 결측인 787.5㎡ 동. 체육관동과 2.3m 거리·합계 면적 일치로 **같은 건물의 분할 폴리곤이라고 추론**해 같은 Z그리드와 창 높이를 적용. 높이 15.0m 도 그 추론에 따른 값",
    "estimated": false
   }
  },
  {
   "type": "Feature",
   "geometry": {
    "type": "Point",
    "coordinates": [
     194291.882,
     547083.014
    ]
   },
   "properties": {
    "pid": "체육관동 부속(원형부) 1층-3",
    "school": "여의도중학교",
    "jibun": "40-1",
    "kind": "교사동 창면",
    "dong": "체육관동 부속(원형부)",
    "floor": 1,
    "z_m": 2.05,
    "normal_az": 241.3,
    "grade": "A-",
    "근거등급": "A− 도면기준(대응·제원 추론 포함)",
    "근거": "체육관동 4면도(폴리곤 대응은 추론)",
    "추정항목": "AL_D010 에 용도·층수·높이가 모두 결측인 787.5㎡ 동. 체육관동과 2.3m 거리·합계 면적 일치로 **같은 건물의 분할 폴리곤이라고 추론**해 같은 Z그리드와 창 높이를 적용. 높이 15.0m 도 그 추론에 따른 값",
    "estimated": false
   }
  },
  {
   "type": "Feature",
   "geometry": {
    "type": "Point",
    "coordinates": [
     194291.882,
     547083.014
    ]
   },
   "properties": {
    "pid": "체육관동 부속(원형부) 2층-3",
    "school": "여의도중학교",
    "jibun": "40-1",
    "kind": "교사동 창면",
    "dong": "체육관동 부속(원형부)",
    "floor": 2,
    "z_m": 5.95,
    "normal_az": 241.3,
    "grade": "A-",
    "근거등급": "A− 도면기준(대응·제원 추론 포함)",
    "근거": "체육관동 4면도(폴리곤 대응은 추론)",
    "추정항목": "AL_D010 에 용도·층수·높이가 모두 결측인 787.5㎡ 동. 체육관동과 2.3m 거리·합계 면적 일치로 **같은 건물의 분할 폴리곤이라고 추론**해 같은 Z그리드와 창 높이를 적용. 높이 15.0m 도 그 추론에 따른 값",
    "estimated": false
   }
  },
  {
   "type": "Feature",
   "geometry": {
    "type": "Point",
    "coordinates": [
     194291.882,
     547083.014
    ]
   },
   "properties": {
    "pid": "체육관동 부속(원형부) 3층-3",
    "school": "여의도중학교",
    "jibun": "40-1",
    "kind": "교사동 창면",
    "dong": "체육관동 부속(원형부)",
    "floor": 3,
    "z_m": 9.55,
    "normal_az": 241.3,
    "grade": "A-",
    "근거등급": "A− 도면기준(대응·제원 추론 포함)",
    "근거": "체육관동 4면도(폴리곤 대응은 추론)",
    "추정항목": "AL_D010 에 용도·층수·높이가 모두 결측인 787.5㎡ 동. 체육관동과 2.3m 거리·합계 면적 일치로 **같은 건물의 분할 폴리곤이라고 추론**해 같은 Z그리드와 창 높이를 적용. 높이 15.0m 도 그 추론에 따른 값",
    "estimated": false
   }
  },
  {
   "type": "Feature",
   "geometry": {
    "type": "Point",
    "coordinates": [
     194291.882,
     547083.014
    ]
   },
   "properties": {
    "pid": "체육관동 부속(원형부) 4층-3",
    "school": "여의도중학교",
    "jibun": "40-1",
    "kind": "교사동 창면",
    "dong": "체육관동 부속(원형부)",
    "floor": 4,
    "z_m": 13.15,
    "normal_az": 241.3,
    "grade": "A-",
    "근거등급": "A− 도면기준(대응·제원 추론 포함)",
    "근거": "체육관동 4면도(폴리곤 대응은 추론)",
    "추정항목": "AL_D010 에 용도·층수·높이가 모두 결측인 787.5㎡ 동. 체육관동과 2.3m 거리·합계 면적 일치로 **같은 건물의 분할 폴리곤이라고 추론**해 같은 Z그리드와 창 높이를 적용. 높이 15.0m 도 그 추론에 따른 값",
    "estimated": false
   }
  },
  {
   "type": "Feature",
   "geometry": {
    "type": "Point",
    "coordinates": [
     194293.971,
     547080.01
    ]
   },
   "properties": {
    "pid": "체육관동 부속(원형부) 1층-4",
    "school": "여의도중학교",
    "jibun": "40-1",
    "kind": "교사동 창면",
    "dong": "체육관동 부속(원형부)",
    "floor": 1,
    "z_m": 2.05,
    "normal_az": 230.9,
    "grade": "A-",
    "근거등급": "A− 도면기준(대응·제원 추론 포함)",
    "근거": "체육관동 4면도(폴리곤 대응은 추론)",
    "추정항목": "AL_D010 에 용도·층수·높이가 모두 결측인 787.5㎡ 동. 체육관동과 2.3m 거리·합계 면적 일치로 **같은 건물의 분할 폴리곤이라고 추론**해 같은 Z그리드와 창 높이를 적용. 높이 15.0m 도 그 추론에 따른 값",
    "estimated": false
   }
  },
  {
   "type": "Feature",
   "geometry": {
    "type": "Point",
    "coordinates": [
     194293.971,
     547080.01
    ]
   },
   "properties": {
    "pid": "체육관동 부속(원형부) 2층-4",
    "school": "여의도중학교",
    "jibun": "40-1",
    "kind": "교사동 창면",
    "dong": "체육관동 부속(원형부)",
    "floor": 2,
    "z_m": 5.95,
    "normal_az": 230.9,
    "grade": "A-",
    "근거등급": "A− 도면기준(대응·제원 추론 포함)",
    "근거": "체육관동 4면도(폴리곤 대응은 추론)",
    "추정항목": "AL_D010 에 용도·층수·높이가 모두 결측인 787.5㎡ 동. 체육관동과 2.3m 거리·합계 면적 일치로 **같은 건물의 분할 폴리곤이라고 추론**해 같은 Z그리드와 창 높이를 적용. 높이 15.0m 도 그 추론에 따른 값",
    "estimated": false
   }
  },
  {
   "type": "Feature",
   "geometry": {
    "type": "Point",
    "coordinates": [
     194293.971,
     547080.01
    ]
   },
   "properties": {
    "pid": "체육관동 부속(원형부) 3층-4",
    "school": "여의도중학교",
    "jibun": "40-1",
    "kind": "교사동 창면",
    "dong": "체육관동 부속(원형부)",
    "floor": 3,
    "z_m": 9.55,
    "normal_az": 230.9,
    "grade": "A-",
    "근거등급": "A− 도면기준(대응·제원 추론 포함)",
    "근거": "체육관동 4면도(폴리곤 대응은 추론)",
    "추정항목": "AL_D010 에 용도·층수·높이가 모두 결측인 787.5㎡ 동. 체육관동과 2.3m 거리·합계 면적 일치로 **같은 건물의 분할 폴리곤이라고 추론**해 같은 Z그리드와 창 높이를 적용. 높이 15.0m 도 그 추론에 따른 값",
    "estimated": false
   }
  },
  {
   "type": "Feature",
   "geometry": {
    "type": "Point",
    "coordinates": [
     194293.971,
     547080.01
    ]
   },
   "properties": {
    "pid": "체육관동 부속(원형부) 4층-4",
    "school": "여의도중학교",
    "jibun": "40-1",
    "kind": "교사동 창면",
    "dong": "체육관동 부속(원형부)",
    "floor": 4,
    "z_m": 13.15,
    "normal_az": 230.9,
    "grade": "A-",
    "근거등급": "A− 도면기준(대응·제원 추론 포함)",
    "근거": "체육관동 4면도(폴리곤 대응은 추론)",
    "추정항목": "AL_D010 에 용도·층수·높이가 모두 결측인 787.5㎡ 동. 체육관동과 2.3m 거리·합계 면적 일치로 **같은 건물의 분할 폴리곤이라고 추론**해 같은 Z그리드와 창 높이를 적용. 높이 15.0m 도 그 추론에 따른 값",
    "estimated": false
   }
  },
  {
   "type": "Feature",
   "geometry": {
    "type": "Point",
    "coordinates": [
     194297.38,
     547075.823
    ]
   },
   "properties": {
    "pid": "체육관동 부속(원형부) 1층-5",
    "school": "여의도중학교",
    "jibun": "40-1",
    "kind": "교사동 창면",
    "dong": "체육관동 부속(원형부)",
    "floor": 1,
    "z_m": 2.05,
    "normal_az": 230.9,
    "grade": "A-",
    "근거등급": "A− 도면기준(대응·제원 추론 포함)",
    "근거": "체육관동 4면도(폴리곤 대응은 추론)",
    "추정항목": "AL_D010 에 용도·층수·높이가 모두 결측인 787.5㎡ 동. 체육관동과 2.3m 거리·합계 면적 일치로 **같은 건물의 분할 폴리곤이라고 추론**해 같은 Z그리드와 창 높이를 적용. 높이 15.0m 도 그 추론에 따른 값",
    "estimated": false
   }
  },
  {
   "type": "Feature",
   "geometry": {
    "type": "Point",
    "coordinates": [
     194297.38,
     547075.823
    ]
   },
   "properties": {
    "pid": "체육관동 부속(원형부) 2층-5",
    "school": "여의도중학교",
    "jibun": "40-1",
    "kind": "교사동 창면",
    "dong": "체육관동 부속(원형부)",
    "floor": 2,
    "z_m": 5.95,
    "normal_az": 230.9,
    "grade": "A-",
    "근거등급": "A− 도면기준(대응·제원 추론 포함)",
    "근거": "체육관동 4면도(폴리곤 대응은 추론)",
    "추정항목": "AL_D010 에 용도·층수·높이가 모두 결측인 787.5㎡ 동. 체육관동과 2.3m 거리·합계 면적 일치로 **같은 건물의 분할 폴리곤이라고 추론**해 같은 Z그리드와 창 높이를 적용. 높이 15.0m 도 그 추론에 따른 값",
    "estimated": false
   }
  },
  {
   "type": "Feature",
   "geometry": {
    "type": "Point",
    "coordinates": [
     194297.38,
     547075.823
    ]
   },
   "properties": {
    "pid": "체육관동 부속(원형부) 3층-5",
    "school": "여의도중학교",
    "jibun": "40-1",
    "kind": "교사동 창면",
    "dong": "체육관동 부속(원형부)",
    "floor": 3,
    "z_m": 9.55,
    "normal_az": 230.9,
    "grade": "A-",
    "근거등급": "A− 도면기준(대응·제원 추론 포함)",
    "근거": "체육관동 4면도(폴리곤 대응은 추론)",
    "추정항목": "AL_D010 에 용도·층수·높이가 모두 결측인 787.5㎡ 동. 체육관동과 2.3m 거리·합계 면적 일치로 **같은 건물의 분할 폴리곤이라고 추론**해 같은 Z그리드와 창 높이를 적용. 높이 15.0m 도 그 추론에 따른 값",
    "estimated": false
   }
  },
  {
   "type": "Feature",
   "geometry": {
    "type": "Point",
    "coordinates": [
     194297.38,
     547075.823
    ]
   },
   "properties": {
    "pid": "체육관동 부속(원형부) 4층-5",
    "school": "여의도중학교",
    "jibun": "40-1",
    "kind": "교사동 창면",
    "dong": "체육관동 부속(원형부)",
    "floor": 4,
    "z_m": 13.15,
    "normal_az": 230.9,
    "grade": "A-",
    "근거등급": "A− 도면기준(대응·제원 추론 포함)",
    "근거": "체육관동 4면도(폴리곤 대응은 추론)",
    "추정항목": "AL_D010 에 용도·층수·높이가 모두 결측인 787.5㎡ 동. 체육관동과 2.3m 거리·합계 면적 일치로 **같은 건물의 분할 폴리곤이라고 추론**해 같은 Z그리드와 창 높이를 적용. 높이 15.0m 도 그 추론에 따른 값",
    "estimated": false
   }
  },
  {
   "type": "Feature",
   "geometry": {
    "type": "Point",
    "coordinates": [
     194299.653,
     547073.031
    ]
   },
   "properties": {
    "pid": "체육관동 부속(원형부) 1층-6",
    "school": "여의도중학교",
    "jibun": "40-1",
    "kind": "교사동 창면",
    "dong": "체육관동 부속(원형부)",
    "floor": 1,
    "z_m": 2.05,
    "normal_az": 230.9,
    "grade": "A-",
    "근거등급": "A− 도면기준(대응·제원 추론 포함)",
    "근거": "체육관동 4면도(폴리곤 대응은 추론)",
    "추정항목": "AL_D010 에 용도·층수·높이가 모두 결측인 787.5㎡ 동. 체육관동과 2.3m 거리·합계 면적 일치로 **같은 건물의 분할 폴리곤이라고 추론**해 같은 Z그리드와 창 높이를 적용. 높이 15.0m 도 그 추론에 따른 값",
    "estimated": false
   }
  },
  {
   "type": "Feature",
   "geometry": {
    "type": "Point",
    "coordinates": [
     194299.653,
     547073.031
    ]
   },
   "properties": {
    "pid": "체육관동 부속(원형부) 2층-6",
    "school": "여의도중학교",
    "jibun": "40-1",
    "kind": "교사동 창면",
    "dong": "체육관동 부속(원형부)",
    "floor": 2,
    "z_m": 5.95,
    "normal_az": 230.9,
    "grade": "A-",
    "근거등급": "A− 도면기준(대응·제원 추론 포함)",
    "근거": "체육관동 4면도(폴리곤 대응은 추론)",
    "추정항목": "AL_D010 에 용도·층수·높이가 모두 결측인 787.5㎡ 동. 체육관동과 2.3m 거리·합계 면적 일치로 **같은 건물의 분할 폴리곤이라고 추론**해 같은 Z그리드와 창 높이를 적용. 높이 15.0m 도 그 추론에 따른 값",
    "estimated": false
   }
  },
  {
   "type": "Feature",
   "geometry": {
    "type": "Point",
    "coordinates": [
     194299.653,
     547073.031
    ]
   },
   "properties": {
    "pid": "체육관동 부속(원형부) 3층-6",
    "school": "여의도중학교",
    "jibun": "40-1",
    "kind": "교사동 창면",
    "dong": "체육관동 부속(원형부)",
    "floor": 3,
    "z_m": 9.55,
    "normal_az": 230.9,
    "grade": "A-",
    "근거등급": "A− 도면기준(대응·제원 추론 포함)",
    "근거": "체육관동 4면도(폴리곤 대응은 추론)",
    "추정항목": "AL_D010 에 용도·층수·높이가 모두 결측인 787.5㎡ 동. 체육관동과 2.3m 거리·합계 면적 일치로 **같은 건물의 분할 폴리곤이라고 추론**해 같은 Z그리드와 창 높이를 적용. 높이 15.0m 도 그 추론에 따른 값",
    "estimated": false
   }
  },
  {
   "type": "Feature",
   "geometry": {
    "type": "Point",
    "coordinates": [
     194299.653,
     547073.031
    ]
   },
   "properties": {
    "pid": "체육관동 부속(원형부) 4층-6",
    "school": "여의도중학교",
    "jibun": "40-1",
    "kind": "교사동 창면",
    "dong": "체육관동 부속(원형부)",
    "floor": 4,
    "z_m": 13.15,
    "normal_az": 230.9,
    "grade": "A-",
    "근거등급": "A− 도면기준(대응·제원 추론 포함)",
    "근거": "체육관동 4면도(폴리곤 대응은 추론)",
    "추정항목": "AL_D010 에 용도·층수·높이가 모두 결측인 787.5㎡ 동. 체육관동과 2.3m 거리·합계 면적 일치로 **같은 건물의 분할 폴리곤이라고 추론**해 같은 Z그리드와 창 높이를 적용. 높이 15.0m 도 그 추론에 따른 값",
    "estimated": false
   }
  },
  {
   "type": "Feature",
   "geometry": {
    "type": "Point",
    "coordinates": [
     194303.062,
     547068.843
    ]
   },
   "properties": {
    "pid": "체육관동 부속(원형부) 1층-7",
    "school": "여의도중학교",
    "jibun": "40-1",
    "kind": "교사동 창면",
    "dong": "체육관동 부속(원형부)",
    "floor": 1,
    "z_m": 2.05,
    "normal_az": 230.9,
    "grade": "A-",
    "근거등급": "A− 도면기준(대응·제원 추론 포함)",
    "근거": "체육관동 4면도(폴리곤 대응은 추론)",
    "추정항목": "AL_D010 에 용도·층수·높이가 모두 결측인 787.5㎡ 동. 체육관동과 2.3m 거리·합계 면적 일치로 **같은 건물의 분할 폴리곤이라고 추론**해 같은 Z그리드와 창 높이를 적용. 높이 15.0m 도 그 추론에 따른 값",
    "estimated": false
   }
  },
  {
   "type": "Feature",
   "geometry": {
    "type": "Point",
    "coordinates": [
     194303.062,
     547068.843
    ]
   },
   "properties": {
    "pid": "체육관동 부속(원형부) 2층-7",
    "school": "여의도중학교",
    "jibun": "40-1",
    "kind": "교사동 창면",
    "dong": "체육관동 부속(원형부)",
    "floor": 2,
    "z_m": 5.95,
    "normal_az": 230.9,
    "grade": "A-",
    "근거등급": "A− 도면기준(대응·제원 추론 포함)",
    "근거": "체육관동 4면도(폴리곤 대응은 추론)",
    "추정항목": "AL_D010 에 용도·층수·높이가 모두 결측인 787.5㎡ 동. 체육관동과 2.3m 거리·합계 면적 일치로 **같은 건물의 분할 폴리곤이라고 추론**해 같은 Z그리드와 창 높이를 적용. 높이 15.0m 도 그 추론에 따른 값",
    "estimated": false
   }
  },
  {
   "type": "Feature",
   "geometry": {
    "type": "Point",
    "coordinates": [
     194303.062,
     547068.843
    ]
   },
   "properties": {
    "pid": "체육관동 부속(원형부) 3층-7",
    "school": "여의도중학교",
    "jibun": "40-1",
    "kind": "교사동 창면",
    "dong": "체육관동 부속(원형부)",
    "floor": 3,
    "z_m": 9.55,
    "normal_az": 230.9,
    "grade": "A-",
    "근거등급": "A− 도면기준(대응·제원 추론 포함)",
    "근거": "체육관동 4면도(폴리곤 대응은 추론)",
    "추정항목": "AL_D010 에 용도·층수·높이가 모두 결측인 787.5㎡ 동. 체육관동과 2.3m 거리·합계 면적 일치로 **같은 건물의 분할 폴리곤이라고 추론**해 같은 Z그리드와 창 높이를 적용. 높이 15.0m 도 그 추론에 따른 값",
    "estimated": false
   }
  },
  {
   "type": "Feature",
   "geometry": {
    "type": "Point",
    "coordinates": [
     194303.062,
     547068.843
    ]
   },
   "properties": {
    "pid": "체육관동 부속(원형부) 4층-7",
    "school": "여의도중학교",
    "jibun": "40-1",
    "kind": "교사동 창면",
    "dong": "체육관동 부속(원형부)",
    "floor": 4,
    "z_m": 13.15,
    "normal_az": 230.9,
    "grade": "A-",
    "근거등급": "A− 도면기준(대응·제원 추론 포함)",
    "근거": "체육관동 4면도(폴리곤 대응은 추론)",
    "추정항목": "AL_D010 에 용도·층수·높이가 모두 결측인 787.5㎡ 동. 체육관동과 2.3m 거리·합계 면적 일치로 **같은 건물의 분할 폴리곤이라고 추론**해 같은 Z그리드와 창 높이를 적용. 높이 15.0m 도 그 추론에 따른 값",
    "estimated": false
   }
  },
  {
   "type": "Feature",
   "geometry": {
    "type": "Point",
    "coordinates": [
     194305.335,
     547066.051
    ]
   },
   "properties": {
    "pid": "체육관동 부속(원형부) 1층-8",
    "school": "여의도중학교",
    "jibun": "40-1",
    "kind": "교사동 창면",
    "dong": "체육관동 부속(원형부)",
    "floor": 1,
    "z_m": 2.05,
    "normal_az": 230.9,
    "grade": "A-",
    "근거등급": "A− 도면기준(대응·제원 추론 포함)",
    "근거": "체육관동 4면도(폴리곤 대응은 추론)",
    "추정항목": "AL_D010 에 용도·층수·높이가 모두 결측인 787.5㎡ 동. 체육관동과 2.3m 거리·합계 면적 일치로 **같은 건물의 분할 폴리곤이라고 추론**해 같은 Z그리드와 창 높이를 적용. 높이 15.0m 도 그 추론에 따른 값",
    "estimated": false
   }
  },
  {
   "type": "Feature",
   "geometry": {
    "type": "Point",
    "coordinates": [
     194305.335,
     547066.051
    ]
   },
   "properties": {
    "pid": "체육관동 부속(원형부) 2층-8",
    "school": "여의도중학교",
    "jibun": "40-1",
    "kind": "교사동 창면",
    "dong": "체육관동 부속(원형부)",
    "floor": 2,
    "z_m": 5.95,
    "normal_az": 230.9,
    "grade": "A-",
    "근거등급": "A− 도면기준(대응·제원 추론 포함)",
    "근거": "체육관동 4면도(폴리곤 대응은 추론)",
    "추정항목": "AL_D010 에 용도·층수·높이가 모두 결측인 787.5㎡ 동. 체육관동과 2.3m 거리·합계 면적 일치로 **같은 건물의 분할 폴리곤이라고 추론**해 같은 Z그리드와 창 높이를 적용. 높이 15.0m 도 그 추론에 따른 값",
    "estimated": false
   }
  },
  {
   "type": "Feature",
   "geometry": {
    "type": "Point",
    "coordinates": [
     194305.335,
     547066.051
    ]
   },
   "properties": {
    "pid": "체육관동 부속(원형부) 3층-8",
    "school": "여의도중학교",
    "jibun": "40-1",
    "kind": "교사동 창면",
    "dong": "체육관동 부속(원형부)",
    "floor": 3,
    "z_m": 9.55,
    "normal_az": 230.9,
    "grade": "A-",
    "근거등급": "A− 도면기준(대응·제원 추론 포함)",
    "근거": "체육관동 4면도(폴리곤 대응은 추론)",
    "추정항목": "AL_D010 에 용도·층수·높이가 모두 결측인 787.5㎡ 동. 체육관동과 2.3m 거리·합계 면적 일치로 **같은 건물의 분할 폴리곤이라고 추론**해 같은 Z그리드와 창 높이를 적용. 높이 15.0m 도 그 추론에 따른 값",
    "estimated": false
   }
  },
  {
   "type": "Feature",
   "geometry": {
    "type": "Point",
    "coordinates": [
     194305.335,
     547066.051
    ]
   },
   "properties": {
    "pid": "체육관동 부속(원형부) 4층-8",
    "school": "여의도중학교",
    "jibun": "40-1",
    "kind": "교사동 창면",
    "dong": "체육관동 부속(원형부)",
    "floor": 4,
    "z_m": 13.15,
    "normal_az": 230.9,
    "grade": "A-",
    "근거등급": "A− 도면기준(대응·제원 추론 포함)",
    "근거": "체육관동 4면도(폴리곤 대응은 추론)",
    "추정항목": "AL_D010 에 용도·층수·높이가 모두 결측인 787.5㎡ 동. 체육관동과 2.3m 거리·합계 면적 일치로 **같은 건물의 분할 폴리곤이라고 추론**해 같은 Z그리드와 창 높이를 적용. 높이 15.0m 도 그 추론에 따른 값",
    "estimated": false
   }
  },
  {
   "type": "Feature",
   "geometry": {
    "type": "Point",
    "coordinates": [
     194310.018,
     547068.712
    ]
   },
   "properties": {
    "pid": "체육관동 부속(원형부) 1층-9",
    "school": "여의도중학교",
    "jibun": "40-1",
    "kind": "교사동 창면",
    "dong": "체육관동 부속(원형부)",
    "floor": 1,
    "z_m": 2.05,
    "normal_az": 140.9,
    "grade": "A-",
    "근거등급": "A− 도면기준(대응·제원 추론 포함)",
    "근거": "체육관동 4면도(폴리곤 대응은 추론)",
    "추정항목": "AL_D010 에 용도·층수·높이가 모두 결측인 787.5㎡ 동. 체육관동과 2.3m 거리·합계 면적 일치로 **같은 건물의 분할 폴리곤이라고 추론**해 같은 Z그리드와 창 높이를 적용. 높이 15.0m 도 그 추론에 따른 값",
    "estimated": false
   }
  },
  {
   "type": "Feature",
   "geometry": {
    "type": "Point",
    "coordinates": [
     194310.018,
     547068.712
    ]
   },
   "properties": {
    "pid": "체육관동 부속(원형부) 2층-9",
    "school": "여의도중학교",
    "jibun": "40-1",
    "kind": "교사동 창면",
    "dong": "체육관동 부속(원형부)",
    "floor": 2,
    "z_m": 5.95,
    "normal_az": 140.9,
    "grade": "A-",
    "근거등급": "A− 도면기준(대응·제원 추론 포함)",
    "근거": "체육관동 4면도(폴리곤 대응은 추론)",
    "추정항목": "AL_D010 에 용도·층수·높이가 모두 결측인 787.5㎡ 동. 체육관동과 2.3m 거리·합계 면적 일치로 **같은 건물의 분할 폴리곤이라고 추론**해 같은 Z그리드와 창 높이를 적용. 높이 15.0m 도 그 추론에 따른 값",
    "estimated": false
   }
  },
  {
   "type": "Feature",
   "geometry": {
    "type": "Point",
    "coordinates": [
     194310.018,
     547068.712
    ]
   },
   "properties": {
    "pid": "체육관동 부속(원형부) 3층-9",
    "school": "여의도중학교",
    "jibun": "40-1",
    "kind": "교사동 창면",
    "dong": "체육관동 부속(원형부)",
    "floor": 3,
    "z_m": 9.55,
    "normal_az": 140.9,
    "grade": "A-",
    "근거등급": "A− 도면기준(대응·제원 추론 포함)",
    "근거": "체육관동 4면도(폴리곤 대응은 추론)",
    "추정항목": "AL_D010 에 용도·층수·높이가 모두 결측인 787.5㎡ 동. 체육관동과 2.3m 거리·합계 면적 일치로 **같은 건물의 분할 폴리곤이라고 추론**해 같은 Z그리드와 창 높이를 적용. 높이 15.0m 도 그 추론에 따른 값",
    "estimated": false
   }
  },
  {
   "type": "Feature",
   "geometry": {
    "type": "Point",
    "coordinates": [
     194310.018,
     547068.712
    ]
   },
   "properties": {
    "pid": "체육관동 부속(원형부) 4층-9",
    "school": "여의도중학교",
    "jibun": "40-1",
    "kind": "교사동 창면",
    "dong": "체육관동 부속(원형부)",
    "floor": 4,
    "z_m": 13.15,
    "normal_az": 140.9,
    "grade": "A-",
    "근거등급": "A− 도면기준(대응·제원 추론 포함)",
    "근거": "체육관동 4면도(폴리곤 대응은 추론)",
    "추정항목": "AL_D010 에 용도·층수·높이가 모두 결측인 787.5㎡ 동. 체육관동과 2.3m 거리·합계 면적 일치로 **같은 건물의 분할 폴리곤이라고 추론**해 같은 Z그리드와 창 높이를 적용. 높이 15.0m 도 그 추론에 따른 값",
    "estimated": false
   }
  },
  {
   "type": "Feature",
   "geometry": {
    "type": "Point",
    "coordinates": [
     194312.812,
     547070.982
    ]
   },
   "properties": {
    "pid": "체육관동 부속(원형부) 1층-10",
    "school": "여의도중학교",
    "jibun": "40-1",
    "kind": "교사동 창면",
    "dong": "체육관동 부속(원형부)",
    "floor": 1,
    "z_m": 2.05,
    "normal_az": 140.9,
    "grade": "A-",
    "근거등급": "A− 도면기준(대응·제원 추론 포함)",
    "근거": "체육관동 4면도(폴리곤 대응은 추론)",
    "추정항목": "AL_D010 에 용도·층수·높이가 모두 결측인 787.5㎡ 동. 체육관동과 2.3m 거리·합계 면적 일치로 **같은 건물의 분할 폴리곤이라고 추론**해 같은 Z그리드와 창 높이를 적용. 높이 15.0m 도 그 추론에 따른 값",
    "estimated": false
   }
  },
  {
   "type": "Feature",
   "geometry": {
    "type": "Point",
    "coordinates": [
     194312.812,
     547070.982
    ]
   },
   "properties": {
    "pid": "체육관동 부속(원형부) 2층-10",
    "school": "여의도중학교",
    "jibun": "40-1",
    "kind": "교사동 창면",
    "dong": "체육관동 부속(원형부)",
    "floor": 2,
    "z_m": 5.95,
    "normal_az": 140.9,
    "grade": "A-",
    "근거등급": "A− 도면기준(대응·제원 추론 포함)",
    "근거": "체육관동 4면도(폴리곤 대응은 추론)",
    "추정항목": "AL_D010 에 용도·층수·높이가 모두 결측인 787.5㎡ 동. 체육관동과 2.3m 거리·합계 면적 일치로 **같은 건물의 분할 폴리곤이라고 추론**해 같은 Z그리드와 창 높이를 적용. 높이 15.0m 도 그 추론에 따른 값",
    "estimated": false
   }
  },
  {
   "type": "Feature",
   "geometry": {
    "type": "Point",
    "coordinates": [
     194312.812,
     547070.982
    ]
   },
   "properties": {
    "pid": "체육관동 부속(원형부) 3층-10",
    "school": "여의도중학교",
    "jibun": "40-1",
    "kind": "교사동 창면",
    "dong": "체육관동 부속(원형부)",
    "floor": 3,
    "z_m": 9.55,
    "normal_az": 140.9,
    "grade": "A-",
    "근거등급": "A− 도면기준(대응·제원 추론 포함)",
    "근거": "체육관동 4면도(폴리곤 대응은 추론)",
    "추정항목": "AL_D010 에 용도·층수·높이가 모두 결측인 787.5㎡ 동. 체육관동과 2.3m 거리·합계 면적 일치로 **같은 건물의 분할 폴리곤이라고 추론**해 같은 Z그리드와 창 높이를 적용. 높이 15.0m 도 그 추론에 따른 값",
    "estimated": false
   }
  },
  {
   "type": "Feature",
   "geometry": {
    "type": "Point",
    "coordinates": [
     194312.812,
     547070.982
    ]
   },
   "properties": {
    "pid": "체육관동 부속(원형부) 4층-10",
    "school": "여의도중학교",
    "jibun": "40-1",
    "kind": "교사동 창면",
    "dong": "체육관동 부속(원형부)",
    "floor": 4,
    "z_m": 13.15,
    "normal_az": 140.9,
    "grade": "A-",
    "근거등급": "A− 도면기준(대응·제원 추론 포함)",
    "근거": "체육관동 4면도(폴리곤 대응은 추론)",
    "추정항목": "AL_D010 에 용도·층수·높이가 모두 결측인 787.5㎡ 동. 체육관동과 2.3m 거리·합계 면적 일치로 **같은 건물의 분할 폴리곤이라고 추론**해 같은 Z그리드와 창 높이를 적용. 높이 15.0m 도 그 추론에 따른 값",
    "estimated": false
   }
  },
  {
   "type": "Feature",
   "geometry": {
    "type": "Point",
    "coordinates": [
     194317.004,
     547074.386
    ]
   },
   "properties": {
    "pid": "체육관동 부속(원형부) 1층-11",
    "school": "여의도중학교",
    "jibun": "40-1",
    "kind": "교사동 창면",
    "dong": "체육관동 부속(원형부)",
    "floor": 1,
    "z_m": 2.05,
    "normal_az": 140.9,
    "grade": "A-",
    "근거등급": "A− 도면기준(대응·제원 추론 포함)",
    "근거": "체육관동 4면도(폴리곤 대응은 추론)",
    "추정항목": "AL_D010 에 용도·층수·높이가 모두 결측인 787.5㎡ 동. 체육관동과 2.3m 거리·합계 면적 일치로 **같은 건물의 분할 폴리곤이라고 추론**해 같은 Z그리드와 창 높이를 적용. 높이 15.0m 도 그 추론에 따른 값",
    "estimated": false
   }
  },
  {
   "type": "Feature",
   "geometry": {
    "type": "Point",
    "coordinates": [
     194317.004,
     547074.386
    ]
   },
   "properties": {
    "pid": "체육관동 부속(원형부) 2층-11",
    "school": "여의도중학교",
    "jibun": "40-1",
    "kind": "교사동 창면",
    "dong": "체육관동 부속(원형부)",
    "floor": 2,
    "z_m": 5.95,
    "normal_az": 140.9,
    "grade": "A-",
    "근거등급": "A− 도면기준(대응·제원 추론 포함)",
    "근거": "체육관동 4면도(폴리곤 대응은 추론)",
    "추정항목": "AL_D010 에 용도·층수·높이가 모두 결측인 787.5㎡ 동. 체육관동과 2.3m 거리·합계 면적 일치로 **같은 건물의 분할 폴리곤이라고 추론**해 같은 Z그리드와 창 높이를 적용. 높이 15.0m 도 그 추론에 따른 값",
    "estimated": false
   }
  },
  {
   "type": "Feature",
   "geometry": {
    "type": "Point",
    "coordinates": [
     194317.004,
     547074.386
    ]
   },
   "properties": {
    "pid": "체육관동 부속(원형부) 3층-11",
    "school": "여의도중학교",
    "jibun": "40-1",
    "kind": "교사동 창면",
    "dong": "체육관동 부속(원형부)",
    "floor": 3,
    "z_m": 9.55,
    "normal_az": 140.9,
    "grade": "A-",
    "근거등급": "A− 도면기준(대응·제원 추론 포함)",
    "근거": "체육관동 4면도(폴리곤 대응은 추론)",
    "추정항목": "AL_D010 에 용도·층수·높이가 모두 결측인 787.5㎡ 동. 체육관동과 2.3m 거리·합계 면적 일치로 **같은 건물의 분할 폴리곤이라고 추론**해 같은 Z그리드와 창 높이를 적용. 높이 15.0m 도 그 추론에 따른 값",
    "estimated": false
   }
  },
  {
   "type": "Feature",
   "geometry": {
    "type": "Point",
    "coordinates": [
     194317.004,
     547074.386
    ]
   },
   "properties": {
    "pid": "체육관동 부속(원형부) 4층-11",
    "school": "여의도중학교",
    "jibun": "40-1",
    "kind": "교사동 창면",
    "dong": "체육관동 부속(원형부)",
    "floor": 4,
    "z_m": 13.15,
    "normal_az": 140.9,
    "grade": "A-",
    "근거등급": "A− 도면기준(대응·제원 추론 포함)",
    "근거": "체육관동 4면도(폴리곤 대응은 추론)",
    "추정항목": "AL_D010 에 용도·층수·높이가 모두 결측인 787.5㎡ 동. 체육관동과 2.3m 거리·합계 면적 일치로 **같은 건물의 분할 폴리곤이라고 추론**해 같은 Z그리드와 창 높이를 적용. 높이 15.0m 도 그 추론에 따른 값",
    "estimated": false
   }
  },
  {
   "type": "Feature",
   "geometry": {
    "type": "Point",
    "coordinates": [
     194319.798,
     547076.656
    ]
   },
   "properties": {
    "pid": "체육관동 부속(원형부) 1층-12",
    "school": "여의도중학교",
    "jibun": "40-1",
    "kind": "교사동 창면",
    "dong": "체육관동 부속(원형부)",
    "floor": 1,
    "z_m": 2.05,
    "normal_az": 140.9,
    "grade": "A-",
    "근거등급": "A− 도면기준(대응·제원 추론 포함)",
    "근거": "체육관동 4면도(폴리곤 대응은 추론)",
    "추정항목": "AL_D010 에 용도·층수·높이가 모두 결측인 787.5㎡ 동. 체육관동과 2.3m 거리·합계 면적 일치로 **같은 건물의 분할 폴리곤이라고 추론**해 같은 Z그리드와 창 높이를 적용. 높이 15.0m 도 그 추론에 따른 값",
    "estimated": false
   }
  },
  {
   "type": "Feature",
   "geometry": {
    "type": "Point",
    "coordinates": [
     194319.798,
     547076.656
    ]
   },
   "properties": {
    "pid": "체육관동 부속(원형부) 2층-12",
    "school": "여의도중학교",
    "jibun": "40-1",
    "kind": "교사동 창면",
    "dong": "체육관동 부속(원형부)",
    "floor": 2,
    "z_m": 5.95,
    "normal_az": 140.9,
    "grade": "A-",
    "근거등급": "A− 도면기준(대응·제원 추론 포함)",
    "근거": "체육관동 4면도(폴리곤 대응은 추론)",
    "추정항목": "AL_D010 에 용도·층수·높이가 모두 결측인 787.5㎡ 동. 체육관동과 2.3m 거리·합계 면적 일치로 **같은 건물의 분할 폴리곤이라고 추론**해 같은 Z그리드와 창 높이를 적용. 높이 15.0m 도 그 추론에 따른 값",
    "estimated": false
   }
  },
  {
   "type": "Feature",
   "geometry": {
    "type": "Point",
    "coordinates": [
     194319.798,
     547076.656
    ]
   },
   "properties": {
    "pid": "체육관동 부속(원형부) 3층-12",
    "school": "여의도중학교",
    "jibun": "40-1",
    "kind": "교사동 창면",
    "dong": "체육관동 부속(원형부)",
    "floor": 3,
    "z_m": 9.55,
    "normal_az": 140.9,
    "grade": "A-",
    "근거등급": "A− 도면기준(대응·제원 추론 포함)",
    "근거": "체육관동 4면도(폴리곤 대응은 추론)",
    "추정항목": "AL_D010 에 용도·층수·높이가 모두 결측인 787.5㎡ 동. 체육관동과 2.3m 거리·합계 면적 일치로 **같은 건물의 분할 폴리곤이라고 추론**해 같은 Z그리드와 창 높이를 적용. 높이 15.0m 도 그 추론에 따른 값",
    "estimated": false
   }
  },
  {
   "type": "Feature",
   "geometry": {
    "type": "Point",
    "coordinates": [
     194319.798,
     547076.656
    ]
   },
   "properties": {
    "pid": "체육관동 부속(원형부) 4층-12",
    "school": "여의도중학교",
    "jibun": "40-1",
    "kind": "교사동 창면",
    "dong": "체육관동 부속(원형부)",
    "floor": 4,
    "z_m": 13.15,
    "normal_az": 140.9,
    "grade": "A-",
    "근거등급": "A− 도면기준(대응·제원 추론 포함)",
    "근거": "체육관동 4면도(폴리곤 대응은 추론)",
    "추정항목": "AL_D010 에 용도·층수·높이가 모두 결측인 787.5㎡ 동. 체육관동과 2.3m 거리·합계 면적 일치로 **같은 건물의 분할 폴리곤이라고 추론**해 같은 Z그리드와 창 높이를 적용. 높이 15.0m 도 그 추론에 따른 값",
    "estimated": false
   }
  },
  {
   "type": "Feature",
   "geometry": {
    "type": "Point",
    "coordinates": [
     194281.05,
     547027.374
    ]
   },
   "properties": {
    "pid": "A동(3층) A동 남서면 1층-1",
    "school": "여의도여자고등학교",
    "jibun": "40-2",
    "kind": "교사동 창면",
    "dong": "A동(3층)",
    "floor": 1,
    "z_m": 2.3,
    "normal_az": 232.1,
    "grade": "A-",
    "근거등급": "A− 도면기준(대응·제원 추론 포함)",
    "근거": "A동 수광지침서",
    "추정항목": "AL_D010 이 5층·13.00m 로 층수와 높이가 서로 모순(5층이면 층고 2.6m). 지침서가 3개층이므로 **3층·층고 4.0m + 파라펫 1.0m 로 추정**. 창 1.5~3.1m 는 창 표기와 층 피치의 비에서 환산해 ±0.2m 오차 가능. 3층 리본창 모듈(면별 7.7m/5.8m)도 점 개수에 맞춘 역산값",
    "estimated": false
   }
  },
  {
   "type": "Feature",
   "geometry": {
    "type": "Point",
    "coordinates": [
     194281.05,
     547027.374
    ]
   },
   "properties": {
    "pid": "A동(3층) A동 남서면 2층-1",
    "school": "여의도여자고등학교",
    "jibun": "40-2",
    "kind": "교사동 창면",
    "dong": "A동(3층)",
    "floor": 2,
    "z_m": 6.3,
    "normal_az": 232.1,
    "grade": "A-",
    "근거등급": "A− 도면기준(대응·제원 추론 포함)",
    "근거": "A동 수광지침서",
    "추정항목": "AL_D010 이 5층·13.00m 로 층수와 높이가 서로 모순(5층이면 층고 2.6m). 지침서가 3개층이므로 **3층·층고 4.0m + 파라펫 1.0m 로 추정**. 창 1.5~3.1m 는 창 표기와 층 피치의 비에서 환산해 ±0.2m 오차 가능. 3층 리본창 모듈(면별 7.7m/5.8m)도 점 개수에 맞춘 역산값",
    "estimated": false
   }
  },
  {
   "type": "Feature",
   "geometry": {
    "type": "Point",
    "coordinates": [
     194283.816,
     547023.824
    ]
   },
   "properties": {
    "pid": "A동(3층) A동 남서면 1층-2",
    "school": "여의도여자고등학교",
    "jibun": "40-2",
    "kind": "교사동 창면",
    "dong": "A동(3층)",
    "floor": 1,
    "z_m": 2.3,
    "normal_az": 232.1,
    "grade": "A-",
    "근거등급": "A− 도면기준(대응·제원 추론 포함)",
    "근거": "A동 수광지침서",
    "추정항목": "AL_D010 이 5층·13.00m 로 층수와 높이가 서로 모순(5층이면 층고 2.6m). 지침서가 3개층이므로 **3층·층고 4.0m + 파라펫 1.0m 로 추정**. 창 1.5~3.1m 는 창 표기와 층 피치의 비에서 환산해 ±0.2m 오차 가능. 3층 리본창 모듈(면별 7.7m/5.8m)도 점 개수에 맞춘 역산값",
    "estimated": false
   }
  },
  {
   "type": "Feature",
   "geometry": {
    "type": "Point",
    "coordinates": [
     194283.816,
     547023.824
    ]
   },
   "properties": {
    "pid": "A동(3층) A동 남서면 2층-2",
    "school": "여의도여자고등학교",
    "jibun": "40-2",
    "kind": "교사동 창면",
    "dong": "A동(3층)",
    "floor": 2,
    "z_m": 6.3,
    "normal_az": 232.1,
    "grade": "A-",
    "근거등급": "A− 도면기준(대응·제원 추론 포함)",
    "근거": "A동 수광지침서",
    "추정항목": "AL_D010 이 5층·13.00m 로 층수와 높이가 서로 모순(5층이면 층고 2.6m). 지침서가 3개층이므로 **3층·층고 4.0m + 파라펫 1.0m 로 추정**. 창 1.5~3.1m 는 창 표기와 층 피치의 비에서 환산해 ±0.2m 오차 가능. 3층 리본창 모듈(면별 7.7m/5.8m)도 점 개수에 맞춘 역산값",
    "estimated": false
   }
  },
  {
   "type": "Feature",
   "geometry": {
    "type": "Point",
    "coordinates": [
     194286.581,
     547020.275
    ]
   },
   "properties": {
    "pid": "A동(3층) A동 남서면 1층-3",
    "school": "여의도여자고등학교",
    "jibun": "40-2",
    "kind": "교사동 창면",
    "dong": "A동(3층)",
    "floor": 1,
    "z_m": 2.3,
    "normal_az": 232.1,
    "grade": "A-",
    "근거등급": "A− 도면기준(대응·제원 추론 포함)",
    "근거": "A동 수광지침서",
    "추정항목": "AL_D010 이 5층·13.00m 로 층수와 높이가 서로 모순(5층이면 층고 2.6m). 지침서가 3개층이므로 **3층·층고 4.0m + 파라펫 1.0m 로 추정**. 창 1.5~3.1m 는 창 표기와 층 피치의 비에서 환산해 ±0.2m 오차 가능. 3층 리본창 모듈(면별 7.7m/5.8m)도 점 개수에 맞춘 역산값",
    "estimated": false
   }
  },
  {
   "type": "Feature",
   "geometry": {
    "type": "Point",
    "coordinates": [
     194286.581,
     547020.275
    ]
   },
   "properties": {
    "pid": "A동(3층) A동 남서면 2층-3",
    "school": "여의도여자고등학교",
    "jibun": "40-2",
    "kind": "교사동 창면",
    "dong": "A동(3층)",
    "floor": 2,
    "z_m": 6.3,
    "normal_az": 232.1,
    "grade": "A-",
    "근거등급": "A− 도면기준(대응·제원 추론 포함)",
    "근거": "A동 수광지침서",
    "추정항목": "AL_D010 이 5층·13.00m 로 층수와 높이가 서로 모순(5층이면 층고 2.6m). 지침서가 3개층이므로 **3층·층고 4.0m + 파라펫 1.0m 로 추정**. 창 1.5~3.1m 는 창 표기와 층 피치의 비에서 환산해 ±0.2m 오차 가능. 3층 리본창 모듈(면별 7.7m/5.8m)도 점 개수에 맞춘 역산값",
    "estimated": false
   }
  },
  {
   "type": "Feature",
   "geometry": {
    "type": "Point",
    "coordinates": [
     194289.347,
     547016.725
    ]
   },
   "properties": {
    "pid": "A동(3층) A동 남서면 1층-4",
    "school": "여의도여자고등학교",
    "jibun": "40-2",
    "kind": "교사동 창면",
    "dong": "A동(3층)",
    "floor": 1,
    "z_m": 2.3,
    "normal_az": 232.1,
    "grade": "A-",
    "근거등급": "A− 도면기준(대응·제원 추론 포함)",
    "근거": "A동 수광지침서",
    "추정항목": "AL_D010 이 5층·13.00m 로 층수와 높이가 서로 모순(5층이면 층고 2.6m). 지침서가 3개층이므로 **3층·층고 4.0m + 파라펫 1.0m 로 추정**. 창 1.5~3.1m 는 창 표기와 층 피치의 비에서 환산해 ±0.2m 오차 가능. 3층 리본창 모듈(면별 7.7m/5.8m)도 점 개수에 맞춘 역산값",
    "estimated": false
   }
  },
  {
   "type": "Feature",
   "geometry": {
    "type": "Point",
    "coordinates": [
     194289.347,
     547016.725
    ]
   },
   "properties": {
    "pid": "A동(3층) A동 남서면 2층-4",
    "school": "여의도여자고등학교",
    "jibun": "40-2",
    "kind": "교사동 창면",
    "dong": "A동(3층)",
    "floor": 2,
    "z_m": 6.3,
    "normal_az": 232.1,
    "grade": "A-",
    "근거등급": "A− 도면기준(대응·제원 추론 포함)",
    "근거": "A동 수광지침서",
    "추정항목": "AL_D010 이 5층·13.00m 로 층수와 높이가 서로 모순(5층이면 층고 2.6m). 지침서가 3개층이므로 **3층·층고 4.0m + 파라펫 1.0m 로 추정**. 창 1.5~3.1m 는 창 표기와 층 피치의 비에서 환산해 ±0.2m 오차 가능. 3층 리본창 모듈(면별 7.7m/5.8m)도 점 개수에 맞춘 역산값",
    "estimated": false
   }
  },
  {
   "type": "Feature",
   "geometry": {
    "type": "Point",
    "coordinates": [
     194292.112,
     547013.175
    ]
   },
   "properties": {
    "pid": "A동(3층) A동 남서면 1층-5",
    "school": "여의도여자고등학교",
    "jibun": "40-2",
    "kind": "교사동 창면",
    "dong": "A동(3층)",
    "floor": 1,
    "z_m": 2.3,
    "normal_az": 232.1,
    "grade": "A-",
    "근거등급": "A− 도면기준(대응·제원 추론 포함)",
    "근거": "A동 수광지침서",
    "추정항목": "AL_D010 이 5층·13.00m 로 층수와 높이가 서로 모순(5층이면 층고 2.6m). 지침서가 3개층이므로 **3층·층고 4.0m + 파라펫 1.0m 로 추정**. 창 1.5~3.1m 는 창 표기와 층 피치의 비에서 환산해 ±0.2m 오차 가능. 3층 리본창 모듈(면별 7.7m/5.8m)도 점 개수에 맞춘 역산값",
    "estimated": false
   }
  },
  {
   "type": "Feature",
   "geometry": {
    "type": "Point",
    "coordinates": [
     194292.112,
     547013.175
    ]
   },
   "properties": {
    "pid": "A동(3층) A동 남서면 2층-5",
    "school": "여의도여자고등학교",
    "jibun": "40-2",
    "kind": "교사동 창면",
    "dong": "A동(3층)",
    "floor": 2,
    "z_m": 6.3,
    "normal_az": 232.1,
    "grade": "A-",
    "근거등급": "A− 도면기준(대응·제원 추론 포함)",
    "근거": "A동 수광지침서",
    "추정항목": "AL_D010 이 5층·13.00m 로 층수와 높이가 서로 모순(5층이면 층고 2.6m). 지침서가 3개층이므로 **3층·층고 4.0m + 파라펫 1.0m 로 추정**. 창 1.5~3.1m 는 창 표기와 층 피치의 비에서 환산해 ±0.2m 오차 가능. 3층 리본창 모듈(면별 7.7m/5.8m)도 점 개수에 맞춘 역산값",
    "estimated": false
   }
  },
  {
   "type": "Feature",
   "geometry": {
    "type": "Point",
    "coordinates": [
     194296.174,
     547012.272
    ]
   },
   "properties": {
    "pid": "A동(3층) A동 남동면 1층-1",
    "school": "여의도여자고등학교",
    "jibun": "40-2",
    "kind": "교사동 창면",
    "dong": "A동(3층)",
    "floor": 1,
    "z_m": 2.3,
    "normal_az": 142.1,
    "grade": "A-",
    "근거등급": "A− 도면기준(대응·제원 추론 포함)",
    "근거": "A동 수광지침서",
    "추정항목": "AL_D010 이 5층·13.00m 로 층수와 높이가 서로 모순(5층이면 층고 2.6m). 지침서가 3개층이므로 **3층·층고 4.0m + 파라펫 1.0m 로 추정**. 창 1.5~3.1m 는 창 표기와 층 피치의 비에서 환산해 ±0.2m 오차 가능. 3층 리본창 모듈(면별 7.7m/5.8m)도 점 개수에 맞춘 역산값",
    "estimated": false
   }
  },
  {
   "type": "Feature",
   "geometry": {
    "type": "Point",
    "coordinates": [
     194296.174,
     547012.272
    ]
   },
   "properties": {
    "pid": "A동(3층) A동 남동면 2층-1",
    "school": "여의도여자고등학교",
    "jibun": "40-2",
    "kind": "교사동 창면",
    "dong": "A동(3층)",
    "floor": 2,
    "z_m": 6.3,
    "normal_az": 142.1,
    "grade": "A-",
    "근거등급": "A− 도면기준(대응·제원 추론 포함)",
    "근거": "A동 수광지침서",
    "추정항목": "AL_D010 이 5층·13.00m 로 층수와 높이가 서로 모순(5층이면 층고 2.6m). 지침서가 3개층이므로 **3층·층고 4.0m + 파라펫 1.0m 로 추정**. 창 1.5~3.1m 는 창 표기와 층 피치의 비에서 환산해 ±0.2m 오차 가능. 3층 리본창 모듈(면별 7.7m/5.8m)도 점 개수에 맞춘 역산값",
    "estimated": false
   }
  },
  {
   "type": "Feature",
   "geometry": {
    "type": "Point",
    "coordinates": [
     194299.725,
     547015.037
    ]
   },
   "properties": {
    "pid": "A동(3층) A동 남동면 1층-2",
    "school": "여의도여자고등학교",
    "jibun": "40-2",
    "kind": "교사동 창면",
    "dong": "A동(3층)",
    "floor": 1,
    "z_m": 2.3,
    "normal_az": 142.1,
    "grade": "A-",
    "근거등급": "A− 도면기준(대응·제원 추론 포함)",
    "근거": "A동 수광지침서",
    "추정항목": "AL_D010 이 5층·13.00m 로 층수와 높이가 서로 모순(5층이면 층고 2.6m). 지침서가 3개층이므로 **3층·층고 4.0m + 파라펫 1.0m 로 추정**. 창 1.5~3.1m 는 창 표기와 층 피치의 비에서 환산해 ±0.2m 오차 가능. 3층 리본창 모듈(면별 7.7m/5.8m)도 점 개수에 맞춘 역산값",
    "estimated": false
   }
  },
  {
   "type": "Feature",
   "geometry": {
    "type": "Point",
    "coordinates": [
     194299.725,
     547015.037
    ]
   },
   "properties": {
    "pid": "A동(3층) A동 남동면 2층-2",
    "school": "여의도여자고등학교",
    "jibun": "40-2",
    "kind": "교사동 창면",
    "dong": "A동(3층)",
    "floor": 2,
    "z_m": 6.3,
    "normal_az": 142.1,
    "grade": "A-",
    "근거등급": "A− 도면기준(대응·제원 추론 포함)",
    "근거": "A동 수광지침서",
    "추정항목": "AL_D010 이 5층·13.00m 로 층수와 높이가 서로 모순(5층이면 층고 2.6m). 지침서가 3개층이므로 **3층·층고 4.0m + 파라펫 1.0m 로 추정**. 창 1.5~3.1m 는 창 표기와 층 피치의 비에서 환산해 ±0.2m 오차 가능. 3층 리본창 모듈(면별 7.7m/5.8m)도 점 개수에 맞춘 역산값",
    "estimated": false
   }
  },
  {
   "type": "Feature",
   "geometry": {
    "type": "Point",
    "coordinates": [
     194303.275,
     547017.802
    ]
   },
   "properties": {
    "pid": "A동(3층) A동 남동면 1층-3",
    "school": "여의도여자고등학교",
    "jibun": "40-2",
    "kind": "교사동 창면",
    "dong": "A동(3층)",
    "floor": 1,
    "z_m": 2.3,
    "normal_az": 142.1,
    "grade": "A-",
    "근거등급": "A− 도면기준(대응·제원 추론 포함)",
    "근거": "A동 수광지침서",
    "추정항목": "AL_D010 이 5층·13.00m 로 층수와 높이가 서로 모순(5층이면 층고 2.6m). 지침서가 3개층이므로 **3층·층고 4.0m + 파라펫 1.0m 로 추정**. 창 1.5~3.1m 는 창 표기와 층 피치의 비에서 환산해 ±0.2m 오차 가능. 3층 리본창 모듈(면별 7.7m/5.8m)도 점 개수에 맞춘 역산값",
    "estimated": false
   }
  },
  {
   "type": "Feature",
   "geometry": {
    "type": "Point",
    "coordinates": [
     194303.275,
     547017.802
    ]
   },
   "properties": {
    "pid": "A동(3층) A동 남동면 2층-3",
    "school": "여의도여자고등학교",
    "jibun": "40-2",
    "kind": "교사동 창면",
    "dong": "A동(3층)",
    "floor": 2,
    "z_m": 6.3,
    "normal_az": 142.1,
    "grade": "A-",
    "근거등급": "A− 도면기준(대응·제원 추론 포함)",
    "근거": "A동 수광지침서",
    "추정항목": "AL_D010 이 5층·13.00m 로 층수와 높이가 서로 모순(5층이면 층고 2.6m). 지침서가 3개층이므로 **3층·층고 4.0m + 파라펫 1.0m 로 추정**. 창 1.5~3.1m 는 창 표기와 층 피치의 비에서 환산해 ±0.2m 오차 가능. 3층 리본창 모듈(면별 7.7m/5.8m)도 점 개수에 맞춘 역산값",
    "estimated": false
   }
  },
  {
   "type": "Feature",
   "geometry": {
    "type": "Point",
    "coordinates": [
     194306.826,
     547020.567
    ]
   },
   "properties": {
    "pid": "A동(3층) A동 남동면 1층-4",
    "school": "여의도여자고등학교",
    "jibun": "40-2",
    "kind": "교사동 창면",
    "dong": "A동(3층)",
    "floor": 1,
    "z_m": 2.3,
    "normal_az": 142.1,
    "grade": "A-",
    "근거등급": "A− 도면기준(대응·제원 추론 포함)",
    "근거": "A동 수광지침서",
    "추정항목": "AL_D010 이 5층·13.00m 로 층수와 높이가 서로 모순(5층이면 층고 2.6m). 지침서가 3개층이므로 **3층·층고 4.0m + 파라펫 1.0m 로 추정**. 창 1.5~3.1m 는 창 표기와 층 피치의 비에서 환산해 ±0.2m 오차 가능. 3층 리본창 모듈(면별 7.7m/5.8m)도 점 개수에 맞춘 역산값",
    "estimated": false
   }
  },
  {
   "type": "Feature",
   "geometry": {
    "type": "Point",
    "coordinates": [
     194306.826,
     547020.567
    ]
   },
   "properties": {
    "pid": "A동(3층) A동 남동면 2층-4",
    "school": "여의도여자고등학교",
    "jibun": "40-2",
    "kind": "교사동 창면",
    "dong": "A동(3층)",
    "floor": 2,
    "z_m": 6.3,
    "normal_az": 142.1,
    "grade": "A-",
    "근거등급": "A− 도면기준(대응·제원 추론 포함)",
    "근거": "A동 수광지침서",
    "추정항목": "AL_D010 이 5층·13.00m 로 층수와 높이가 서로 모순(5층이면 층고 2.6m). 지침서가 3개층이므로 **3층·층고 4.0m + 파라펫 1.0m 로 추정**. 창 1.5~3.1m 는 창 표기와 층 피치의 비에서 환산해 ±0.2m 오차 가능. 3층 리본창 모듈(면별 7.7m/5.8m)도 점 개수에 맞춘 역산값",
    "estimated": false
   }
  },
  {
   "type": "Feature",
   "geometry": {
    "type": "Point",
    "coordinates": [
     194310.376,
     547023.331
    ]
   },
   "properties": {
    "pid": "A동(3층) A동 남동면 1층-5",
    "school": "여의도여자고등학교",
    "jibun": "40-2",
    "kind": "교사동 창면",
    "dong": "A동(3층)",
    "floor": 1,
    "z_m": 2.3,
    "normal_az": 142.1,
    "grade": "A-",
    "근거등급": "A− 도면기준(대응·제원 추론 포함)",
    "근거": "A동 수광지침서",
    "추정항목": "AL_D010 이 5층·13.00m 로 층수와 높이가 서로 모순(5층이면 층고 2.6m). 지침서가 3개층이므로 **3층·층고 4.0m + 파라펫 1.0m 로 추정**. 창 1.5~3.1m 는 창 표기와 층 피치의 비에서 환산해 ±0.2m 오차 가능. 3층 리본창 모듈(면별 7.7m/5.8m)도 점 개수에 맞춘 역산값",
    "estimated": false
   }
  },
  {
   "type": "Feature",
   "geometry": {
    "type": "Point",
    "coordinates": [
     194310.376,
     547023.331
    ]
   },
   "properties": {
    "pid": "A동(3층) A동 남동면 2층-5",
    "school": "여의도여자고등학교",
    "jibun": "40-2",
    "kind": "교사동 창면",
    "dong": "A동(3층)",
    "floor": 2,
    "z_m": 6.3,
    "normal_az": 142.1,
    "grade": "A-",
    "근거등급": "A− 도면기준(대응·제원 추론 포함)",
    "근거": "A동 수광지침서",
    "추정항목": "AL_D010 이 5층·13.00m 로 층수와 높이가 서로 모순(5층이면 층고 2.6m). 지침서가 3개층이므로 **3층·층고 4.0m + 파라펫 1.0m 로 추정**. 창 1.5~3.1m 는 창 표기와 층 피치의 비에서 환산해 ±0.2m 오차 가능. 3층 리본창 모듈(면별 7.7m/5.8m)도 점 개수에 맞춘 역산값",
    "estimated": false
   }
  },
  {
   "type": "Feature",
   "geometry": {
    "type": "Point",
    "coordinates": [
     194313.927,
     547026.096
    ]
   },
   "properties": {
    "pid": "A동(3층) A동 남동면 1층-6",
    "school": "여의도여자고등학교",
    "jibun": "40-2",
    "kind": "교사동 창면",
    "dong": "A동(3층)",
    "floor": 1,
    "z_m": 2.3,
    "normal_az": 142.1,
    "grade": "A-",
    "근거등급": "A− 도면기준(대응·제원 추론 포함)",
    "근거": "A동 수광지침서",
    "추정항목": "AL_D010 이 5층·13.00m 로 층수와 높이가 서로 모순(5층이면 층고 2.6m). 지침서가 3개층이므로 **3층·층고 4.0m + 파라펫 1.0m 로 추정**. 창 1.5~3.1m 는 창 표기와 층 피치의 비에서 환산해 ±0.2m 오차 가능. 3층 리본창 모듈(면별 7.7m/5.8m)도 점 개수에 맞춘 역산값",
    "estimated": false
   }
  },
  {
   "type": "Feature",
   "geometry": {
    "type": "Point",
    "coordinates": [
     194313.927,
     547026.096
    ]
   },
   "properties": {
    "pid": "A동(3층) A동 남동면 2층-6",
    "school": "여의도여자고등학교",
    "jibun": "40-2",
    "kind": "교사동 창면",
    "dong": "A동(3층)",
    "floor": 2,
    "z_m": 6.3,
    "normal_az": 142.1,
    "grade": "A-",
    "근거등급": "A− 도면기준(대응·제원 추론 포함)",
    "근거": "A동 수광지침서",
    "추정항목": "AL_D010 이 5층·13.00m 로 층수와 높이가 서로 모순(5층이면 층고 2.6m). 지침서가 3개층이므로 **3층·층고 4.0m + 파라펫 1.0m 로 추정**. 창 1.5~3.1m 는 창 표기와 층 피치의 비에서 환산해 ±0.2m 오차 가능. 3층 리본창 모듈(면별 7.7m/5.8m)도 점 개수에 맞춘 역산값",
    "estimated": false
   }
  },
  {
   "type": "Feature",
   "geometry": {
    "type": "Point",
    "coordinates": [
     194317.477,
     547028.861
    ]
   },
   "properties": {
    "pid": "A동(3층) A동 남동면 1층-7",
    "school": "여의도여자고등학교",
    "jibun": "40-2",
    "kind": "교사동 창면",
    "dong": "A동(3층)",
    "floor": 1,
    "z_m": 2.3,
    "normal_az": 142.1,
    "grade": "A-",
    "근거등급": "A− 도면기준(대응·제원 추론 포함)",
    "근거": "A동 수광지침서",
    "추정항목": "AL_D010 이 5층·13.00m 로 층수와 높이가 서로 모순(5층이면 층고 2.6m). 지침서가 3개층이므로 **3층·층고 4.0m + 파라펫 1.0m 로 추정**. 창 1.5~3.1m 는 창 표기와 층 피치의 비에서 환산해 ±0.2m 오차 가능. 3층 리본창 모듈(면별 7.7m/5.8m)도 점 개수에 맞춘 역산값",
    "estimated": false
   }
  },
  {
   "type": "Feature",
   "geometry": {
    "type": "Point",
    "coordinates": [
     194317.477,
     547028.861
    ]
   },
   "properties": {
    "pid": "A동(3층) A동 남동면 2층-7",
    "school": "여의도여자고등학교",
    "jibun": "40-2",
    "kind": "교사동 창면",
    "dong": "A동(3층)",
    "floor": 2,
    "z_m": 6.3,
    "normal_az": 142.1,
    "grade": "A-",
    "근거등급": "A− 도면기준(대응·제원 추론 포함)",
    "근거": "A동 수광지침서",
    "추정항목": "AL_D010 이 5층·13.00m 로 층수와 높이가 서로 모순(5층이면 층고 2.6m). 지침서가 3개층이므로 **3층·층고 4.0m + 파라펫 1.0m 로 추정**. 창 1.5~3.1m 는 창 표기와 층 피치의 비에서 환산해 ±0.2m 오차 가능. 3층 리본창 모듈(면별 7.7m/5.8m)도 점 개수에 맞춘 역산값",
    "estimated": false
   }
  },
  {
   "type": "Feature",
   "geometry": {
    "type": "Point",
    "coordinates": [
     194282.034,
     547026.112
    ]
   },
   "properties": {
    "pid": "A동(3층) A동 남서면 3층-1",
    "school": "여의도여자고등학교",
    "jibun": "40-2",
    "kind": "교사동 창면",
    "dong": "A동(3층)",
    "floor": 3,
    "z_m": 10.3,
    "normal_az": 232.1,
    "grade": "A-",
    "근거등급": "A− 도면기준(대응·제원 추론 포함)",
    "근거": "A동 수광지침서",
    "추정항목": "AL_D010 이 5층·13.00m 로 층수와 높이가 서로 모순(5층이면 층고 2.6m). 지침서가 3개층이므로 **3층·층고 4.0m + 파라펫 1.0m 로 추정**. 창 1.5~3.1m 는 창 표기와 층 피치의 비에서 환산해 ±0.2m 오차 가능. 3층 리본창 모듈(면별 7.7m/5.8m)도 점 개수에 맞춘 역산값",
    "estimated": false
   }
  },
  {
   "type": "Feature",
   "geometry": {
    "type": "Point",
    "coordinates": [
     194286.766,
     547020.038
    ]
   },
   "properties": {
    "pid": "A동(3층) A동 남서면 3층-2",
    "school": "여의도여자고등학교",
    "jibun": "40-2",
    "kind": "교사동 창면",
    "dong": "A동(3층)",
    "floor": 3,
    "z_m": 10.3,
    "normal_az": 232.1,
    "grade": "A-",
    "근거등급": "A− 도면기준(대응·제원 추론 포함)",
    "근거": "A동 수광지침서",
    "추정항목": "AL_D010 이 5층·13.00m 로 층수와 높이가 서로 모순(5층이면 층고 2.6m). 지침서가 3개층이므로 **3층·층고 4.0m + 파라펫 1.0m 로 추정**. 창 1.5~3.1m 는 창 표기와 층 피치의 비에서 환산해 ±0.2m 오차 가능. 3층 리본창 모듈(면별 7.7m/5.8m)도 점 개수에 맞춘 역산값",
    "estimated": false
   }
  },
  {
   "type": "Feature",
   "geometry": {
    "type": "Point",
    "coordinates": [
     194291.498,
     547013.964
    ]
   },
   "properties": {
    "pid": "A동(3층) A동 남서면 3층-3",
    "school": "여의도여자고등학교",
    "jibun": "40-2",
    "kind": "교사동 창면",
    "dong": "A동(3층)",
    "floor": 3,
    "z_m": 10.3,
    "normal_az": 232.1,
    "grade": "A-",
    "근거등급": "A− 도면기준(대응·제원 추론 포함)",
    "근거": "A동 수광지침서",
    "추정항목": "AL_D010 이 5층·13.00m 로 층수와 높이가 서로 모순(5층이면 층고 2.6m). 지침서가 3개층이므로 **3층·층고 4.0m + 파라펫 1.0m 로 추정**. 창 1.5~3.1m 는 창 표기와 층 피치의 비에서 환산해 ±0.2m 오차 가능. 3층 리본창 모듈(면별 7.7m/5.8m)도 점 개수에 맞춘 역산값",
    "estimated": false
   }
  },
  {
   "type": "Feature",
   "geometry": {
    "type": "Point",
    "coordinates": [
     194296.687,
     547012.672
    ]
   },
   "properties": {
    "pid": "A동(3층) A동 남동면 3층-1",
    "school": "여의도여자고등학교",
    "jibun": "40-2",
    "kind": "교사동 창면",
    "dong": "A동(3층)",
    "floor": 3,
    "z_m": 10.3,
    "normal_az": 142.1,
    "grade": "A-",
    "근거등급": "A− 도면기준(대응·제원 추론 포함)",
    "근거": "A동 수광지침서",
    "추정항목": "AL_D010 이 5층·13.00m 로 층수와 높이가 서로 모순(5층이면 층고 2.6m). 지침서가 3개층이므로 **3층·층고 4.0m + 파라펫 1.0m 로 추정**. 창 1.5~3.1m 는 창 표기와 층 피치의 비에서 환산해 ±0.2m 오차 가능. 3층 리본창 모듈(면별 7.7m/5.8m)도 점 개수에 맞춘 역산값",
    "estimated": false
   }
  },
  {
   "type": "Feature",
   "geometry": {
    "type": "Point",
    "coordinates": [
     194301.263,
     547016.235
    ]
   },
   "properties": {
    "pid": "A동(3층) A동 남동면 3층-2",
    "school": "여의도여자고등학교",
    "jibun": "40-2",
    "kind": "교사동 창면",
    "dong": "A동(3층)",
    "floor": 3,
    "z_m": 10.3,
    "normal_az": 142.1,
    "grade": "A-",
    "근거등급": "A− 도면기준(대응·제원 추론 포함)",
    "근거": "A동 수광지침서",
    "추정항목": "AL_D010 이 5층·13.00m 로 층수와 높이가 서로 모순(5층이면 층고 2.6m). 지침서가 3개층이므로 **3층·층고 4.0m + 파라펫 1.0m 로 추정**. 창 1.5~3.1m 는 창 표기와 층 피치의 비에서 환산해 ±0.2m 오차 가능. 3층 리본창 모듈(면별 7.7m/5.8m)도 점 개수에 맞춘 역산값",
    "estimated": false
   }
  },
  {
   "type": "Feature",
   "geometry": {
    "type": "Point",
    "coordinates": [
     194305.84,
     547019.799
    ]
   },
   "properties": {
    "pid": "A동(3층) A동 남동면 3층-3",
    "school": "여의도여자고등학교",
    "jibun": "40-2",
    "kind": "교사동 창면",
    "dong": "A동(3층)",
    "floor": 3,
    "z_m": 10.3,
    "normal_az": 142.1,
    "grade": "A-",
    "근거등급": "A− 도면기준(대응·제원 추론 포함)",
    "근거": "A동 수광지침서",
    "추정항목": "AL_D010 이 5층·13.00m 로 층수와 높이가 서로 모순(5층이면 층고 2.6m). 지침서가 3개층이므로 **3층·층고 4.0m + 파라펫 1.0m 로 추정**. 창 1.5~3.1m 는 창 표기와 층 피치의 비에서 환산해 ±0.2m 오차 가능. 3층 리본창 모듈(면별 7.7m/5.8m)도 점 개수에 맞춘 역산값",
    "estimated": false
   }
  },
  {
   "type": "Feature",
   "geometry": {
    "type": "Point",
    "coordinates": [
     194310.416,
     547023.362
    ]
   },
   "properties": {
    "pid": "A동(3층) A동 남동면 3층-4",
    "school": "여의도여자고등학교",
    "jibun": "40-2",
    "kind": "교사동 창면",
    "dong": "A동(3층)",
    "floor": 3,
    "z_m": 10.3,
    "normal_az": 142.1,
    "grade": "A-",
    "근거등급": "A− 도면기준(대응·제원 추론 포함)",
    "근거": "A동 수광지침서",
    "추정항목": "AL_D010 이 5층·13.00m 로 층수와 높이가 서로 모순(5층이면 층고 2.6m). 지침서가 3개층이므로 **3층·층고 4.0m + 파라펫 1.0m 로 추정**. 창 1.5~3.1m 는 창 표기와 층 피치의 비에서 환산해 ±0.2m 오차 가능. 3층 리본창 모듈(면별 7.7m/5.8m)도 점 개수에 맞춘 역산값",
    "estimated": false
   }
  },
  {
   "type": "Feature",
   "geometry": {
    "type": "Point",
    "coordinates": [
     194314.992,
     547026.926
    ]
   },
   "properties": {
    "pid": "A동(3층) A동 남동면 3층-5",
    "school": "여의도여자고등학교",
    "jibun": "40-2",
    "kind": "교사동 창면",
    "dong": "A동(3층)",
    "floor": 3,
    "z_m": 10.3,
    "normal_az": 142.1,
    "grade": "A-",
    "근거등급": "A− 도면기준(대응·제원 추론 포함)",
    "근거": "A동 수광지침서",
    "추정항목": "AL_D010 이 5층·13.00m 로 층수와 높이가 서로 모순(5층이면 층고 2.6m). 지침서가 3개층이므로 **3층·층고 4.0m + 파라펫 1.0m 로 추정**. 창 1.5~3.1m 는 창 표기와 층 피치의 비에서 환산해 ±0.2m 오차 가능. 3층 리본창 모듈(면별 7.7m/5.8m)도 점 개수에 맞춘 역산값",
    "estimated": false
   }
  },
  {
   "type": "Feature",
   "geometry": {
    "type": "Point",
    "coordinates": [
     194319.568,
     547030.489
    ]
   },
   "properties": {
    "pid": "A동(3층) A동 남동면 3층-6",
    "school": "여의도여자고등학교",
    "jibun": "40-2",
    "kind": "교사동 창면",
    "dong": "A동(3층)",
    "floor": 3,
    "z_m": 10.3,
    "normal_az": 142.1,
    "grade": "A-",
    "근거등급": "A− 도면기준(대응·제원 추론 포함)",
    "근거": "A동 수광지침서",
    "추정항목": "AL_D010 이 5층·13.00m 로 층수와 높이가 서로 모순(5층이면 층고 2.6m). 지침서가 3개층이므로 **3층·층고 4.0m + 파라펫 1.0m 로 추정**. 창 1.5~3.1m 는 창 표기와 층 피치의 비에서 환산해 ±0.2m 오차 가능. 3층 리본창 모듈(면별 7.7m/5.8m)도 점 개수에 맞춘 역산값",
    "estimated": false
   }
  },
  {
   "type": "Feature",
   "geometry": {
    "type": "Point",
    "coordinates": [
     194330.145,
     547053.463
    ]
   },
   "properties": {
    "pid": "여의도초등학교 운동장-1",
    "school": "여의도초등학교",
    "jibun": "40-3",
    "kind": "운동장 지반",
    "dong": "여의도초등학교 운동장",
    "floor": 0,
    "z_m": 0.0,
    "normal_az": 180.0,
    "grade": "A-",
    "근거등급": "A− 도면기준(대응·제원 추론 포함)",
    "근거": "배치도 경계(래스터 계측) + 분석지점도 격자",
    "추정항목": "격자 수·방위는 옥외체육장 분석지점도대로(칸마다 1점), **경계는 학교 위치 배치도에서 계측**했다. 배치도는 운동장을 해치로 칠하므로 AL_D010 건물 선화에 맞춰 축척·평행이동을 역산(1.270 m/화소)한 뒤 해치영역을 실좌표로 읽었다. 위치는 도면대로지만 **래스터 계측 오차 ±3m** 가 남는다",
    "estimated": false
   }
  },
  {
   "type": "Feature",
   "geometry": {
    "type": "Point",
    "coordinates": [
     194337.129,
     547058.919
    ]
   },
   "properties": {
    "pid": "여의도초등학교 운동장-2",
    "school": "여의도초등학교",
    "jibun": "40-3",
    "kind": "운동장 지반",
    "dong": "여의도초등학교 운동장",
    "floor": 0,
    "z_m": 0.0,
    "normal_az": 180.0,
    "grade": "A-",
    "근거등급": "A− 도면기준(대응·제원 추론 포함)",
    "근거": "배치도 경계(래스터 계측) + 분석지점도 격자",
    "추정항목": "격자 수·방위는 옥외체육장 분석지점도대로(칸마다 1점), **경계는 학교 위치 배치도에서 계측**했다. 배치도는 운동장을 해치로 칠하므로 AL_D010 건물 선화에 맞춰 축척·평행이동을 역산(1.270 m/화소)한 뒤 해치영역을 실좌표로 읽었다. 위치는 도면대로지만 **래스터 계측 오차 ±3m** 가 남는다",
    "estimated": false
   }
  },
  {
   "type": "Feature",
   "geometry": {
    "type": "Point",
    "coordinates": [
     194344.113,
     547064.376
    ]
   },
   "properties": {
    "pid": "여의도초등학교 운동장-3",
    "school": "여의도초등학교",
    "jibun": "40-3",
    "kind": "운동장 지반",
    "dong": "여의도초등학교 운동장",
    "floor": 0,
    "z_m": 0.0,
    "normal_az": 180.0,
    "grade": "A-",
    "근거등급": "A− 도면기준(대응·제원 추론 포함)",
    "근거": "배치도 경계(래스터 계측) + 분석지점도 격자",
    "추정항목": "격자 수·방위는 옥외체육장 분석지점도대로(칸마다 1점), **경계는 학교 위치 배치도에서 계측**했다. 배치도는 운동장을 해치로 칠하므로 AL_D010 건물 선화에 맞춰 축척·평행이동을 역산(1.270 m/화소)한 뒤 해치영역을 실좌표로 읽었다. 위치는 도면대로지만 **래스터 계측 오차 ±3m** 가 남는다",
    "estimated": false
   }
  },
  {
   "type": "Feature",
   "geometry": {
    "type": "Point",
    "coordinates": [
     194351.097,
     547069.832
    ]
   },
   "properties": {
    "pid": "여의도초등학교 운동장-4",
    "school": "여의도초등학교",
    "jibun": "40-3",
    "kind": "운동장 지반",
    "dong": "여의도초등학교 운동장",
    "floor": 0,
    "z_m": 0.0,
    "normal_az": 180.0,
    "grade": "A-",
    "근거등급": "A− 도면기준(대응·제원 추론 포함)",
    "근거": "배치도 경계(래스터 계측) + 분석지점도 격자",
    "추정항목": "격자 수·방위는 옥외체육장 분석지점도대로(칸마다 1점), **경계는 학교 위치 배치도에서 계측**했다. 배치도는 운동장을 해치로 칠하므로 AL_D010 건물 선화에 맞춰 축척·평행이동을 역산(1.270 m/화소)한 뒤 해치영역을 실좌표로 읽었다. 위치는 도면대로지만 **래스터 계측 오차 ±3m** 가 남는다",
    "estimated": false
   }
  },
  {
   "type": "Feature",
   "geometry": {
    "type": "Point",
    "coordinates": [
     194358.08,
     547075.288
    ]
   },
   "properties": {
    "pid": "여의도초등학교 운동장-5",
    "school": "여의도초등학교",
    "jibun": "40-3",
    "kind": "운동장 지반",
    "dong": "여의도초등학교 운동장",
    "floor": 0,
    "z_m": 0.0,
    "normal_az": 180.0,
    "grade": "A-",
    "근거등급": "A− 도면기준(대응·제원 추론 포함)",
    "근거": "배치도 경계(래스터 계측) + 분석지점도 격자",
    "추정항목": "격자 수·방위는 옥외체육장 분석지점도대로(칸마다 1점), **경계는 학교 위치 배치도에서 계측**했다. 배치도는 운동장을 해치로 칠하므로 AL_D010 건물 선화에 맞춰 축척·평행이동을 역산(1.270 m/화소)한 뒤 해치영역을 실좌표로 읽었다. 위치는 도면대로지만 **래스터 계측 오차 ±3m** 가 남는다",
    "estimated": false
   }
  },
  {
   "type": "Feature",
   "geometry": {
    "type": "Point",
    "coordinates": [
     194365.064,
     547080.745
    ]
   },
   "properties": {
    "pid": "여의도초등학교 운동장-6",
    "school": "여의도초등학교",
    "jibun": "40-3",
    "kind": "운동장 지반",
    "dong": "여의도초등학교 운동장",
    "floor": 0,
    "z_m": 0.0,
    "normal_az": 180.0,
    "grade": "A-",
    "근거등급": "A− 도면기준(대응·제원 추론 포함)",
    "근거": "배치도 경계(래스터 계측) + 분석지점도 격자",
    "추정항목": "격자 수·방위는 옥외체육장 분석지점도대로(칸마다 1점), **경계는 학교 위치 배치도에서 계측**했다. 배치도는 운동장을 해치로 칠하므로 AL_D010 건물 선화에 맞춰 축척·평행이동을 역산(1.270 m/화소)한 뒤 해치영역을 실좌표로 읽었다. 위치는 도면대로지만 **래스터 계측 오차 ±3m** 가 남는다",
    "estimated": false
   }
  },
  {
   "type": "Feature",
   "geometry": {
    "type": "Point",
    "coordinates": [
     194372.048,
     547086.201
    ]
   },
   "properties": {
    "pid": "여의도초등학교 운동장-7",
    "school": "여의도초등학교",
    "jibun": "40-3",
    "kind": "운동장 지반",
    "dong": "여의도초등학교 운동장",
    "floor": 0,
    "z_m": 0.0,
    "normal_az": 180.0,
    "grade": "A-",
    "근거등급": "A− 도면기준(대응·제원 추론 포함)",
    "근거": "배치도 경계(래스터 계측) + 분석지점도 격자",
    "추정항목": "격자 수·방위는 옥외체육장 분석지점도대로(칸마다 1점), **경계는 학교 위치 배치도에서 계측**했다. 배치도는 운동장을 해치로 칠하므로 AL_D010 건물 선화에 맞춰 축척·평행이동을 역산(1.270 m/화소)한 뒤 해치영역을 실좌표로 읽었다. 위치는 도면대로지만 **래스터 계측 오차 ±3m** 가 남는다",
    "estimated": false
   }
  },
  {
   "type": "Feature",
   "geometry": {
    "type": "Point",
    "coordinates": [
     194379.032,
     547091.657
    ]
   },
   "properties": {
    "pid": "여의도초등학교 운동장-8",
    "school": "여의도초등학교",
    "jibun": "40-3",
    "kind": "운동장 지반",
    "dong": "여의도초등학교 운동장",
    "floor": 0,
    "z_m": 0.0,
    "normal_az": 180.0,
    "grade": "A-",
    "근거등급": "A− 도면기준(대응·제원 추론 포함)",
    "근거": "배치도 경계(래스터 계측) + 분석지점도 격자",
    "추정항목": "격자 수·방위는 옥외체육장 분석지점도대로(칸마다 1점), **경계는 학교 위치 배치도에서 계측**했다. 배치도는 운동장을 해치로 칠하므로 AL_D010 건물 선화에 맞춰 축척·평행이동을 역산(1.270 m/화소)한 뒤 해치영역을 실좌표로 읽었다. 위치는 도면대로지만 **래스터 계측 오차 ±3m** 가 남는다",
    "estimated": false
   }
  },
  {
   "type": "Feature",
   "geometry": {
    "type": "Point",
    "coordinates": [
     194335.732,
     547046.313
    ]
   },
   "properties": {
    "pid": "여의도초등학교 운동장-9",
    "school": "여의도초등학교",
    "jibun": "40-3",
    "kind": "운동장 지반",
    "dong": "여의도초등학교 운동장",
    "floor": 0,
    "z_m": 0.0,
    "normal_az": 180.0,
    "grade": "A-",
    "근거등급": "A− 도면기준(대응·제원 추론 포함)",
    "근거": "배치도 경계(래스터 계측) + 분석지점도 격자",
    "추정항목": "격자 수·방위는 옥외체육장 분석지점도대로(칸마다 1점), **경계는 학교 위치 배치도에서 계측**했다. 배치도는 운동장을 해치로 칠하므로 AL_D010 건물 선화에 맞춰 축척·평행이동을 역산(1.270 m/화소)한 뒤 해치영역을 실좌표로 읽었다. 위치는 도면대로지만 **래스터 계측 오차 ±3m** 가 남는다",
    "estimated": false
   }
  },
  {
   "type": "Feature",
   "geometry": {
    "type": "Point",
    "coordinates": [
     194342.715,
     547051.769
    ]
   },
   "properties": {
    "pid": "여의도초등학교 운동장-10",
    "school": "여의도초등학교",
    "jibun": "40-3",
    "kind": "운동장 지반",
    "dong": "여의도초등학교 운동장",
    "floor": 0,
    "z_m": 0.0,
    "normal_az": 180.0,
    "grade": "A-",
    "근거등급": "A− 도면기준(대응·제원 추론 포함)",
    "근거": "배치도 경계(래스터 계측) + 분석지점도 격자",
    "추정항목": "격자 수·방위는 옥외체육장 분석지점도대로(칸마다 1점), **경계는 학교 위치 배치도에서 계측**했다. 배치도는 운동장을 해치로 칠하므로 AL_D010 건물 선화에 맞춰 축척·평행이동을 역산(1.270 m/화소)한 뒤 해치영역을 실좌표로 읽었다. 위치는 도면대로지만 **래스터 계측 오차 ±3m** 가 남는다",
    "estimated": false
   }
  },
  {
   "type": "Feature",
   "geometry": {
    "type": "Point",
    "coordinates": [
     194349.699,
     547057.226
    ]
   },
   "properties": {
    "pid": "여의도초등학교 운동장-11",
    "school": "여의도초등학교",
    "jibun": "40-3",
    "kind": "운동장 지반",
    "dong": "여의도초등학교 운동장",
    "floor": 0,
    "z_m": 0.0,
    "normal_az": 180.0,
    "grade": "A-",
    "근거등급": "A− 도면기준(대응·제원 추론 포함)",
    "근거": "배치도 경계(래스터 계측) + 분석지점도 격자",
    "추정항목": "격자 수·방위는 옥외체육장 분석지점도대로(칸마다 1점), **경계는 학교 위치 배치도에서 계측**했다. 배치도는 운동장을 해치로 칠하므로 AL_D010 건물 선화에 맞춰 축척·평행이동을 역산(1.270 m/화소)한 뒤 해치영역을 실좌표로 읽었다. 위치는 도면대로지만 **래스터 계측 오차 ±3m** 가 남는다",
    "estimated": false
   }
  },
  {
   "type": "Feature",
   "geometry": {
    "type": "Point",
    "coordinates": [
     194356.683,
     547062.682
    ]
   },
   "properties": {
    "pid": "여의도초등학교 운동장-12",
    "school": "여의도초등학교",
    "jibun": "40-3",
    "kind": "운동장 지반",
    "dong": "여의도초등학교 운동장",
    "floor": 0,
    "z_m": 0.0,
    "normal_az": 180.0,
    "grade": "A-",
    "근거등급": "A− 도면기준(대응·제원 추론 포함)",
    "근거": "배치도 경계(래스터 계측) + 분석지점도 격자",
    "추정항목": "격자 수·방위는 옥외체육장 분석지점도대로(칸마다 1점), **경계는 학교 위치 배치도에서 계측**했다. 배치도는 운동장을 해치로 칠하므로 AL_D010 건물 선화에 맞춰 축척·평행이동을 역산(1.270 m/화소)한 뒤 해치영역을 실좌표로 읽었다. 위치는 도면대로지만 **래스터 계측 오차 ±3m** 가 남는다",
    "estimated": false
   }
  },
  {
   "type": "Feature",
   "geometry": {
    "type": "Point",
    "coordinates": [
     194363.667,
     547068.138
    ]
   },
   "properties": {
    "pid": "여의도초등학교 운동장-13",
    "school": "여의도초등학교",
    "jibun": "40-3",
    "kind": "운동장 지반",
    "dong": "여의도초등학교 운동장",
    "floor": 0,
    "z_m": 0.0,
    "normal_az": 180.0,
    "grade": "A-",
    "근거등급": "A− 도면기준(대응·제원 추론 포함)",
    "근거": "배치도 경계(래스터 계측) + 분석지점도 격자",
    "추정항목": "격자 수·방위는 옥외체육장 분석지점도대로(칸마다 1점), **경계는 학교 위치 배치도에서 계측**했다. 배치도는 운동장을 해치로 칠하므로 AL_D010 건물 선화에 맞춰 축척·평행이동을 역산(1.270 m/화소)한 뒤 해치영역을 실좌표로 읽었다. 위치는 도면대로지만 **래스터 계측 오차 ±3m** 가 남는다",
    "estimated": false
   }
  },
  {
   "type": "Feature",
   "geometry": {
    "type": "Point",
    "coordinates": [
     194370.65,
     547073.594
    ]
   },
   "properties": {
    "pid": "여의도초등학교 운동장-14",
    "school": "여의도초등학교",
    "jibun": "40-3",
    "kind": "운동장 지반",
    "dong": "여의도초등학교 운동장",
    "floor": 0,
    "z_m": 0.0,
    "normal_az": 180.0,
    "grade": "A-",
    "근거등급": "A− 도면기준(대응·제원 추론 포함)",
    "근거": "배치도 경계(래스터 계측) + 분석지점도 격자",
    "추정항목": "격자 수·방위는 옥외체육장 분석지점도대로(칸마다 1점), **경계는 학교 위치 배치도에서 계측**했다. 배치도는 운동장을 해치로 칠하므로 AL_D010 건물 선화에 맞춰 축척·평행이동을 역산(1.270 m/화소)한 뒤 해치영역을 실좌표로 읽었다. 위치는 도면대로지만 **래스터 계측 오차 ±3m** 가 남는다",
    "estimated": false
   }
  },
  {
   "type": "Feature",
   "geometry": {
    "type": "Point",
    "coordinates": [
     194377.634,
     547079.051
    ]
   },
   "properties": {
    "pid": "여의도초등학교 운동장-15",
    "school": "여의도초등학교",
    "jibun": "40-3",
    "kind": "운동장 지반",
    "dong": "여의도초등학교 운동장",
    "floor": 0,
    "z_m": 0.0,
    "normal_az": 180.0,
    "grade": "A-",
    "근거등급": "A− 도면기준(대응·제원 추론 포함)",
    "근거": "배치도 경계(래스터 계측) + 분석지점도 격자",
    "추정항목": "격자 수·방위는 옥외체육장 분석지점도대로(칸마다 1점), **경계는 학교 위치 배치도에서 계측**했다. 배치도는 운동장을 해치로 칠하므로 AL_D010 건물 선화에 맞춰 축척·평행이동을 역산(1.270 m/화소)한 뒤 해치영역을 실좌표로 읽었다. 위치는 도면대로지만 **래스터 계측 오차 ±3m** 가 남는다",
    "estimated": false
   }
  },
  {
   "type": "Feature",
   "geometry": {
    "type": "Point",
    "coordinates": [
     194384.618,
     547084.507
    ]
   },
   "properties": {
    "pid": "여의도초등학교 운동장-16",
    "school": "여의도초등학교",
    "jibun": "40-3",
    "kind": "운동장 지반",
    "dong": "여의도초등학교 운동장",
    "floor": 0,
    "z_m": 0.0,
    "normal_az": 180.0,
    "grade": "A-",
    "근거등급": "A− 도면기준(대응·제원 추론 포함)",
    "근거": "배치도 경계(래스터 계측) + 분석지점도 격자",
    "추정항목": "격자 수·방위는 옥외체육장 분석지점도대로(칸마다 1점), **경계는 학교 위치 배치도에서 계측**했다. 배치도는 운동장을 해치로 칠하므로 AL_D010 건물 선화에 맞춰 축척·평행이동을 역산(1.270 m/화소)한 뒤 해치영역을 실좌표로 읽었다. 위치는 도면대로지만 **래스터 계측 오차 ±3m** 가 남는다",
    "estimated": false
   }
  },
  {
   "type": "Feature",
   "geometry": {
    "type": "Point",
    "coordinates": [
     194341.318,
     547039.163
    ]
   },
   "properties": {
    "pid": "여의도초등학교 운동장-17",
    "school": "여의도초등학교",
    "jibun": "40-3",
    "kind": "운동장 지반",
    "dong": "여의도초등학교 운동장",
    "floor": 0,
    "z_m": 0.0,
    "normal_az": 180.0,
    "grade": "A-",
    "근거등급": "A− 도면기준(대응·제원 추론 포함)",
    "근거": "배치도 경계(래스터 계측) + 분석지점도 격자",
    "추정항목": "격자 수·방위는 옥외체육장 분석지점도대로(칸마다 1점), **경계는 학교 위치 배치도에서 계측**했다. 배치도는 운동장을 해치로 칠하므로 AL_D010 건물 선화에 맞춰 축척·평행이동을 역산(1.270 m/화소)한 뒤 해치영역을 실좌표로 읽었다. 위치는 도면대로지만 **래스터 계측 오차 ±3m** 가 남는다",
    "estimated": false
   }
  },
  {
   "type": "Feature",
   "geometry": {
    "type": "Point",
    "coordinates": [
     194348.302,
     547044.619
    ]
   },
   "properties": {
    "pid": "여의도초등학교 운동장-18",
    "school": "여의도초등학교",
    "jibun": "40-3",
    "kind": "운동장 지반",
    "dong": "여의도초등학교 운동장",
    "floor": 0,
    "z_m": 0.0,
    "normal_az": 180.0,
    "grade": "A-",
    "근거등급": "A− 도면기준(대응·제원 추론 포함)",
    "근거": "배치도 경계(래스터 계측) + 분석지점도 격자",
    "추정항목": "격자 수·방위는 옥외체육장 분석지점도대로(칸마다 1점), **경계는 학교 위치 배치도에서 계측**했다. 배치도는 운동장을 해치로 칠하므로 AL_D010 건물 선화에 맞춰 축척·평행이동을 역산(1.270 m/화소)한 뒤 해치영역을 실좌표로 읽었다. 위치는 도면대로지만 **래스터 계측 오차 ±3m** 가 남는다",
    "estimated": false
   }
  },
  {
   "type": "Feature",
   "geometry": {
    "type": "Point",
    "coordinates": [
     194355.285,
     547050.076
    ]
   },
   "properties": {
    "pid": "여의도초등학교 운동장-19",
    "school": "여의도초등학교",
    "jibun": "40-3",
    "kind": "운동장 지반",
    "dong": "여의도초등학교 운동장",
    "floor": 0,
    "z_m": 0.0,
    "normal_az": 180.0,
    "grade": "A-",
    "근거등급": "A− 도면기준(대응·제원 추론 포함)",
    "근거": "배치도 경계(래스터 계측) + 분석지점도 격자",
    "추정항목": "격자 수·방위는 옥외체육장 분석지점도대로(칸마다 1점), **경계는 학교 위치 배치도에서 계측**했다. 배치도는 운동장을 해치로 칠하므로 AL_D010 건물 선화에 맞춰 축척·평행이동을 역산(1.270 m/화소)한 뒤 해치영역을 실좌표로 읽었다. 위치는 도면대로지만 **래스터 계측 오차 ±3m** 가 남는다",
    "estimated": false
   }
  },
  {
   "type": "Feature",
   "geometry": {
    "type": "Point",
    "coordinates": [
     194362.269,
     547055.532
    ]
   },
   "properties": {
    "pid": "여의도초등학교 운동장-20",
    "school": "여의도초등학교",
    "jibun": "40-3",
    "kind": "운동장 지반",
    "dong": "여의도초등학교 운동장",
    "floor": 0,
    "z_m": 0.0,
    "normal_az": 180.0,
    "grade": "A-",
    "근거등급": "A− 도면기준(대응·제원 추론 포함)",
    "근거": "배치도 경계(래스터 계측) + 분석지점도 격자",
    "추정항목": "격자 수·방위는 옥외체육장 분석지점도대로(칸마다 1점), **경계는 학교 위치 배치도에서 계측**했다. 배치도는 운동장을 해치로 칠하므로 AL_D010 건물 선화에 맞춰 축척·평행이동을 역산(1.270 m/화소)한 뒤 해치영역을 실좌표로 읽었다. 위치는 도면대로지만 **래스터 계측 오차 ±3m** 가 남는다",
    "estimated": false
   }
  },
  {
   "type": "Feature",
   "geometry": {
    "type": "Point",
    "coordinates": [
     194369.253,
     547060.988
    ]
   },
   "properties": {
    "pid": "여의도초등학교 운동장-21",
    "school": "여의도초등학교",
    "jibun": "40-3",
    "kind": "운동장 지반",
    "dong": "여의도초등학교 운동장",
    "floor": 0,
    "z_m": 0.0,
    "normal_az": 180.0,
    "grade": "A-",
    "근거등급": "A− 도면기준(대응·제원 추론 포함)",
    "근거": "배치도 경계(래스터 계측) + 분석지점도 격자",
    "추정항목": "격자 수·방위는 옥외체육장 분석지점도대로(칸마다 1점), **경계는 학교 위치 배치도에서 계측**했다. 배치도는 운동장을 해치로 칠하므로 AL_D010 건물 선화에 맞춰 축척·평행이동을 역산(1.270 m/화소)한 뒤 해치영역을 실좌표로 읽었다. 위치는 도면대로지만 **래스터 계측 오차 ±3m** 가 남는다",
    "estimated": false
   }
  },
  {
   "type": "Feature",
   "geometry": {
    "type": "Point",
    "coordinates": [
     194376.237,
     547066.444
    ]
   },
   "properties": {
    "pid": "여의도초등학교 운동장-22",
    "school": "여의도초등학교",
    "jibun": "40-3",
    "kind": "운동장 지반",
    "dong": "여의도초등학교 운동장",
    "floor": 0,
    "z_m": 0.0,
    "normal_az": 180.0,
    "grade": "A-",
    "근거등급": "A− 도면기준(대응·제원 추론 포함)",
    "근거": "배치도 경계(래스터 계측) + 분석지점도 격자",
    "추정항목": "격자 수·방위는 옥외체육장 분석지점도대로(칸마다 1점), **경계는 학교 위치 배치도에서 계측**했다. 배치도는 운동장을 해치로 칠하므로 AL_D010 건물 선화에 맞춰 축척·평행이동을 역산(1.270 m/화소)한 뒤 해치영역을 실좌표로 읽었다. 위치는 도면대로지만 **래스터 계측 오차 ±3m** 가 남는다",
    "estimated": false
   }
  },
  {
   "type": "Feature",
   "geometry": {
    "type": "Point",
    "coordinates": [
     194383.22,
     547071.901
    ]
   },
   "properties": {
    "pid": "여의도초등학교 운동장-23",
    "school": "여의도초등학교",
    "jibun": "40-3",
    "kind": "운동장 지반",
    "dong": "여의도초등학교 운동장",
    "floor": 0,
    "z_m": 0.0,
    "normal_az": 180.0,
    "grade": "A-",
    "근거등급": "A− 도면기준(대응·제원 추론 포함)",
    "근거": "배치도 경계(래스터 계측) + 분석지점도 격자",
    "추정항목": "격자 수·방위는 옥외체육장 분석지점도대로(칸마다 1점), **경계는 학교 위치 배치도에서 계측**했다. 배치도는 운동장을 해치로 칠하므로 AL_D010 건물 선화에 맞춰 축척·평행이동을 역산(1.270 m/화소)한 뒤 해치영역을 실좌표로 읽었다. 위치는 도면대로지만 **래스터 계측 오차 ±3m** 가 남는다",
    "estimated": false
   }
  },
  {
   "type": "Feature",
   "geometry": {
    "type": "Point",
    "coordinates": [
     194390.204,
     547077.357
    ]
   },
   "properties": {
    "pid": "여의도초등학교 운동장-24",
    "school": "여의도초등학교",
    "jibun": "40-3",
    "kind": "운동장 지반",
    "dong": "여의도초등학교 운동장",
    "floor": 0,
    "z_m": 0.0,
    "normal_az": 180.0,
    "grade": "A-",
    "근거등급": "A− 도면기준(대응·제원 추론 포함)",
    "근거": "배치도 경계(래스터 계측) + 분석지점도 격자",
    "추정항목": "격자 수·방위는 옥외체육장 분석지점도대로(칸마다 1점), **경계는 학교 위치 배치도에서 계측**했다. 배치도는 운동장을 해치로 칠하므로 AL_D010 건물 선화에 맞춰 축척·평행이동을 역산(1.270 m/화소)한 뒤 해치영역을 실좌표로 읽었다. 위치는 도면대로지만 **래스터 계측 오차 ±3m** 가 남는다",
    "estimated": false
   }
  },
  {
   "type": "Feature",
   "geometry": {
    "type": "Point",
    "coordinates": [
     194346.904,
     547032.013
    ]
   },
   "properties": {
    "pid": "여의도초등학교 운동장-25",
    "school": "여의도초등학교",
    "jibun": "40-3",
    "kind": "운동장 지반",
    "dong": "여의도초등학교 운동장",
    "floor": 0,
    "z_m": 0.0,
    "normal_az": 180.0,
    "grade": "A-",
    "근거등급": "A− 도면기준(대응·제원 추론 포함)",
    "근거": "배치도 경계(래스터 계측) + 분석지점도 격자",
    "추정항목": "격자 수·방위는 옥외체육장 분석지점도대로(칸마다 1점), **경계는 학교 위치 배치도에서 계측**했다. 배치도는 운동장을 해치로 칠하므로 AL_D010 건물 선화에 맞춰 축척·평행이동을 역산(1.270 m/화소)한 뒤 해치영역을 실좌표로 읽었다. 위치는 도면대로지만 **래스터 계측 오차 ±3m** 가 남는다",
    "estimated": false
   }
  },
  {
   "type": "Feature",
   "geometry": {
    "type": "Point",
    "coordinates": [
     194353.888,
     547037.469
    ]
   },
   "properties": {
    "pid": "여의도초등학교 운동장-26",
    "school": "여의도초등학교",
    "jibun": "40-3",
    "kind": "운동장 지반",
    "dong": "여의도초등학교 운동장",
    "floor": 0,
    "z_m": 0.0,
    "normal_az": 180.0,
    "grade": "A-",
    "근거등급": "A− 도면기준(대응·제원 추론 포함)",
    "근거": "배치도 경계(래스터 계측) + 분석지점도 격자",
    "추정항목": "격자 수·방위는 옥외체육장 분석지점도대로(칸마다 1점), **경계는 학교 위치 배치도에서 계측**했다. 배치도는 운동장을 해치로 칠하므로 AL_D010 건물 선화에 맞춰 축척·평행이동을 역산(1.270 m/화소)한 뒤 해치영역을 실좌표로 읽었다. 위치는 도면대로지만 **래스터 계측 오차 ±3m** 가 남는다",
    "estimated": false
   }
  },
  {
   "type": "Feature",
   "geometry": {
    "type": "Point",
    "coordinates": [
     194360.872,
     547042.926
    ]
   },
   "properties": {
    "pid": "여의도초등학교 운동장-27",
    "school": "여의도초등학교",
    "jibun": "40-3",
    "kind": "운동장 지반",
    "dong": "여의도초등학교 운동장",
    "floor": 0,
    "z_m": 0.0,
    "normal_az": 180.0,
    "grade": "A-",
    "근거등급": "A− 도면기준(대응·제원 추론 포함)",
    "근거": "배치도 경계(래스터 계측) + 분석지점도 격자",
    "추정항목": "격자 수·방위는 옥외체육장 분석지점도대로(칸마다 1점), **경계는 학교 위치 배치도에서 계측**했다. 배치도는 운동장을 해치로 칠하므로 AL_D010 건물 선화에 맞춰 축척·평행이동을 역산(1.270 m/화소)한 뒤 해치영역을 실좌표로 읽었다. 위치는 도면대로지만 **래스터 계측 오차 ±3m** 가 남는다",
    "estimated": false
   }
  },
  {
   "type": "Feature",
   "geometry": {
    "type": "Point",
    "coordinates": [
     194367.855,
     547048.382
    ]
   },
   "properties": {
    "pid": "여의도초등학교 운동장-28",
    "school": "여의도초등학교",
    "jibun": "40-3",
    "kind": "운동장 지반",
    "dong": "여의도초등학교 운동장",
    "floor": 0,
    "z_m": 0.0,
    "normal_az": 180.0,
    "grade": "A-",
    "근거등급": "A− 도면기준(대응·제원 추론 포함)",
    "근거": "배치도 경계(래스터 계측) + 분석지점도 격자",
    "추정항목": "격자 수·방위는 옥외체육장 분석지점도대로(칸마다 1점), **경계는 학교 위치 배치도에서 계측**했다. 배치도는 운동장을 해치로 칠하므로 AL_D010 건물 선화에 맞춰 축척·평행이동을 역산(1.270 m/화소)한 뒤 해치영역을 실좌표로 읽었다. 위치는 도면대로지만 **래스터 계측 오차 ±3m** 가 남는다",
    "estimated": false
   }
  },
  {
   "type": "Feature",
   "geometry": {
    "type": "Point",
    "coordinates": [
     194374.839,
     547053.838
    ]
   },
   "properties": {
    "pid": "여의도초등학교 운동장-29",
    "school": "여의도초등학교",
    "jibun": "40-3",
    "kind": "운동장 지반",
    "dong": "여의도초등학교 운동장",
    "floor": 0,
    "z_m": 0.0,
    "normal_az": 180.0,
    "grade": "A-",
    "근거등급": "A− 도면기준(대응·제원 추론 포함)",
    "근거": "배치도 경계(래스터 계측) + 분석지점도 격자",
    "추정항목": "격자 수·방위는 옥외체육장 분석지점도대로(칸마다 1점), **경계는 학교 위치 배치도에서 계측**했다. 배치도는 운동장을 해치로 칠하므로 AL_D010 건물 선화에 맞춰 축척·평행이동을 역산(1.270 m/화소)한 뒤 해치영역을 실좌표로 읽었다. 위치는 도면대로지만 **래스터 계측 오차 ±3m** 가 남는다",
    "estimated": false
   }
  },
  {
   "type": "Feature",
   "geometry": {
    "type": "Point",
    "coordinates": [
     194381.823,
     547059.294
    ]
   },
   "properties": {
    "pid": "여의도초등학교 운동장-30",
    "school": "여의도초등학교",
    "jibun": "40-3",
    "kind": "운동장 지반",
    "dong": "여의도초등학교 운동장",
    "floor": 0,
    "z_m": 0.0,
    "normal_az": 180.0,
    "grade": "A-",
    "근거등급": "A− 도면기준(대응·제원 추론 포함)",
    "근거": "배치도 경계(래스터 계측) + 분석지점도 격자",
    "추정항목": "격자 수·방위는 옥외체육장 분석지점도대로(칸마다 1점), **경계는 학교 위치 배치도에서 계측**했다. 배치도는 운동장을 해치로 칠하므로 AL_D010 건물 선화에 맞춰 축척·평행이동을 역산(1.270 m/화소)한 뒤 해치영역을 실좌표로 읽었다. 위치는 도면대로지만 **래스터 계측 오차 ±3m** 가 남는다",
    "estimated": false
   }
  },
  {
   "type": "Feature",
   "geometry": {
    "type": "Point",
    "coordinates": [
     194388.806,
     547064.751
    ]
   },
   "properties": {
    "pid": "여의도초등학교 운동장-31",
    "school": "여의도초등학교",
    "jibun": "40-3",
    "kind": "운동장 지반",
    "dong": "여의도초등학교 운동장",
    "floor": 0,
    "z_m": 0.0,
    "normal_az": 180.0,
    "grade": "A-",
    "근거등급": "A− 도면기준(대응·제원 추론 포함)",
    "근거": "배치도 경계(래스터 계측) + 분석지점도 격자",
    "추정항목": "격자 수·방위는 옥외체육장 분석지점도대로(칸마다 1점), **경계는 학교 위치 배치도에서 계측**했다. 배치도는 운동장을 해치로 칠하므로 AL_D010 건물 선화에 맞춰 축척·평행이동을 역산(1.270 m/화소)한 뒤 해치영역을 실좌표로 읽었다. 위치는 도면대로지만 **래스터 계측 오차 ±3m** 가 남는다",
    "estimated": false
   }
  },
  {
   "type": "Feature",
   "geometry": {
    "type": "Point",
    "coordinates": [
     194395.79,
     547070.207
    ]
   },
   "properties": {
    "pid": "여의도초등학교 운동장-32",
    "school": "여의도초등학교",
    "jibun": "40-3",
    "kind": "운동장 지반",
    "dong": "여의도초등학교 운동장",
    "floor": 0,
    "z_m": 0.0,
    "normal_az": 180.0,
    "grade": "A-",
    "근거등급": "A− 도면기준(대응·제원 추론 포함)",
    "근거": "배치도 경계(래스터 계측) + 분석지점도 격자",
    "추정항목": "격자 수·방위는 옥외체육장 분석지점도대로(칸마다 1점), **경계는 학교 위치 배치도에서 계측**했다. 배치도는 운동장을 해치로 칠하므로 AL_D010 건물 선화에 맞춰 축척·평행이동을 역산(1.270 m/화소)한 뒤 해치영역을 실좌표로 읽었다. 위치는 도면대로지만 **래스터 계측 오차 ±3m** 가 남는다",
    "estimated": false
   }
  },
  {
   "type": "Feature",
   "geometry": {
    "type": "Point",
    "coordinates": [
     194352.49,
     547024.863
    ]
   },
   "properties": {
    "pid": "여의도초등학교 운동장-33",
    "school": "여의도초등학교",
    "jibun": "40-3",
    "kind": "운동장 지반",
    "dong": "여의도초등학교 운동장",
    "floor": 0,
    "z_m": 0.0,
    "normal_az": 180.0,
    "grade": "A-",
    "근거등급": "A− 도면기준(대응·제원 추론 포함)",
    "근거": "배치도 경계(래스터 계측) + 분석지점도 격자",
    "추정항목": "격자 수·방위는 옥외체육장 분석지점도대로(칸마다 1점), **경계는 학교 위치 배치도에서 계측**했다. 배치도는 운동장을 해치로 칠하므로 AL_D010 건물 선화에 맞춰 축척·평행이동을 역산(1.270 m/화소)한 뒤 해치영역을 실좌표로 읽었다. 위치는 도면대로지만 **래스터 계측 오차 ±3m** 가 남는다",
    "estimated": false
   }
  },
  {
   "type": "Feature",
   "geometry": {
    "type": "Point",
    "coordinates": [
     194359.474,
     547030.319
    ]
   },
   "properties": {
    "pid": "여의도초등학교 운동장-34",
    "school": "여의도초등학교",
    "jibun": "40-3",
    "kind": "운동장 지반",
    "dong": "여의도초등학교 운동장",
    "floor": 0,
    "z_m": 0.0,
    "normal_az": 180.0,
    "grade": "A-",
    "근거등급": "A− 도면기준(대응·제원 추론 포함)",
    "근거": "배치도 경계(래스터 계측) + 분석지점도 격자",
    "추정항목": "격자 수·방위는 옥외체육장 분석지점도대로(칸마다 1점), **경계는 학교 위치 배치도에서 계측**했다. 배치도는 운동장을 해치로 칠하므로 AL_D010 건물 선화에 맞춰 축척·평행이동을 역산(1.270 m/화소)한 뒤 해치영역을 실좌표로 읽었다. 위치는 도면대로지만 **래스터 계측 오차 ±3m** 가 남는다",
    "estimated": false
   }
  },
  {
   "type": "Feature",
   "geometry": {
    "type": "Point",
    "coordinates": [
     194366.458,
     547035.776
    ]
   },
   "properties": {
    "pid": "여의도초등학교 운동장-35",
    "school": "여의도초등학교",
    "jibun": "40-3",
    "kind": "운동장 지반",
    "dong": "여의도초등학교 운동장",
    "floor": 0,
    "z_m": 0.0,
    "normal_az": 180.0,
    "grade": "A-",
    "근거등급": "A− 도면기준(대응·제원 추론 포함)",
    "근거": "배치도 경계(래스터 계측) + 분석지점도 격자",
    "추정항목": "격자 수·방위는 옥외체육장 분석지점도대로(칸마다 1점), **경계는 학교 위치 배치도에서 계측**했다. 배치도는 운동장을 해치로 칠하므로 AL_D010 건물 선화에 맞춰 축척·평행이동을 역산(1.270 m/화소)한 뒤 해치영역을 실좌표로 읽었다. 위치는 도면대로지만 **래스터 계측 오차 ±3m** 가 남는다",
    "estimated": false
   }
  },
  {
   "type": "Feature",
   "geometry": {
    "type": "Point",
    "coordinates": [
     194373.441,
     547041.232
    ]
   },
   "properties": {
    "pid": "여의도초등학교 운동장-36",
    "school": "여의도초등학교",
    "jibun": "40-3",
    "kind": "운동장 지반",
    "dong": "여의도초등학교 운동장",
    "floor": 0,
    "z_m": 0.0,
    "normal_az": 180.0,
    "grade": "A-",
    "근거등급": "A− 도면기준(대응·제원 추론 포함)",
    "근거": "배치도 경계(래스터 계측) + 분석지점도 격자",
    "추정항목": "격자 수·방위는 옥외체육장 분석지점도대로(칸마다 1점), **경계는 학교 위치 배치도에서 계측**했다. 배치도는 운동장을 해치로 칠하므로 AL_D010 건물 선화에 맞춰 축척·평행이동을 역산(1.270 m/화소)한 뒤 해치영역을 실좌표로 읽었다. 위치는 도면대로지만 **래스터 계측 오차 ±3m** 가 남는다",
    "estimated": false
   }
  },
  {
   "type": "Feature",
   "geometry": {
    "type": "Point",
    "coordinates": [
     194380.425,
     547046.688
    ]
   },
   "properties": {
    "pid": "여의도초등학교 운동장-37",
    "school": "여의도초등학교",
    "jibun": "40-3",
    "kind": "운동장 지반",
    "dong": "여의도초등학교 운동장",
    "floor": 0,
    "z_m": 0.0,
    "normal_az": 180.0,
    "grade": "A-",
    "근거등급": "A− 도면기준(대응·제원 추론 포함)",
    "근거": "배치도 경계(래스터 계측) + 분석지점도 격자",
    "추정항목": "격자 수·방위는 옥외체육장 분석지점도대로(칸마다 1점), **경계는 학교 위치 배치도에서 계측**했다. 배치도는 운동장을 해치로 칠하므로 AL_D010 건물 선화에 맞춰 축척·평행이동을 역산(1.270 m/화소)한 뒤 해치영역을 실좌표로 읽었다. 위치는 도면대로지만 **래스터 계측 오차 ±3m** 가 남는다",
    "estimated": false
   }
  },
  {
   "type": "Feature",
   "geometry": {
    "type": "Point",
    "coordinates": [
     194387.409,
     547052.144
    ]
   },
   "properties": {
    "pid": "여의도초등학교 운동장-38",
    "school": "여의도초등학교",
    "jibun": "40-3",
    "kind": "운동장 지반",
    "dong": "여의도초등학교 운동장",
    "floor": 0,
    "z_m": 0.0,
    "normal_az": 180.0,
    "grade": "A-",
    "근거등급": "A− 도면기준(대응·제원 추론 포함)",
    "근거": "배치도 경계(래스터 계측) + 분석지점도 격자",
    "추정항목": "격자 수·방위는 옥외체육장 분석지점도대로(칸마다 1점), **경계는 학교 위치 배치도에서 계측**했다. 배치도는 운동장을 해치로 칠하므로 AL_D010 건물 선화에 맞춰 축척·평행이동을 역산(1.270 m/화소)한 뒤 해치영역을 실좌표로 읽었다. 위치는 도면대로지만 **래스터 계측 오차 ±3m** 가 남는다",
    "estimated": false
   }
  },
  {
   "type": "Feature",
   "geometry": {
    "type": "Point",
    "coordinates": [
     194394.393,
     547057.601
    ]
   },
   "properties": {
    "pid": "여의도초등학교 운동장-39",
    "school": "여의도초등학교",
    "jibun": "40-3",
    "kind": "운동장 지반",
    "dong": "여의도초등학교 운동장",
    "floor": 0,
    "z_m": 0.0,
    "normal_az": 180.0,
    "grade": "A-",
    "근거등급": "A− 도면기준(대응·제원 추론 포함)",
    "근거": "배치도 경계(래스터 계측) + 분석지점도 격자",
    "추정항목": "격자 수·방위는 옥외체육장 분석지점도대로(칸마다 1점), **경계는 학교 위치 배치도에서 계측**했다. 배치도는 운동장을 해치로 칠하므로 AL_D010 건물 선화에 맞춰 축척·평행이동을 역산(1.270 m/화소)한 뒤 해치영역을 실좌표로 읽었다. 위치는 도면대로지만 **래스터 계측 오차 ±3m** 가 남는다",
    "estimated": false
   }
  },
  {
   "type": "Feature",
   "geometry": {
    "type": "Point",
    "coordinates": [
     194401.376,
     547063.057
    ]
   },
   "properties": {
    "pid": "여의도초등학교 운동장-40",
    "school": "여의도초등학교",
    "jibun": "40-3",
    "kind": "운동장 지반",
    "dong": "여의도초등학교 운동장",
    "floor": 0,
    "z_m": 0.0,
    "normal_az": 180.0,
    "grade": "A-",
    "근거등급": "A− 도면기준(대응·제원 추론 포함)",
    "근거": "배치도 경계(래스터 계측) + 분석지점도 격자",
    "추정항목": "격자 수·방위는 옥외체육장 분석지점도대로(칸마다 1점), **경계는 학교 위치 배치도에서 계측**했다. 배치도는 운동장을 해치로 칠하므로 AL_D010 건물 선화에 맞춰 축척·평행이동을 역산(1.270 m/화소)한 뒤 해치영역을 실좌표로 읽었다. 위치는 도면대로지만 **래스터 계측 오차 ±3m** 가 남는다",
    "estimated": false
   }
  },
  {
   "type": "Feature",
   "geometry": {
    "type": "Point",
    "coordinates": [
     194358.077,
     547017.713
    ]
   },
   "properties": {
    "pid": "여의도초등학교 운동장-41",
    "school": "여의도초등학교",
    "jibun": "40-3",
    "kind": "운동장 지반",
    "dong": "여의도초등학교 운동장",
    "floor": 0,
    "z_m": 0.0,
    "normal_az": 180.0,
    "grade": "A-",
    "근거등급": "A− 도면기준(대응·제원 추론 포함)",
    "근거": "배치도 경계(래스터 계측) + 분석지점도 격자",
    "추정항목": "격자 수·방위는 옥외체육장 분석지점도대로(칸마다 1점), **경계는 학교 위치 배치도에서 계측**했다. 배치도는 운동장을 해치로 칠하므로 AL_D010 건물 선화에 맞춰 축척·평행이동을 역산(1.270 m/화소)한 뒤 해치영역을 실좌표로 읽었다. 위치는 도면대로지만 **래스터 계측 오차 ±3m** 가 남는다",
    "estimated": false
   }
  },
  {
   "type": "Feature",
   "geometry": {
    "type": "Point",
    "coordinates": [
     194365.06,
     547023.169
    ]
   },
   "properties": {
    "pid": "여의도초등학교 운동장-42",
    "school": "여의도초등학교",
    "jibun": "40-3",
    "kind": "운동장 지반",
    "dong": "여의도초등학교 운동장",
    "floor": 0,
    "z_m": 0.0,
    "normal_az": 180.0,
    "grade": "A-",
    "근거등급": "A− 도면기준(대응·제원 추론 포함)",
    "근거": "배치도 경계(래스터 계측) + 분석지점도 격자",
    "추정항목": "격자 수·방위는 옥외체육장 분석지점도대로(칸마다 1점), **경계는 학교 위치 배치도에서 계측**했다. 배치도는 운동장을 해치로 칠하므로 AL_D010 건물 선화에 맞춰 축척·평행이동을 역산(1.270 m/화소)한 뒤 해치영역을 실좌표로 읽었다. 위치는 도면대로지만 **래스터 계측 오차 ±3m** 가 남는다",
    "estimated": false
   }
  },
  {
   "type": "Feature",
   "geometry": {
    "type": "Point",
    "coordinates": [
     194372.044,
     547028.626
    ]
   },
   "properties": {
    "pid": "여의도초등학교 운동장-43",
    "school": "여의도초등학교",
    "jibun": "40-3",
    "kind": "운동장 지반",
    "dong": "여의도초등학교 운동장",
    "floor": 0,
    "z_m": 0.0,
    "normal_az": 180.0,
    "grade": "A-",
    "근거등급": "A− 도면기준(대응·제원 추론 포함)",
    "근거": "배치도 경계(래스터 계측) + 분석지점도 격자",
    "추정항목": "격자 수·방위는 옥외체육장 분석지점도대로(칸마다 1점), **경계는 학교 위치 배치도에서 계측**했다. 배치도는 운동장을 해치로 칠하므로 AL_D010 건물 선화에 맞춰 축척·평행이동을 역산(1.270 m/화소)한 뒤 해치영역을 실좌표로 읽었다. 위치는 도면대로지만 **래스터 계측 오차 ±3m** 가 남는다",
    "estimated": false
   }
  },
  {
   "type": "Feature",
   "geometry": {
    "type": "Point",
    "coordinates": [
     194379.028,
     547034.082
    ]
   },
   "properties": {
    "pid": "여의도초등학교 운동장-44",
    "school": "여의도초등학교",
    "jibun": "40-3",
    "kind": "운동장 지반",
    "dong": "여의도초등학교 운동장",
    "floor": 0,
    "z_m": 0.0,
    "normal_az": 180.0,
    "grade": "A-",
    "근거등급": "A− 도면기준(대응·제원 추론 포함)",
    "근거": "배치도 경계(래스터 계측) + 분석지점도 격자",
    "추정항목": "격자 수·방위는 옥외체육장 분석지점도대로(칸마다 1점), **경계는 학교 위치 배치도에서 계측**했다. 배치도는 운동장을 해치로 칠하므로 AL_D010 건물 선화에 맞춰 축척·평행이동을 역산(1.270 m/화소)한 뒤 해치영역을 실좌표로 읽었다. 위치는 도면대로지만 **래스터 계측 오차 ±3m** 가 남는다",
    "estimated": false
   }
  },
  {
   "type": "Feature",
   "geometry": {
    "type": "Point",
    "coordinates": [
     194386.011,
     547039.538
    ]
   },
   "properties": {
    "pid": "여의도초등학교 운동장-45",
    "school": "여의도초등학교",
    "jibun": "40-3",
    "kind": "운동장 지반",
    "dong": "여의도초등학교 운동장",
    "floor": 0,
    "z_m": 0.0,
    "normal_az": 180.0,
    "grade": "A-",
    "근거등급": "A− 도면기준(대응·제원 추론 포함)",
    "근거": "배치도 경계(래스터 계측) + 분석지점도 격자",
    "추정항목": "격자 수·방위는 옥외체육장 분석지점도대로(칸마다 1점), **경계는 학교 위치 배치도에서 계측**했다. 배치도는 운동장을 해치로 칠하므로 AL_D010 건물 선화에 맞춰 축척·평행이동을 역산(1.270 m/화소)한 뒤 해치영역을 실좌표로 읽었다. 위치는 도면대로지만 **래스터 계측 오차 ±3m** 가 남는다",
    "estimated": false
   }
  },
  {
   "type": "Feature",
   "geometry": {
    "type": "Point",
    "coordinates": [
     194392.995,
     547044.994
    ]
   },
   "properties": {
    "pid": "여의도초등학교 운동장-46",
    "school": "여의도초등학교",
    "jibun": "40-3",
    "kind": "운동장 지반",
    "dong": "여의도초등학교 운동장",
    "floor": 0,
    "z_m": 0.0,
    "normal_az": 180.0,
    "grade": "A-",
    "근거등급": "A− 도면기준(대응·제원 추론 포함)",
    "근거": "배치도 경계(래스터 계측) + 분석지점도 격자",
    "추정항목": "격자 수·방위는 옥외체육장 분석지점도대로(칸마다 1점), **경계는 학교 위치 배치도에서 계측**했다. 배치도는 운동장을 해치로 칠하므로 AL_D010 건물 선화에 맞춰 축척·평행이동을 역산(1.270 m/화소)한 뒤 해치영역을 실좌표로 읽었다. 위치는 도면대로지만 **래스터 계측 오차 ±3m** 가 남는다",
    "estimated": false
   }
  },
  {
   "type": "Feature",
   "geometry": {
    "type": "Point",
    "coordinates": [
     194399.979,
     547050.451
    ]
   },
   "properties": {
    "pid": "여의도초등학교 운동장-47",
    "school": "여의도초등학교",
    "jibun": "40-3",
    "kind": "운동장 지반",
    "dong": "여의도초등학교 운동장",
    "floor": 0,
    "z_m": 0.0,
    "normal_az": 180.0,
    "grade": "A-",
    "근거등급": "A− 도면기준(대응·제원 추론 포함)",
    "근거": "배치도 경계(래스터 계측) + 분석지점도 격자",
    "추정항목": "격자 수·방위는 옥외체육장 분석지점도대로(칸마다 1점), **경계는 학교 위치 배치도에서 계측**했다. 배치도는 운동장을 해치로 칠하므로 AL_D010 건물 선화에 맞춰 축척·평행이동을 역산(1.270 m/화소)한 뒤 해치영역을 실좌표로 읽었다. 위치는 도면대로지만 **래스터 계측 오차 ±3m** 가 남는다",
    "estimated": false
   }
  },
  {
   "type": "Feature",
   "geometry": {
    "type": "Point",
    "coordinates": [
     194406.963,
     547055.907
    ]
   },
   "properties": {
    "pid": "여의도초등학교 운동장-48",
    "school": "여의도초등학교",
    "jibun": "40-3",
    "kind": "운동장 지반",
    "dong": "여의도초등학교 운동장",
    "floor": 0,
    "z_m": 0.0,
    "normal_az": 180.0,
    "grade": "A-",
    "근거등급": "A− 도면기준(대응·제원 추론 포함)",
    "근거": "배치도 경계(래스터 계측) + 분석지점도 격자",
    "추정항목": "격자 수·방위는 옥외체육장 분석지점도대로(칸마다 1점), **경계는 학교 위치 배치도에서 계측**했다. 배치도는 운동장을 해치로 칠하므로 AL_D010 건물 선화에 맞춰 축척·평행이동을 역산(1.270 m/화소)한 뒤 해치영역을 실좌표로 읽었다. 위치는 도면대로지만 **래스터 계측 오차 ±3m** 가 남는다",
    "estimated": false
   }
  },
  {
   "type": "Feature",
   "geometry": {
    "type": "Point",
    "coordinates": [
     194363.663,
     547010.563
    ]
   },
   "properties": {
    "pid": "여의도초등학교 운동장-49",
    "school": "여의도초등학교",
    "jibun": "40-3",
    "kind": "운동장 지반",
    "dong": "여의도초등학교 운동장",
    "floor": 0,
    "z_m": 0.0,
    "normal_az": 180.0,
    "grade": "A-",
    "근거등급": "A− 도면기준(대응·제원 추론 포함)",
    "근거": "배치도 경계(래스터 계측) + 분석지점도 격자",
    "추정항목": "격자 수·방위는 옥외체육장 분석지점도대로(칸마다 1점), **경계는 학교 위치 배치도에서 계측**했다. 배치도는 운동장을 해치로 칠하므로 AL_D010 건물 선화에 맞춰 축척·평행이동을 역산(1.270 m/화소)한 뒤 해치영역을 실좌표로 읽었다. 위치는 도면대로지만 **래스터 계측 오차 ±3m** 가 남는다",
    "estimated": false
   }
  },
  {
   "type": "Feature",
   "geometry": {
    "type": "Point",
    "coordinates": [
     194370.646,
     547016.019
    ]
   },
   "properties": {
    "pid": "여의도초등학교 운동장-50",
    "school": "여의도초등학교",
    "jibun": "40-3",
    "kind": "운동장 지반",
    "dong": "여의도초등학교 운동장",
    "floor": 0,
    "z_m": 0.0,
    "normal_az": 180.0,
    "grade": "A-",
    "근거등급": "A− 도면기준(대응·제원 추론 포함)",
    "근거": "배치도 경계(래스터 계측) + 분석지점도 격자",
    "추정항목": "격자 수·방위는 옥외체육장 분석지점도대로(칸마다 1점), **경계는 학교 위치 배치도에서 계측**했다. 배치도는 운동장을 해치로 칠하므로 AL_D010 건물 선화에 맞춰 축척·평행이동을 역산(1.270 m/화소)한 뒤 해치영역을 실좌표로 읽었다. 위치는 도면대로지만 **래스터 계측 오차 ±3m** 가 남는다",
    "estimated": false
   }
  },
  {
   "type": "Feature",
   "geometry": {
    "type": "Point",
    "coordinates": [
     194377.63,
     547021.475
    ]
   },
   "properties": {
    "pid": "여의도초등학교 운동장-51",
    "school": "여의도초등학교",
    "jibun": "40-3",
    "kind": "운동장 지반",
    "dong": "여의도초등학교 운동장",
    "floor": 0,
    "z_m": 0.0,
    "normal_az": 180.0,
    "grade": "A-",
    "근거등급": "A− 도면기준(대응·제원 추론 포함)",
    "근거": "배치도 경계(래스터 계측) + 분석지점도 격자",
    "추정항목": "격자 수·방위는 옥외체육장 분석지점도대로(칸마다 1점), **경계는 학교 위치 배치도에서 계측**했다. 배치도는 운동장을 해치로 칠하므로 AL_D010 건물 선화에 맞춰 축척·평행이동을 역산(1.270 m/화소)한 뒤 해치영역을 실좌표로 읽었다. 위치는 도면대로지만 **래스터 계측 오차 ±3m** 가 남는다",
    "estimated": false
   }
  },
  {
   "type": "Feature",
   "geometry": {
    "type": "Point",
    "coordinates": [
     194384.614,
     547026.932
    ]
   },
   "properties": {
    "pid": "여의도초등학교 운동장-52",
    "school": "여의도초등학교",
    "jibun": "40-3",
    "kind": "운동장 지반",
    "dong": "여의도초등학교 운동장",
    "floor": 0,
    "z_m": 0.0,
    "normal_az": 180.0,
    "grade": "A-",
    "근거등급": "A− 도면기준(대응·제원 추론 포함)",
    "근거": "배치도 경계(래스터 계측) + 분석지점도 격자",
    "추정항목": "격자 수·방위는 옥외체육장 분석지점도대로(칸마다 1점), **경계는 학교 위치 배치도에서 계측**했다. 배치도는 운동장을 해치로 칠하므로 AL_D010 건물 선화에 맞춰 축척·평행이동을 역산(1.270 m/화소)한 뒤 해치영역을 실좌표로 읽었다. 위치는 도면대로지만 **래스터 계측 오차 ±3m** 가 남는다",
    "estimated": false
   }
  },
  {
   "type": "Feature",
   "geometry": {
    "type": "Point",
    "coordinates": [
     194391.598,
     547032.388
    ]
   },
   "properties": {
    "pid": "여의도초등학교 운동장-53",
    "school": "여의도초등학교",
    "jibun": "40-3",
    "kind": "운동장 지반",
    "dong": "여의도초등학교 운동장",
    "floor": 0,
    "z_m": 0.0,
    "normal_az": 180.0,
    "grade": "A-",
    "근거등급": "A− 도면기준(대응·제원 추론 포함)",
    "근거": "배치도 경계(래스터 계측) + 분석지점도 격자",
    "추정항목": "격자 수·방위는 옥외체육장 분석지점도대로(칸마다 1점), **경계는 학교 위치 배치도에서 계측**했다. 배치도는 운동장을 해치로 칠하므로 AL_D010 건물 선화에 맞춰 축척·평행이동을 역산(1.270 m/화소)한 뒤 해치영역을 실좌표로 읽었다. 위치는 도면대로지만 **래스터 계측 오차 ±3m** 가 남는다",
    "estimated": false
   }
  },
  {
   "type": "Feature",
   "geometry": {
    "type": "Point",
    "coordinates": [
     194398.581,
     547037.844
    ]
   },
   "properties": {
    "pid": "여의도초등학교 운동장-54",
    "school": "여의도초등학교",
    "jibun": "40-3",
    "kind": "운동장 지반",
    "dong": "여의도초등학교 운동장",
    "floor": 0,
    "z_m": 0.0,
    "normal_az": 180.0,
    "grade": "A-",
    "근거등급": "A− 도면기준(대응·제원 추론 포함)",
    "근거": "배치도 경계(래스터 계측) + 분석지점도 격자",
    "추정항목": "격자 수·방위는 옥외체육장 분석지점도대로(칸마다 1점), **경계는 학교 위치 배치도에서 계측**했다. 배치도는 운동장을 해치로 칠하므로 AL_D010 건물 선화에 맞춰 축척·평행이동을 역산(1.270 m/화소)한 뒤 해치영역을 실좌표로 읽었다. 위치는 도면대로지만 **래스터 계측 오차 ±3m** 가 남는다",
    "estimated": false
   }
  },
  {
   "type": "Feature",
   "geometry": {
    "type": "Point",
    "coordinates": [
     194405.565,
     547043.301
    ]
   },
   "properties": {
    "pid": "여의도초등학교 운동장-55",
    "school": "여의도초등학교",
    "jibun": "40-3",
    "kind": "운동장 지반",
    "dong": "여의도초등학교 운동장",
    "floor": 0,
    "z_m": 0.0,
    "normal_az": 180.0,
    "grade": "A-",
    "근거등급": "A− 도면기준(대응·제원 추론 포함)",
    "근거": "배치도 경계(래스터 계측) + 분석지점도 격자",
    "추정항목": "격자 수·방위는 옥외체육장 분석지점도대로(칸마다 1점), **경계는 학교 위치 배치도에서 계측**했다. 배치도는 운동장을 해치로 칠하므로 AL_D010 건물 선화에 맞춰 축척·평행이동을 역산(1.270 m/화소)한 뒤 해치영역을 실좌표로 읽었다. 위치는 도면대로지만 **래스터 계측 오차 ±3m** 가 남는다",
    "estimated": false
   }
  },
  {
   "type": "Feature",
   "geometry": {
    "type": "Point",
    "coordinates": [
     194412.549,
     547048.757
    ]
   },
   "properties": {
    "pid": "여의도초등학교 운동장-56",
    "school": "여의도초등학교",
    "jibun": "40-3",
    "kind": "운동장 지반",
    "dong": "여의도초등학교 운동장",
    "floor": 0,
    "z_m": 0.0,
    "normal_az": 180.0,
    "grade": "A-",
    "근거등급": "A− 도면기준(대응·제원 추론 포함)",
    "근거": "배치도 경계(래스터 계측) + 분석지점도 격자",
    "추정항목": "격자 수·방위는 옥외체육장 분석지점도대로(칸마다 1점), **경계는 학교 위치 배치도에서 계측**했다. 배치도는 운동장을 해치로 칠하므로 AL_D010 건물 선화에 맞춰 축척·평행이동을 역산(1.270 m/화소)한 뒤 해치영역을 실좌표로 읽었다. 위치는 도면대로지만 **래스터 계측 오차 ±3m** 가 남는다",
    "estimated": false
   }
  },
  {
   "type": "Feature",
   "geometry": {
    "type": "Point",
    "coordinates": [
     194369.249,
     547003.413
    ]
   },
   "properties": {
    "pid": "여의도초등학교 운동장-57",
    "school": "여의도초등학교",
    "jibun": "40-3",
    "kind": "운동장 지반",
    "dong": "여의도초등학교 운동장",
    "floor": 0,
    "z_m": 0.0,
    "normal_az": 180.0,
    "grade": "A-",
    "근거등급": "A− 도면기준(대응·제원 추론 포함)",
    "근거": "배치도 경계(래스터 계측) + 분석지점도 격자",
    "추정항목": "격자 수·방위는 옥외체육장 분석지점도대로(칸마다 1점), **경계는 학교 위치 배치도에서 계측**했다. 배치도는 운동장을 해치로 칠하므로 AL_D010 건물 선화에 맞춰 축척·평행이동을 역산(1.270 m/화소)한 뒤 해치영역을 실좌표로 읽었다. 위치는 도면대로지만 **래스터 계측 오차 ±3m** 가 남는다",
    "estimated": false
   }
  },
  {
   "type": "Feature",
   "geometry": {
    "type": "Point",
    "coordinates": [
     194376.233,
     547008.869
    ]
   },
   "properties": {
    "pid": "여의도초등학교 운동장-58",
    "school": "여의도초등학교",
    "jibun": "40-3",
    "kind": "운동장 지반",
    "dong": "여의도초등학교 운동장",
    "floor": 0,
    "z_m": 0.0,
    "normal_az": 180.0,
    "grade": "A-",
    "근거등급": "A− 도면기준(대응·제원 추론 포함)",
    "근거": "배치도 경계(래스터 계측) + 분석지점도 격자",
    "추정항목": "격자 수·방위는 옥외체육장 분석지점도대로(칸마다 1점), **경계는 학교 위치 배치도에서 계측**했다. 배치도는 운동장을 해치로 칠하므로 AL_D010 건물 선화에 맞춰 축척·평행이동을 역산(1.270 m/화소)한 뒤 해치영역을 실좌표로 읽었다. 위치는 도면대로지만 **래스터 계측 오차 ±3m** 가 남는다",
    "estimated": false
   }
  },
  {
   "type": "Feature",
   "geometry": {
    "type": "Point",
    "coordinates": [
     194383.216,
     547014.325
    ]
   },
   "properties": {
    "pid": "여의도초등학교 운동장-59",
    "school": "여의도초등학교",
    "jibun": "40-3",
    "kind": "운동장 지반",
    "dong": "여의도초등학교 운동장",
    "floor": 0,
    "z_m": 0.0,
    "normal_az": 180.0,
    "grade": "A-",
    "근거등급": "A− 도면기준(대응·제원 추론 포함)",
    "근거": "배치도 경계(래스터 계측) + 분석지점도 격자",
    "추정항목": "격자 수·방위는 옥외체육장 분석지점도대로(칸마다 1점), **경계는 학교 위치 배치도에서 계측**했다. 배치도는 운동장을 해치로 칠하므로 AL_D010 건물 선화에 맞춰 축척·평행이동을 역산(1.270 m/화소)한 뒤 해치영역을 실좌표로 읽었다. 위치는 도면대로지만 **래스터 계측 오차 ±3m** 가 남는다",
    "estimated": false
   }
  },
  {
   "type": "Feature",
   "geometry": {
    "type": "Point",
    "coordinates": [
     194390.2,
     547019.782
    ]
   },
   "properties": {
    "pid": "여의도초등학교 운동장-60",
    "school": "여의도초등학교",
    "jibun": "40-3",
    "kind": "운동장 지반",
    "dong": "여의도초등학교 운동장",
    "floor": 0,
    "z_m": 0.0,
    "normal_az": 180.0,
    "grade": "A-",
    "근거등급": "A− 도면기준(대응·제원 추론 포함)",
    "근거": "배치도 경계(래스터 계측) + 분석지점도 격자",
    "추정항목": "격자 수·방위는 옥외체육장 분석지점도대로(칸마다 1점), **경계는 학교 위치 배치도에서 계측**했다. 배치도는 운동장을 해치로 칠하므로 AL_D010 건물 선화에 맞춰 축척·평행이동을 역산(1.270 m/화소)한 뒤 해치영역을 실좌표로 읽었다. 위치는 도면대로지만 **래스터 계측 오차 ±3m** 가 남는다",
    "estimated": false
   }
  },
  {
   "type": "Feature",
   "geometry": {
    "type": "Point",
    "coordinates": [
     194397.184,
     547025.238
    ]
   },
   "properties": {
    "pid": "여의도초등학교 운동장-61",
    "school": "여의도초등학교",
    "jibun": "40-3",
    "kind": "운동장 지반",
    "dong": "여의도초등학교 운동장",
    "floor": 0,
    "z_m": 0.0,
    "normal_az": 180.0,
    "grade": "A-",
    "근거등급": "A− 도면기준(대응·제원 추론 포함)",
    "근거": "배치도 경계(래스터 계측) + 분석지점도 격자",
    "추정항목": "격자 수·방위는 옥외체육장 분석지점도대로(칸마다 1점), **경계는 학교 위치 배치도에서 계측**했다. 배치도는 운동장을 해치로 칠하므로 AL_D010 건물 선화에 맞춰 축척·평행이동을 역산(1.270 m/화소)한 뒤 해치영역을 실좌표로 읽었다. 위치는 도면대로지만 **래스터 계측 오차 ±3m** 가 남는다",
    "estimated": false
   }
  },
  {
   "type": "Feature",
   "geometry": {
    "type": "Point",
    "coordinates": [
     194404.168,
     547030.694
    ]
   },
   "properties": {
    "pid": "여의도초등학교 운동장-62",
    "school": "여의도초등학교",
    "jibun": "40-3",
    "kind": "운동장 지반",
    "dong": "여의도초등학교 운동장",
    "floor": 0,
    "z_m": 0.0,
    "normal_az": 180.0,
    "grade": "A-",
    "근거등급": "A− 도면기준(대응·제원 추론 포함)",
    "근거": "배치도 경계(래스터 계측) + 분석지점도 격자",
    "추정항목": "격자 수·방위는 옥외체육장 분석지점도대로(칸마다 1점), **경계는 학교 위치 배치도에서 계측**했다. 배치도는 운동장을 해치로 칠하므로 AL_D010 건물 선화에 맞춰 축척·평행이동을 역산(1.270 m/화소)한 뒤 해치영역을 실좌표로 읽었다. 위치는 도면대로지만 **래스터 계측 오차 ±3m** 가 남는다",
    "estimated": false
   }
  },
  {
   "type": "Feature",
   "geometry": {
    "type": "Point",
    "coordinates": [
     194411.151,
     547036.151
    ]
   },
   "properties": {
    "pid": "여의도초등학교 운동장-63",
    "school": "여의도초등학교",
    "jibun": "40-3",
    "kind": "운동장 지반",
    "dong": "여의도초등학교 운동장",
    "floor": 0,
    "z_m": 0.0,
    "normal_az": 180.0,
    "grade": "A-",
    "근거등급": "A− 도면기준(대응·제원 추론 포함)",
    "근거": "배치도 경계(래스터 계측) + 분석지점도 격자",
    "추정항목": "격자 수·방위는 옥외체육장 분석지점도대로(칸마다 1점), **경계는 학교 위치 배치도에서 계측**했다. 배치도는 운동장을 해치로 칠하므로 AL_D010 건물 선화에 맞춰 축척·평행이동을 역산(1.270 m/화소)한 뒤 해치영역을 실좌표로 읽었다. 위치는 도면대로지만 **래스터 계측 오차 ±3m** 가 남는다",
    "estimated": false
   }
  },
  {
   "type": "Feature",
   "geometry": {
    "type": "Point",
    "coordinates": [
     194418.135,
     547041.607
    ]
   },
   "properties": {
    "pid": "여의도초등학교 운동장-64",
    "school": "여의도초등학교",
    "jibun": "40-3",
    "kind": "운동장 지반",
    "dong": "여의도초등학교 운동장",
    "floor": 0,
    "z_m": 0.0,
    "normal_az": 180.0,
    "grade": "A-",
    "근거등급": "A− 도면기준(대응·제원 추론 포함)",
    "근거": "배치도 경계(래스터 계측) + 분석지점도 격자",
    "추정항목": "격자 수·방위는 옥외체육장 분석지점도대로(칸마다 1점), **경계는 학교 위치 배치도에서 계측**했다. 배치도는 운동장을 해치로 칠하므로 AL_D010 건물 선화에 맞춰 축척·평행이동을 역산(1.270 m/화소)한 뒤 해치영역을 실좌표로 읽었다. 위치는 도면대로지만 **래스터 계측 오차 ±3m** 가 남는다",
    "estimated": false
   }
  }
 ],
 "crs": {
  "type": "name",
  "properties": {
   "name": "urn:ogc:def:crs:EPSG::5186"
  }
 }
}