{
 "type": "FeatureCollection",
 "features": [
  {
   "type": "Feature",
   "geometry": {
    "type": "Polygon",
    "coordinates": [
     [
      [
       194067.777,
       547302.132
      ],
      [
       194059.777,
       547302.132
      ],
      [
       194059.777,
       547310.132
      ],
      [
       194059.777,
       547318.132
      ],
      [
       194059.777,
       547326.132
      ],
      [
       194059.777,
       547334.132
      ],
      [
       194067.777,
       547334.132
      ],
      [
       194067.777,
       547342.132
      ],
      [
       194067.777,
       547350.132
      ],
      [
       194075.777,
       547350.132
      ],
      [
       194083.777,
       547350.132
      ],
      [
       194083.777,
       547342.132
      ],
      [
       194083.777,
       547334.132
      ],
      [
       194083.777,
       547326.132
      ],
      [
       194091.777,
       547326.132
      ],
      [
       194091.777,
       547334.132
      ],
      [
       194099.777,
       547334.132
      ],
      [
       194099.777,
       547342.132
      ],
      [
       194107.777,
       547342.132
      ],
      [
       194115.777,
       547342.132
      ],
      [
       194115.777,
       547350.132
      ],
      [
       194115.777,
       547358.132
      ],
      [
       194107.777,
       547358.132
      ],
      [
       194099.777,
       547358.132
      ],
      [
       194099.777,
       547366.132
      ],
      [
       194107.777,
       547366.132
      ],
      [
       194107.777,
       547374.132
      ],
      [
       194115.777,
       547374.132
      ],
      [
       194115.777,
       547382.132
      ],
      [
       194115.777,
       547390.132
      ],
      [
       194123.777,
       547390.132
      ],
      [
       194131.777,
       547390.132
      ],
      [
       194139.777,
       547390.132
      ],
      [
       194147.777,
       547390.132
      ],
      [
       194147.777,
       547382.132
      ],
      [
       194155.777,
       547382.132
      ],
      [
       194163.777,
       547382.132
      ],
      [
       194171.777,
       547382.132
      ],
      [
       194179.777,
       547382.132
      ],
      [
       194187.777,
       547382.132
      ],
      [
       194195.777,
       547382.132
      ],
      [
       194203.777,
       547382.132
      ],
      [
       194203.777,
       547374.132
      ],
      [
       194203.777,
       547366.132
      ],
      [
       194211.777,
       547366.132
      ],
      [
       194219.777,
       547366.132
      ],
      [
       194219.777,
       547358.132
      ],
      [
       194227.777,
       547358.132
      ],
      [
       194227.777,
       547350.132
      ],
      [
       194227.777,
       547342.132
      ],
      [
       194235.777,
       547342.132
      ],
      [
       194235.777,
       547334.132
      ],
      [
       194243.777,
       547334.132
      ],
      [
       194251.777,
       547334.132
      ],
      [
       194251.777,
       547326.132
      ],
      [
       194259.777,
       547326.132
      ],
      [
       194267.777,
       547326.132
      ],
      [
       194267.777,
       547318.132
      ],
      [
       194275.777,
       547318.132
      ],
      [
       194275.777,
       547310.132
      ],
      [
       194275.777,
       547302.132
      ],
      [
       194275.777,
       547294.132
      ],
      [
       194275.777,
       547286.132
      ],
      [
       194275.777,
       547278.132
      ],
      [
       194275.777,
       547270.132
      ],
      [
       194275.777,
       547262.132
      ],
      [
       194267.777,
       547262.132
      ],
      [
       194267.777,
       547254.132
      ],
      [
       194267.777,
       547246.132
      ],
      [
       194259.777,
       547246.132
      ],
      [
       194259.777,
       547238.132
      ],
      [
       194251.777,
       547238.132
      ],
      [
       194251.777,
       547230.132
      ],
      [
       194243.777,
       547230.132
      ],
      [
       194243.777,
       547222.132
      ],
      [
       194243.777,
       547214.132
      ],
      [
       194243.777,
       547206.132
      ],
      [
       194243.777,
       547198.132
      ],
      [
       194235.777,
       547198.132
      ],
      [
       194235.777,
       547190.132
      ],
      [
       194235.777,
       547182.132
      ],
      [
       194227.777,
       547182.132
      ],
      [
       194219.777,
       547182.132
      ],
      [
       194219.777,
       547190.132
      ],
      [
       194211.777,
       547190.132
      ],
      [
       194203.777,
       547190.132
      ],
      [
       194195.777,
       547190.132
      ],
      [
       194187.777,
       547190.132
      ],
      [
       194179.777,
       547190.132
      ],
      [
       194179.777,
       547182.132
      ],
      [
       194171.777,
       547182.132
      ],
      [
       194163.777,
       547182.132
      ],
      [
       194155.777,
       547182.132
      ],
      [
       194147.777,
       547182.132
      ],
      [
       194139.777,
       547182.132
      ],
      [
       194139.777,
       547190.132
      ],
      [
       194131.777,
       547190.132
      ],
      [
       194131.777,
       547198.132
      ],
      [
       194131.777,
       547206.132
      ],
      [
       194131.777,
       547214.132
      ],
      [
       194123.777,
       547214.132
      ],
      [
       194123.777,
       547222.132
      ],
      [
       194123.777,
       547230.132
      ],
      [
       194123.777,
       547238.132
      ],
      [
       194123.777,
       547246.132
      ],
      [
       194123.777,
       547254.132
      ],
      [
       194123.777,
       547262.132
      ],
      [
       194123.777,
       547270.132
      ],
      [
       194115.777,
       547270.132
      ],
      [
       194115.777,
       547278.132
      ],
      [
       194107.777,
       547278.132
      ],
      [
       194099.777,
       547278.132
      ],
      [
       194099.777,
       547286.132
      ],
      [
       194091.777,
       547286.132
      ],
      [
       194083.777,
       547286.132
      ],
      [
       194083.777,
       547294.132
      ],
      [
       194075.777,
       547294.132
      ],
      [
       194067.777,
       547294.132
      ],
      [
       194067.777,
       547302.132
      ]
     ],
     [
      [
       194155.777,
       547334.132
      ],
      [
       194155.777,
       547342.132
      ],
      [
       194147.777,
       547342.132
      ],
      [
       194147.777,
       547350.132
      ],
      [
       194139.777,
       547350.132
      ],
      [
       194139.777,
       547358.132
      ],
      [
       194131.777,
       547358.132
      ],
      [
       194131.777,
       547366.132
      ],
      [
       194123.777,
       547366.132
      ],
      [
       194123.777,
       547358.132
      ],
      [
       194123.777,
       547350.132
      ],
      [
       194131.777,
       547350.132
      ],
      [
       194131.777,
       547342.132
      ],
      [
       194131.777,
       547334.132
      ],
      [
       194139.777,
       547334.132
      ],
      [
       194139.777,
       547326.132
      ],
      [
       194147.777,
       547326.132
      ],
      [
       194147.777,
       547318.132
      ],
      [
       194155.777,
       547318.132
      ],
      [
       194155.777,
       547310.132
      ],
      [
       194155.777,
       547302.132
      ],
      [
       194155.777,
       547294.132
      ],
      [
       194163.777,
       547294.132
      ],
      [
       194171.777,
       547294.132
      ],
      [
       194171.777,
       547286.132
      ],
      [
       194179.777,
       547286.132
      ],
      [
       194179.777,
       547278.132
      ],
      [
       194187.777,
       547278.132
      ],
      [
       194187.777,
       547270.132
      ],
      [
       194187.777,
       547262.132
      ],
      [
       194195.777,
       547262.132
      ],
      [
       194195.777,
       547254.132
      ],
      [
       194203.777,
       547254.132
      ],
      [
       194203.777,
       547246.132
      ],
      [
       194195.777,
       547246.132
      ],
      [
       194195.777,
       547238.132
      ],
      [
       194195.777,
       547230.132
      ],
      [
       194203.777,
       547230.132
      ],
      [
       194203.777,
       547222.132
      ],
      [
       194211.777,
       547222.132
      ],
      [
       194211.777,
       547230.132
      ],
      [
       194219.777,
       547230.132
      ],
      [
       194219.777,
       547238.132
      ],
      [
       194227.777,
       547238.132
      ],
      [
       194227.777,
       547246.132
      ],
      [
       194235.777,
       547246.132
      ],
      [
       194243.777,
       547246.132
      ],
      [
       194243.777,
       547254.132
      ],
      [
       194243.777,
       547262.132
      ],
      [
       194235.777,
       547262.132
      ],
      [
       194235.777,
       547270.132
      ],
      [
       194235.777,
       547278.132
      ],
      [
       194227.777,
       547278.132
      ],
      [
       194219.777,
       547278.132
      ],
      [
       194219.777,
       547270.132
      ],
      [
       194211.777,
       547270.132
      ],
      [
       194203.777,
       547270.132
      ],
      [
       194203.777,
       547278.132
      ],
      [
       194203.777,
       547286.132
      ],
      [
       194195.777,
       547286.132
      ],
      [
       194187.777,
       547286.132
      ],
      [
       194187.777,
       547294.132
      ],
      [
       194187.777,
       547302.132
      ],
      [
       194187.777,
       547310.132
      ],
      [
       194179.777,
       547310.132
      ],
      [
       194179.777,
       547318.132
      ],
      [
       194171.777,
       547318.132
      ],
      [
       194171.777,
       547326.132
      ],
      [
       194163.777,
       547326.132
      ],
      [
       194163.777,
       547334.132
      ],
      [
       194155.777,
       547334.132
      ]
     ],
     [
      [
       194179.777,
       547230.132
      ],
      [
       194179.777,
       547238.132
      ],
      [
       194171.777,
       547238.132
      ],
      [
       194171.777,
       547230.132
      ],
      [
       194163.777,
       547230.132
      ],
      [
       194163.777,
       547222.132
      ],
      [
       194155.777,
       547222.132
      ],
      [
       194155.777,
       547214.132
      ],
      [
       194155.777,
       547206.132
      ],
      [
       194163.777,
       547206.132
      ],
      [
       194171.777,
       547206.132
      ],
      [
       194179.777,
       547206.132
      ],
      [
       194179.777,
       547214.132
      ],
      [
       194187.777,
       547214.132
      ],
      [
       194187.777,
       547222.132
      ],
      [
       194187.777,
       547230.132
      ],
      [
       194179.777,
       547230.132
      ]
     ],
     [
      [
       194195.777,
       547302.132
      ],
      [
       194203.777,
       547302.132
      ],
      [
       194203.777,
       547310.132
      ],
      [
       194195.777,
       547310.132
      ],
      [
       194195.777,
       547302.132
      ]
     ]
    ]
   },
   "properties": {
    "label": "여의도고등학교 운동장",
    "kind": "운동장(근사 영역)"
   }
  },
  {
   "type": "Feature",
   "geometry": {
    "type": "Polygon",
    "coordinates": [
     [
      [
       194083.777,
       547358.132
      ],
      [
       194091.777,
       547358.132
      ],
      [
       194099.777,
       547358.132
      ],
      [
       194099.777,
       547350.132
      ],
      [
       194091.777,
       547350.132
      ],
      [
       194083.777,
       547350.132
      ],
      [
       194083.777,
       547358.132
      ]
     ]
    ]
   },
   "properties": {
    "label": "여의도고등학교 운동장",
    "kind": "운동장(근사 영역)"
   }
  },
  {
   "type": "Feature",
   "geometry": {
    "type": "Polygon",
    "coordinates": [
     [
      [
       194204.88,
       547183.94
      ],
      [
       194276.75,
       547091.95
      ],
      [
       194325.47,
       547130.01
      ],
      [
       194253.6,
       547222.0
      ],
      [
       194204.88,
       547183.94
      ]
     ]
    ]
   },
   "properties": {
    "label": "여의도중학교 운동장",
    "kind": "운동장(근사 영역)"
   }
  },
  {
   "type": "Feature",
   "geometry": {
    "type": "Polygon",
    "coordinates": [
     [
      [
       194197.21,
       547004.32
      ],
      [
       194230.85,
       546961.26
      ],
      [
       194293.11,
       547009.9
      ],
      [
       194259.47,
       547052.96
      ],
      [
       194197.21,
       547004.32
      ]
     ]
    ]
   },
   "properties": {
    "label": "여의도여자고등학교 운동장",
    "kind": "운동장(근사 영역)"
   }
  },
  {
   "type": "Feature",
   "geometry": {
    "type": "Polygon",
    "coordinates": [
     [
      [
       194323.87,
       547054.31
      ],
      [
       194368.55,
       546997.11
      ],
      [
       194424.42,
       547040.76
      ],
      [
       194379.73,
       547097.96
      ],
      [
       194323.87,
       547054.31
      ]
     ]
    ]
   },
   "properties": {
    "label": "여의도초등학교 운동장",
    "kind": "운동장(근사 영역)"
   }
  }
 ],
 "crs": {
  "type": "name",
  "properties": {
   "name": "urn:ogc:def:crs:EPSG::5186"
  }
 }
}