{
 "type": "FeatureCollection",
 "features": [
  {
   "type": "Feature",
   "geometry": {
    "type": "Polygon",
    "coordinates": [
     [
      [
       126.93289044,
       37.52517965
      ],
      [
       126.93358193,
       37.52447572
      ],
      [
       126.93416218,
       37.52483726
      ],
      [
       126.93347057,
       37.52554119
      ],
      [
       126.93289044,
       37.52517965
      ]
     ]
    ]
   },
   "properties": {
    "label": "여의도고등학교 운동장",
    "kind": "운동장(근사 영역)"
   }
  },
  {
   "type": "Feature",
   "geometry": {
    "type": "Polygon",
    "coordinates": [
     [
      [
       126.93444211,
       37.52412707
      ],
      [
       126.93525586,
       37.52329868
      ],
      [
       126.93580671,
       37.52364191
      ],
      [
       126.93499296,
       37.52447029
      ],
      [
       126.93444211,
       37.52412707
      ]
     ]
    ]
   },
   "properties": {
    "label": "여의도중학교 운동장",
    "kind": "운동장(근사 영역)"
   }
  },
  {
   "type": "Feature",
   "geometry": {
    "type": "Polygon",
    "coordinates": [
     [
      [
       126.93435676,
       37.52250864
      ],
      [
       126.93473765,
       37.52212088
      ],
      [
       126.93544157,
       37.52255951
      ],
      [
       126.93506069,
       37.52294728
      ],
      [
       126.93435676,
       37.52250864
      ]
     ]
    ]
   },
   "properties": {
    "label": "여의도여자고등학교 운동장",
    "kind": "운동장(근사 영역)"
   }
  },
  {
   "type": "Feature",
   "geometry": {
    "type": "Polygon",
    "coordinates": [
     [
      [
       126.9357892,
       37.52295984
      ],
      [
       126.93629508,
       37.52244474
      ],
      [
       126.93692677,
       37.52283836
      ],
      [
       126.93642078,
       37.52335347
      ],
      [
       126.9357892,
       37.52295984
      ]
     ]
    ]
   },
   "properties": {
    "label": "여의도초등학교 운동장",
    "kind": "운동장(근사 영역)"
   }
  }
 ]
}