{
 "type": "FeatureCollection",
 "crs": {
  "type": "name",
  "properties": {
   "name": "urn:ogc:def:crs:EPSG::5186"
  }
 },
 "features": [
  {
   "type": "Feature",
   "geometry": {
    "type": "Polygon",
    "coordinates": [
     [
      [
       194319.29299493253,
       546935.8148909383
      ],
      [
       194337.2405375419,
       546946.1769094951
      ],
      [
       194319.1070050675,
       546977.5851090616
      ],
      [
       194301.15946245813,
       546967.2230905048
      ],
      [
       194319.29299493253,
       546935.8148909383
      ]
     ]
    ]
   },
   "properties": {
    "label": "화랑 1동",
    "floors": 50,
    "height_m": 151.5,
    "plate_m2": 751.6,
    "top_elev_m": 164.8
   }
  },
  {
   "type": "Feature",
   "geometry": {
    "type": "Polygon",
    "coordinates": [
     [
      [
       194278.05443044423,
       546892.4920860021
      ],
      [
       194230.97058833847,
       546952.8418800812
      ],
      [
       194327.74268022715,
       547028.3417548352
      ],
      [
       194374.8265223329,
       546967.9919607561
      ],
      [
       194278.05443044423,
       546892.4920860021
      ]
     ]
    ]
   },
   "properties": {
    "label": "화랑 대지",
    "area_m2": 9395.0
   }
  },
  {
   "type": "Feature",
   "geometry": {
    "type": "Polygon",
    "coordinates": [
     [
      [
       194278.57436472367,
       546896.7027472738
      ],
      [
       194235.1812496103,
       546952.3219458018
      ],
      [
       194327.2227459477,
       547024.1310935635
      ],
      [
       194370.6158610611,
       546968.5118950355
      ],
      [
       194278.57436472367,
       546896.7027472738
      ]
     ]
    ]
   },
   "properties": {
    "label": "이격선 3m"
   }
  }
 ]
}