{
 "type": "FeatureCollection",
 "features": [
  {
   "type": "Feature",
   "geometry": {
    "type": "Polygon",
    "coordinates": [
     [
      [
       126.93587959,
       37.52234002
      ],
      [
       126.93605908,
       37.52245171
      ],
      [
       126.93584726,
       37.52266766
      ],
      [
       126.93566777,
       37.52255598
      ],
      [
       126.93587959,
       37.52234002
      ]
     ]
    ]
   },
   "properties": {
    "label": "타워1 외형선",
    "kind": "타워1 외형선",
    "height_m": 70.0
   }
  },
  {
   "type": "Feature",
   "geometry": {
    "type": "Polygon",
    "coordinates": [
     [
      [
       126.93611929,
       37.52209568
      ],
      [
       126.93629877,
       37.52220736
      ],
      [
       126.93608695,
       37.52242332
      ],
      [
       126.93590746,
       37.52231162
      ],
      [
       126.93611929,
       37.52209568
      ]
     ]
    ]
   },
   "properties": {
    "label": "타워2 외형선",
    "kind": "타워2 외형선",
    "height_m": 70.0
   }
  },
  {
   "type": "Feature",
   "geometry": {
    "type": "Polygon",
    "coordinates": [
     [
      [
       126.93501844,
       37.52180414
      ],
      [
       126.93519792,
       37.52191583
      ],
      [
       126.93498609,
       37.52213178
      ],
      [
       126.9348066,
       37.52202009
      ],
      [
       126.93501844,
       37.52180414
      ]
     ]
    ]
   },
   "properties": {
    "label": "타워3 외형선",
    "kind": "타워3 외형선",
    "height_m": 70.0
   }
  },
  {
   "type": "Feature",
   "geometry": {
    "type": "Polygon",
    "coordinates": [
     [
      [
       126.93525812,
       37.52155979
      ],
      [
       126.93543761,
       37.52167148
      ],
      [
       126.93522578,
       37.52188744
      ],
      [
       126.9350463,
       37.52177574
      ],
      [
       126.93525812,
       37.52155979
      ]
     ]
    ]
   },
   "properties": {
    "label": "타워4 외형선",
    "kind": "타워4 외형선",
    "height_m": 70.0
   }
  },
  {
   "type": "Feature",
   "geometry": {
    "type": "Polygon",
    "coordinates": [
     [
      [
       126.93527217,
       37.52150157
      ],
      [
       126.93473908,
       37.52204503
      ],
      [
       126.93583321,
       37.52272589
      ],
      [
       126.93636631,
       37.52218242
      ],
      [
       126.93527217,
       37.52150157
      ]
     ]
    ]
   },
   "properties": {
    "label": "화랑 대지",
    "kind": "대지",
    "area_m2": 9395
   }
  }
 ]
}