{
 "type": "FeatureCollection",
 "features": [
  {
   "type": "Feature",
   "geometry": {
    "type": "Polygon",
    "coordinates": [
     [
      [
       194331.814,
       546985.513
      ],
      [
       194347.689,
       546997.898
      ],
      [
       194328.98,
       547021.879
      ],
      [
       194313.105,
       547009.494
      ],
      [
       194331.814,
       546985.513
      ]
     ]
    ]
   },
   "properties": {
    "label": "타워1 외형선",
    "kind": "타워1 외형선",
    "height_m": 70.0
   }
  },
  {
   "type": "Feature",
   "geometry": {
    "type": "Polygon",
    "coordinates": [
     [
      [
       194352.984,
       546958.379
      ],
      [
       194368.859,
       546970.764
      ],
      [
       194350.15,
       546994.745
      ],
      [
       194334.275,
       546982.359
      ],
      [
       194352.984,
       546958.379
      ]
     ]
    ]
   },
   "properties": {
    "label": "타워2 외형선",
    "kind": "타워2 외형선",
    "height_m": 70.0
   }
  },
  {
   "type": "Feature",
   "geometry": {
    "type": "Polygon",
    "coordinates": [
     [
      [
       194255.648,
       546926.089
      ],
      [
       194271.522,
       546938.474
      ],
      [
       194252.813,
       546962.455
      ],
      [
       194236.938,
       546950.07
      ],
      [
       194255.648,
       546926.089
      ]
     ]
    ]
   },
   "properties": {
    "label": "타워3 외형선",
    "kind": "타워3 외형선",
    "height_m": 70.0
   }
  },
  {
   "type": "Feature",
   "geometry": {
    "type": "Polygon",
    "coordinates": [
     [
      [
       194276.817,
       546898.955
      ],
      [
       194292.692,
       546911.34
      ],
      [
       194273.983,
       546935.321
      ],
      [
       194258.108,
       546922.935
      ],
      [
       194276.817,
       546898.955
      ]
     ]
    ]
   },
   "properties": {
    "label": "타워4 외형선",
    "kind": "타워4 외형선",
    "height_m": 70.0
   }
  },
  {
   "type": "Feature",
   "geometry": {
    "type": "Polygon",
    "coordinates": [
     [
      [
       194278.054,
       546892.492
      ],
      [
       194230.971,
       546952.842
      ],
      [
       194327.743,
       547028.342
      ],
      [
       194374.827,
       546967.992
      ],
      [
       194278.054,
       546892.492
      ]
     ]
    ]
   },
   "properties": {
    "label": "화랑 대지",
    "kind": "대지",
    "area_m2": 9395
   }
  }
 ],
 "crs": {
  "type": "name",
  "properties": {
   "name": "urn:ogc:def:crs:EPSG::5186"
  }
 }
}