{
 "type": "FeatureCollection",
 "features": [
  {
   "type": "Feature",
   "geometry": {
    "type": "Polygon",
    "coordinates": [
     [
      [
       126.93524125,
       37.52197998
      ],
      [
       126.93509334,
       37.5221685
      ],
      [
       126.93485663,
       37.5220507
      ],
      [
       126.93500455,
       37.52186217
      ],
      [
       126.93524125,
       37.52197998
      ]
     ]
    ]
   },
   "properties": {
    "label": "타워1 외형선",
    "kind": "타워1 외형선",
    "height_m": 70.0
   }
  },
  {
   "type": "Feature",
   "geometry": {
    "type": "Polygon",
    "coordinates": [
     [
      [
       126.93541313,
       37.52176088
      ],
      [
       126.93526523,
       37.52194941
      ],
      [
       126.93502852,
       37.52183161
      ],
      [
       126.93517644,
       37.52164307
      ],
      [
       126.93541313,
       37.52176088
      ]
     ]
    ]
   },
   "properties": {
    "label": "타워2 외형선",
    "kind": "타워2 외형선",
    "height_m": 70.0
   }
  },
  {
   "type": "Feature",
   "geometry": {
    "type": "Polygon",
    "coordinates": [
     [
      [
       126.93607686,
       37.52239585
      ],
      [
       126.93592895,
       37.52258438
      ],
      [
       126.93569224,
       37.52246658
      ],
      [
       126.93584015,
       37.52227805
      ],
      [
       126.93607686,
       37.52239585
      ]
     ]
    ]
   },
   "properties": {
    "label": "타워3 외형선",
    "kind": "타워3 외형선",
    "height_m": 70.0
   }
  },
  {
   "type": "Feature",
   "geometry": {
    "type": "Polygon",
    "coordinates": [
     [
      [
       126.93624874,
       37.52217675
      ],
      [
       126.93610083,
       37.52236529
      ],
      [
       126.93586413,
       37.52224748
      ],
      [
       126.93601203,
       37.52205895
      ],
      [
       126.93624874,
       37.52217675
      ]
     ]
    ]
   },
   "properties": {
    "label": "타워4 외형선",
    "kind": "타워4 외형선",
    "height_m": 70.0
   }
  },
  {
   "type": "Feature",
   "geometry": {
    "type": "Polygon",
    "coordinates": [
     [
      [
       126.93527217,
       37.52150157
      ],
      [
       126.93473908,
       37.52204503
      ],
      [
       126.93583321,
       37.52272589
      ],
      [
       126.93636631,
       37.52218242
      ],
      [
       126.93527217,
       37.52150157
      ]
     ]
    ]
   },
   "properties": {
    "label": "화랑 대지",
    "kind": "대지",
    "area_m2": 9395
   }
  }
 ]
}