{
 "type": "FeatureCollection",
 "features": [
  {
   "type": "Feature",
   "geometry": {
    "type": "Polygon",
    "coordinates": [
     [
      [
       194275.357,
       546945.591
      ],
      [
       194262.297,
       546966.524
      ],
      [
       194241.363,
       546953.464
      ],
      [
       194254.424,
       546932.53
      ],
      [
       194275.357,
       546945.591
      ]
     ]
    ]
   },
   "properties": {
    "label": "타워1 외형선",
    "kind": "타워1 외형선",
    "height_m": 70.0
   }
  },
  {
   "type": "Feature",
   "geometry": {
    "type": "Polygon",
    "coordinates": [
     [
      [
       194290.535,
       546921.264
      ],
      [
       194277.475,
       546942.197
      ],
      [
       194256.541,
       546929.137
      ],
      [
       194269.602,
       546908.203
      ],
      [
       194290.535,
       546921.264
      ]
     ]
    ]
   },
   "properties": {
    "label": "타워2 외형선",
    "kind": "타워2 외형선",
    "height_m": 70.0
   }
  },
  {
   "type": "Feature",
   "geometry": {
    "type": "Polygon",
    "coordinates": [
     [
      [
       194349.256,
       546991.697
      ],
      [
       194336.195,
       547012.631
      ],
      [
       194315.262,
       546999.57
      ],
      [
       194328.322,
       546978.637
      ],
      [
       194349.256,
       546991.697
      ]
     ]
    ]
   },
   "properties": {
    "label": "타워3 외형선",
    "kind": "타워3 외형선",
    "height_m": 70.0
   }
  },
  {
   "type": "Feature",
   "geometry": {
    "type": "Polygon",
    "coordinates": [
     [
      [
       194364.434,
       546967.37
      ],
      [
       194351.373,
       546988.304
      ],
      [
       194330.44,
       546975.243
      ],
      [
       194343.5,
       546954.309
      ],
      [
       194364.434,
       546967.37
      ]
     ]
    ]
   },
   "properties": {
    "label": "타워4 외형선",
    "kind": "타워4 외형선",
    "height_m": 70.0
   }
  },
  {
   "type": "Feature",
   "geometry": {
    "type": "Polygon",
    "coordinates": [
     [
      [
       194278.054,
       546892.492
      ],
      [
       194230.971,
       546952.842
      ],
      [
       194327.743,
       547028.342
      ],
      [
       194374.827,
       546967.992
      ],
      [
       194278.054,
       546892.492
      ]
     ]
    ]
   },
   "properties": {
    "label": "화랑 대지",
    "kind": "대지",
    "area_m2": 9395
   }
  }
 ],
 "crs": {
  "type": "name",
  "properties": {
   "name": "urn:ogc:def:crs:EPSG::5186"
  }
 }
}