{
 "type": "FeatureCollection",
 "features": [
  {
   "type": "Feature",
   "geometry": {
    "type": "Polygon",
    "coordinates": [
     [
      [
       126.93517019,
       37.5216592
      ],
      [
       126.93532198,
       37.52172912
      ],
      [
       126.93512802,
       37.52199628
      ],
      [
       126.93497622,
       37.52192636
      ],
      [
       126.93517019,
       37.5216592
      ]
     ]
    ]
   },
   "properties": {
    "label": "타워1 외형선",
    "kind": "타워1 외형선",
    "height_m": 136.75
   }
  },
  {
   "type": "Feature",
   "geometry": {
    "type": "Polygon",
    "coordinates": [
     [
      [
       126.93627005,
       37.52220334
      ],
      [
       126.93593769,
       37.52254216
      ],
      [
       126.93511363,
       37.52202937
      ],
      [
       126.935446,
       37.52169055
      ],
      [
       126.93627005,
       37.52220334
      ]
     ]
    ]
   },
   "properties": {
    "label": "저층부 외형선",
    "kind": "저층부 외형선",
    "height_m": 14.75
   }
  },
  {
   "type": "Feature",
   "geometry": {
    "type": "Polygon",
    "coordinates": [
     [
      [
       126.93527217,
       37.52150157
      ],
      [
       126.93473908,
       37.52204503
      ],
      [
       126.93583321,
       37.52272589
      ],
      [
       126.93636631,
       37.52218242
      ],
      [
       126.93527217,
       37.52150157
      ]
     ]
    ]
   },
   "properties": {
    "label": "화랑 대지",
    "kind": "대지",
    "area_m2": 9395
   }
  }
 ]
}