{
 "type": "FeatureCollection",
 "features": [
  {
   "type": "Feature",
   "geometry": {
    "type": "Polygon",
    "coordinates": [
     [
      [
       126.9356822,
       37.52184522
      ],
      [
       126.93582621,
       37.52189166
      ],
      [
       126.93567677,
       37.52218565
      ],
      [
       126.93553276,
       37.52213922
      ],
      [
       126.9356822,
       37.52184522
      ]
     ]
    ]
   },
   "properties": {
    "label": "타워1 외형선",
    "kind": "타워1 외형선",
    "height_m": 122.0
   }
  },
  {
   "type": "Feature",
   "geometry": {
    "type": "Polygon",
    "coordinates": [
     [
      [
       126.93579517,
       37.52202548
      ],
      [
       126.93593918,
       37.52207192
      ],
      [
       126.93578974,
       37.52236591
      ],
      [
       126.93564573,
       37.52231948
      ],
      [
       126.93579517,
       37.52202548
      ]
     ]
    ]
   },
   "properties": {
    "label": "타워2 외형선",
    "kind": "타워2 외형선",
    "height_m": 122.0
   }
  },
  {
   "type": "Feature",
   "geometry": {
    "type": "Polygon",
    "coordinates": [
     [
      [
       126.93627009,
       37.5221673
      ],
      [
       126.93593772,
       37.52250612
      ],
      [
       126.93511367,
       37.52199333
      ],
      [
       126.93544603,
       37.52165451
      ],
      [
       126.93627009,
       37.5221673
      ]
     ]
    ]
   },
   "properties": {
    "label": "저층부 외형선",
    "kind": "저층부 외형선",
    "height_m": 8.85
   }
  },
  {
   "type": "Feature",
   "geometry": {
    "type": "Polygon",
    "coordinates": [
     [
      [
       126.93527217,
       37.52150157
      ],
      [
       126.93473908,
       37.52204503
      ],
      [
       126.93583321,
       37.52272589
      ],
      [
       126.93636631,
       37.52218242
      ],
      [
       126.93527217,
       37.52150157
      ]
     ]
    ]
   },
   "properties": {
    "label": "화랑 대지",
    "kind": "대지",
    "area_m2": 9395
   }
  }
 ]
}