{
 "type": "FeatureCollection",
 "features": [
  {
   "type": "Feature",
   "geometry": {
    "type": "Polygon",
    "coordinates": [
     [
      [
       194267.594,
       546911.499
      ],
      [
       194281.478,
       546918.421
      ],
      [
       194257.806,
       546965.901
      ],
      [
       194243.922,
       546958.979
      ],
      [
       194267.594,
       546911.499
      ]
     ]
    ]
   },
   "properties": {
    "label": "타워1 외형선",
    "kind": "타워1 외형선",
    "height_m": 181.0
   }
  },
  {
   "type": "Feature",
   "geometry": {
    "type": "Polygon",
    "coordinates": [
     [
      [
       194278.054,
       546892.492
      ],
      [
       194230.971,
       546952.842
      ],
      [
       194327.743,
       547028.342
      ],
      [
       194374.827,
       546967.992
      ],
      [
       194278.054,
       546892.492
      ]
     ]
    ]
   },
   "properties": {
    "label": "화랑 대지",
    "kind": "대지",
    "area_m2": 9395
   }
  }
 ],
 "crs": {
  "type": "name",
  "properties": {
   "name": "urn:ogc:def:crs:EPSG::5186"
  }
 }
}