{
 "type": "FeatureCollection",
 "features": [
  {
   "type": "Feature",
   "geometry": {
    "type": "Point",
    "coordinates": [
     126.93359573,
     37.52454102
    ]
   },
   "properties": {
    "pid": "여의도고등학교 운동장-51",
    "school": "여의도고등학교",
    "kind": "운동장 지반",
    "dong": "여의도고등학교 운동장",
    "floor": 0,
    "source": "배치도 경계(래스터 계측) + 분석지점도 격자",
    "z_m": 0.0,
    "base_pass_a": true,
    "plan_pass_a": false,
    "total_h": 3.67,
    "cont_h": 1.17,
    "change_cd": "new_fail",
    "변화": "신규 불충족"
   }
  },
  {
   "type": "Feature",
   "geometry": {
    "type": "Point",
    "coordinates": [
     126.93540066,
     37.52326256
    ]
   },
   "properties": {
    "pid": "체육관동 부속(원형부) 4층-2",
    "school": "여의도중학교",
    "kind": "교사동 창면",
    "dong": "체육관동 부속(원형부)",
    "floor": 4,
    "source": "도면기준",
    "z_m": 13.15,
    "base_pass_a": true,
    "plan_pass_a": false,
    "total_h": 1.33,
    "cont_h": 1.17,
    "change_cd": "new_fail",
    "변화": "신규 불충족"
   }
  },
  {
   "type": "Feature",
   "geometry": {
    "type": "Point",
    "coordinates": [
     126.93560432,
     37.52377261
    ]
   },
   "properties": {
    "pid": "여의도중학교 운동장-3",
    "school": "여의도중학교",
    "kind": "운동장 지반",
    "dong": "여의도중학교 운동장",
    "floor": 0,
    "source": "배치도 경계(래스터 계측) + 분석지점도 격자",
    "z_m": 0.0,
    "base_pass_a": true,
    "plan_pass_a": false,
    "total_h": 2.5,
    "cont_h": 1.33,
    "change_cd": "new_fail",
    "변화": "신규 불충족"
   }
  },
  {
   "type": "Feature",
   "geometry": {
    "type": "Point",
    "coordinates": [
     126.93557512,
     37.52365168
    ]
   },
   "properties": {
    "pid": "여의도중학교 운동장-14",
    "school": "여의도중학교",
    "kind": "운동장 지반",
    "dong": "여의도중학교 운동장",
    "floor": 0,
    "source": "배치도 경계(래스터 계측) + 분석지점도 격자",
    "z_m": 0.0,
    "base_pass_a": true,
    "plan_pass_a": false,
    "total_h": 2.33,
    "cont_h": 1.83,
    "change_cd": "new_fail",
    "변화": "신규 불충족"
   }
  },
  {
   "type": "Feature",
   "geometry": {
    "type": "Point",
    "coordinates": [
     126.93526631,
     37.52366471
    ]
   },
   "properties": {
    "pid": "여의도중학교 운동장-41",
    "school": "여의도중학교",
    "kind": "운동장 지반",
    "dong": "여의도중학교 운동장",
    "floor": 0,
    "source": "배치도 경계(래스터 계측) + 분석지점도 격자",
    "z_m": 0.0,
    "base_pass_a": true,
    "plan_pass_a": false,
    "total_h": 3.0,
    "cont_h": 1.67,
    "change_cd": "new_fail",
    "변화": "신규 불충족"
   }
  },
  {
   "type": "Feature",
   "geometry": {
    "type": "Point",
    "coordinates": [
     126.9349575,
     37.52367774
    ]
   },
   "properties": {
    "pid": "여의도중학교 운동장-69",
    "school": "여의도중학교",
    "kind": "운동장 지반",
    "dong": "여의도중학교 운동장",
    "floor": 0,
    "source": "배치도 경계(래스터 계측) + 분석지점도 격자",
    "z_m": 0.0,
    "base_pass_a": true,
    "plan_pass_a": false,
    "total_h": 2.33,
    "cont_h": 1.0,
    "change_cd": "new_fail",
    "변화": "신규 불충족"
   }
  },
  {
   "type": "Feature",
   "geometry": {
    "type": "Point",
    "coordinates": [
     126.93440987,
     37.52261546
    ]
   },
   "properties": {
    "pid": "본관동 저층부(4층) 3층-1",
    "school": "여의도여자고등학교",
    "kind": "교사동 창면",
    "dong": "본관동 저층부(4층)",
    "floor": 3,
    "source": "도면기준",
    "z_m": 9.4,
    "base_pass_a": true,
    "plan_pass_a": false,
    "total_h": 3.0,
    "cont_h": 1.5,
    "change_cd": "new_fail",
    "변화": "신규 불충족"
   }
  },
  {
   "type": "Feature",
   "geometry": {
    "type": "Point",
    "coordinates": [
     126.93440987,
     37.52261546
    ]
   },
   "properties": {
    "pid": "본관동 저층부(4층) 4층-1",
    "school": "여의도여자고등학교",
    "kind": "교사동 창면",
    "dong": "본관동 저층부(4층)",
    "floor": 4,
    "source": "도면기준",
    "z_m": 13.1,
    "base_pass_a": true,
    "plan_pass_a": false,
    "total_h": 3.17,
    "cont_h": 1.5,
    "change_cd": "new_fail",
    "변화": "신규 불충족"
   }
  },
  {
   "type": "Feature",
   "geometry": {
    "type": "Point",
    "coordinates": [
     126.9344419,
     37.52263548
    ]
   },
   "properties": {
    "pid": "본관동 저층부(4층) 3층-2",
    "school": "여의도여자고등학교",
    "kind": "교사동 창면",
    "dong": "본관동 저층부(4층)",
    "floor": 3,
    "source": "도면기준",
    "z_m": 9.4,
    "base_pass_a": true,
    "plan_pass_a": false,
    "total_h": 3.33,
    "cont_h": 1.5,
    "change_cd": "new_fail",
    "변화": "신규 불충족"
   }
  },
  {
   "type": "Feature",
   "geometry": {
    "type": "Point",
    "coordinates": [
     126.9344419,
     37.52263548
    ]
   },
   "properties": {
    "pid": "본관동 저층부(4층) 4층-2",
    "school": "여의도여자고등학교",
    "kind": "교사동 창면",
    "dong": "본관동 저층부(4층)",
    "floor": 4,
    "source": "도면기준",
    "z_m": 13.1,
    "base_pass_a": true,
    "plan_pass_a": false,
    "total_h": 3.5,
    "cont_h": 1.5,
    "change_cd": "new_fail",
    "변화": "신규 불충족"
   }
  },
  {
   "type": "Feature",
   "geometry": {
    "type": "Point",
    "coordinates": [
     126.93448996,
     37.52266551
    ]
   },
   "properties": {
    "pid": "본관동 저층부(4층) 2층-1",
    "school": "여의도여자고등학교",
    "kind": "교사동 창면",
    "dong": "본관동 저층부(4층)",
    "floor": 2,
    "source": "도면기준",
    "z_m": 5.7,
    "base_pass_a": true,
    "plan_pass_a": false,
    "total_h": 3.17,
    "cont_h": 1.5,
    "change_cd": "new_fail",
    "변화": "신규 불충족"
   }
  },
  {
   "type": "Feature",
   "geometry": {
    "type": "Point",
    "coordinates": [
     126.93448996,
     37.52266551
    ]
   },
   "properties": {
    "pid": "본관동 저층부(4층) 3층-3",
    "school": "여의도여자고등학교",
    "kind": "교사동 창면",
    "dong": "본관동 저층부(4층)",
    "floor": 3,
    "source": "도면기준",
    "z_m": 9.4,
    "base_pass_a": true,
    "plan_pass_a": false,
    "total_h": 3.67,
    "cont_h": 1.5,
    "change_cd": "new_fail",
    "변화": "신규 불충족"
   }
  },
  {
   "type": "Feature",
   "geometry": {
    "type": "Point",
    "coordinates": [
     126.93448996,
     37.52266551
    ]
   },
   "properties": {
    "pid": "본관동 저층부(4층) 4층-3",
    "school": "여의도여자고등학교",
    "kind": "교사동 창면",
    "dong": "본관동 저층부(4층)",
    "floor": 4,
    "source": "도면기준",
    "z_m": 13.1,
    "base_pass_a": true,
    "plan_pass_a": false,
    "total_h": 3.67,
    "cont_h": 1.5,
    "change_cd": "new_fail",
    "변화": "신규 불충족"
   }
  },
  {
   "type": "Feature",
   "geometry": {
    "type": "Point",
    "coordinates": [
     126.93452199,
     37.52268554
    ]
   },
   "properties": {
    "pid": "본관동 저층부(4층) 2층-2",
    "school": "여의도여자고등학교",
    "kind": "교사동 창면",
    "dong": "본관동 저층부(4층)",
    "floor": 2,
    "source": "도면기준",
    "z_m": 5.7,
    "base_pass_a": true,
    "plan_pass_a": false,
    "total_h": 3.67,
    "cont_h": 1.33,
    "change_cd": "new_fail",
    "변화": "신규 불충족"
   }
  },
  {
   "type": "Feature",
   "geometry": {
    "type": "Point",
    "coordinates": [
     126.93457006,
     37.52271558
    ]
   },
   "properties": {
    "pid": "본관동 저층부(4층) 2층-3",
    "school": "여의도여자고등학교",
    "kind": "교사동 창면",
    "dong": "본관동 저층부(4층)",
    "floor": 2,
    "source": "도면기준",
    "z_m": 5.7,
    "base_pass_a": true,
    "plan_pass_a": false,
    "total_h": 3.83,
    "cont_h": 1.33,
    "change_cd": "new_fail",
    "변화": "신규 불충족"
   }
  },
  {
   "type": "Feature",
   "geometry": {
    "type": "Point",
    "coordinates": [
     126.93508143,
     37.52316416
    ]
   },
   "properties": {
    "pid": "여의도여자고등학교 ②(5층) 1층-1",
    "school": "여의도여자고등학교",
    "kind": "교사동 창면",
    "dong": "여의도여자고등학교 ②(5층)",
    "floor": 1,
    "source": "일반식",
    "z_m": 1.2,
    "base_pass_a": true,
    "plan_pass_a": false,
    "total_h": 2.33,
    "cont_h": 1.83,
    "change_cd": "new_fail",
    "변화": "신규 불충족"
   }
  },
  {
   "type": "Feature",
   "geometry": {
    "type": "Point",
    "coordinates": [
     126.93508143,
     37.52316416
    ]
   },
   "properties": {
    "pid": "여의도여자고등학교 ②(5층) 2층-1",
    "school": "여의도여자고등학교",
    "kind": "교사동 창면",
    "dong": "여의도여자고등학교 ②(5층)",
    "floor": 2,
    "source": "일반식",
    "z_m": 4.7,
    "base_pass_a": true,
    "plan_pass_a": false,
    "total_h": 2.33,
    "cont_h": 1.83,
    "change_cd": "new_fail",
    "변화": "신규 불충족"
   }
  },
  {
   "type": "Feature",
   "geometry": {
    "type": "Point",
    "coordinates": [
     126.93508143,
     37.52316416
    ]
   },
   "properties": {
    "pid": "여의도여자고등학교 ②(5층) 3층-1",
    "school": "여의도여자고등학교",
    "kind": "교사동 창면",
    "dong": "여의도여자고등학교 ②(5층)",
    "floor": 3,
    "source": "일반식",
    "z_m": 8.2,
    "base_pass_a": true,
    "plan_pass_a": false,
    "total_h": 2.33,
    "cont_h": 1.83,
    "change_cd": "new_fail",
    "변화": "신규 불충족"
   }
  },
  {
   "type": "Feature",
   "geometry": {
    "type": "Point",
    "coordinates": [
     126.93508143,
     37.52316416
    ]
   },
   "properties": {
    "pid": "여의도여자고등학교 ②(5층) 4층-1",
    "school": "여의도여자고등학교",
    "kind": "교사동 창면",
    "dong": "여의도여자고등학교 ②(5층)",
    "floor": 4,
    "source": "일반식",
    "z_m": 11.7,
    "base_pass_a": true,
    "plan_pass_a": false,
    "total_h": 2.33,
    "cont_h": 1.83,
    "change_cd": "new_fail",
    "변화": "신규 불충족"
   }
  },
  {
   "type": "Feature",
   "geometry": {
    "type": "Point",
    "coordinates": [
     126.93508143,
     37.52316416
    ]
   },
   "properties": {
    "pid": "여의도여자고등학교 ②(5층) 5층-1",
    "school": "여의도여자고등학교",
    "kind": "교사동 창면",
    "dong": "여의도여자고등학교 ②(5층)",
    "floor": 5,
    "source": "일반식",
    "z_m": 15.2,
    "base_pass_a": true,
    "plan_pass_a": false,
    "total_h": 3.0,
    "cont_h": 1.83,
    "change_cd": "new_fail",
    "변화": "신규 불충족"
   }
  },
  {
   "type": "Feature",
   "geometry": {
    "type": "Point",
    "coordinates": [
     126.93522037,
     37.52302071
    ]
   },
   "properties": {
    "pid": "여의도여자고등학교 ②(5층) 1층-5",
    "school": "여의도여자고등학교",
    "kind": "교사동 창면",
    "dong": "여의도여자고등학교 ②(5층)",
    "floor": 1,
    "source": "일반식",
    "z_m": 1.2,
    "base_pass_a": true,
    "plan_pass_a": false,
    "total_h": 2.0,
    "cont_h": 1.0,
    "change_cd": "new_fail",
    "변화": "신규 불충족"
   }
  },
  {
   "type": "Feature",
   "geometry": {
    "type": "Point",
    "coordinates": [
     126.93546295,
     37.52286802
    ]
   },
   "properties": {
    "pid": "여의도여자고등학교 ②(5층) 4층-12",
    "school": "여의도여자고등학교",
    "kind": "교사동 창면",
    "dong": "여의도여자고등학교 ②(5층)",
    "floor": 4,
    "source": "일반식",
    "z_m": 11.7,
    "base_pass_a": true,
    "plan_pass_a": false,
    "total_h": 1.67,
    "cont_h": 1.33,
    "change_cd": "new_fail",
    "변화": "신규 불충족"
   }
  },
  {
   "type": "Feature",
   "geometry": {
    "type": "Point",
    "coordinates": [
     126.93510188,
     37.52239992
    ]
   },
   "properties": {
    "pid": "여의도여자고등학교 운동장-19",
    "school": "여의도여자고등학교",
    "kind": "운동장 지반",
    "dong": "여의도여자고등학교 운동장",
    "floor": 0,
    "source": "배치도 경계(래스터 계측) + 분석지점도 격자",
    "z_m": 0.0,
    "base_pass_a": true,
    "plan_pass_a": false,
    "total_h": 1.83,
    "cont_h": 1.17,
    "change_cd": "new_fail",
    "변화": "신규 불충족"
   }
  },
  {
   "type": "Feature",
   "geometry": {
    "type": "Point",
    "coordinates": [
     126.93503839,
     37.52246455
    ]
   },
   "properties": {
    "pid": "여의도여자고등학교 운동장-20",
    "school": "여의도여자고등학교",
    "kind": "운동장 지반",
    "dong": "여의도여자고등학교 운동장",
    "floor": 0,
    "source": "배치도 경계(래스터 계측) + 분석지점도 격자",
    "z_m": 0.0,
    "base_pass_a": true,
    "plan_pass_a": false,
    "total_h": 3.0,
    "cont_h": 1.83,
    "change_cd": "new_fail",
    "변화": "신규 불충족"
   }
  },
  {
   "type": "Feature",
   "geometry": {
    "type": "Point",
    "coordinates": [
     126.93484794,
     37.52265843
    ]
   },
   "properties": {
    "pid": "여의도여자고등학교 운동장-23",
    "school": "여의도여자고등학교",
    "kind": "운동장 지반",
    "dong": "여의도여자고등학교 운동장",
    "floor": 0,
    "source": "배치도 경계(래스터 계측) + 분석지점도 격자",
    "z_m": 0.0,
    "base_pass_a": true,
    "plan_pass_a": false,
    "total_h": 3.67,
    "cont_h": 1.83,
    "change_cd": "new_fail",
    "변화": "신규 불충족"
   }
  },
  {
   "type": "Feature",
   "geometry": {
    "type": "Point",
    "coordinates": [
     126.93478444,
     37.52272306
    ]
   },
   "properties": {
    "pid": "여의도여자고등학교 운동장-24",
    "school": "여의도여자고등학교",
    "kind": "운동장 지반",
    "dong": "여의도여자고등학교 운동장",
    "floor": 0,
    "source": "배치도 경계(래스터 계측) + 분석지점도 격자",
    "z_m": 0.0,
    "base_pass_a": true,
    "plan_pass_a": false,
    "total_h": 3.83,
    "cont_h": 1.83,
    "change_cd": "new_fail",
    "변화": "신규 불충족"
   }
  },
  {
   "type": "Feature",
   "geometry": {
    "type": "Point",
    "coordinates": [
     126.93501389,
     37.52234509
    ]
   },
   "properties": {
    "pid": "여의도여자고등학교 운동장-25",
    "school": "여의도여자고등학교",
    "kind": "운동장 지반",
    "dong": "여의도여자고등학교 운동장",
    "floor": 0,
    "source": "배치도 경계(래스터 계측) + 분석지점도 격자",
    "z_m": 0.0,
    "base_pass_a": true,
    "plan_pass_a": false,
    "total_h": 1.5,
    "cont_h": 0.67,
    "change_cd": "new_fail",
    "변화": "신규 불충족"
   }
  },
  {
   "type": "Feature",
   "geometry": {
    "type": "Point",
    "coordinates": [
     126.9349504,
     37.52240972
    ]
   },
   "properties": {
    "pid": "여의도여자고등학교 운동장-26",
    "school": "여의도여자고등학교",
    "kind": "운동장 지반",
    "dong": "여의도여자고등학교 운동장",
    "floor": 0,
    "source": "배치도 경계(래스터 계측) + 분석지점도 격자",
    "z_m": 0.0,
    "base_pass_a": true,
    "plan_pass_a": false,
    "total_h": 2.83,
    "cont_h": 1.33,
    "change_cd": "new_fail",
    "변화": "신규 불충족"
   }
  },
  {
   "type": "Feature",
   "geometry": {
    "type": "Point",
    "coordinates": [
     126.93488691,
     37.52247434
    ]
   },
   "properties": {
    "pid": "여의도여자고등학교 운동장-27",
    "school": "여의도여자고등학교",
    "kind": "운동장 지반",
    "dong": "여의도여자고등학교 운동장",
    "floor": 0,
    "source": "배치도 경계(래스터 계측) + 분석지점도 격자",
    "z_m": 0.0,
    "base_pass_a": true,
    "plan_pass_a": false,
    "total_h": 3.33,
    "cont_h": 1.67,
    "change_cd": "new_fail",
    "변화": "신규 불충족"
   }
  },
  {
   "type": "Feature",
   "geometry": {
    "type": "Point",
    "coordinates": [
     126.93475994,
     37.5226036
    ]
   },
   "properties": {
    "pid": "여의도여자고등학교 운동장-29",
    "school": "여의도여자고등학교",
    "kind": "운동장 지반",
    "dong": "여의도여자고등학교 운동장",
    "floor": 0,
    "source": "배치도 경계(래스터 계측) + 분석지점도 격자",
    "z_m": 0.0,
    "base_pass_a": true,
    "plan_pass_a": false,
    "total_h": 3.67,
    "cont_h": 1.67,
    "change_cd": "new_fail",
    "변화": "신규 불충족"
   }
  },
  {
   "type": "Feature",
   "geometry": {
    "type": "Point",
    "coordinates": [
     126.93469646,
     37.52266823
    ]
   },
   "properties": {
    "pid": "여의도여자고등학교 운동장-30",
    "school": "여의도여자고등학교",
    "kind": "운동장 지반",
    "dong": "여의도여자고등학교 운동장",
    "floor": 0,
    "source": "배치도 경계(래스터 계측) + 분석지점도 격자",
    "z_m": 0.0,
    "base_pass_a": true,
    "plan_pass_a": false,
    "total_h": 3.33,
    "cont_h": 1.5,
    "change_cd": "new_fail",
    "변화": "신규 불충족"
   }
  },
  {
   "type": "Feature",
   "geometry": {
    "type": "Point",
    "coordinates": [
     126.93449598,
     37.5224391
    ]
   },
   "properties": {
    "pid": "여의도여자고등학교 운동장-47",
    "school": "여의도여자고등학교",
    "kind": "운동장 지반",
    "dong": "여의도여자고등학교 운동장",
    "floor": 0,
    "source": "배치도 경계(래스터 계측) + 분석지점도 격자",
    "z_m": 0.0,
    "base_pass_a": true,
    "plan_pass_a": false,
    "total_h": 2.83,
    "cont_h": 1.83,
    "change_cd": "new_fail",
    "변화": "신규 불충족"
   }
  }
 ]
}