{
 "type": "FeatureCollection",
 "features": [
  {
   "type": "Feature",
   "geometry": {
    "type": "Point",
    "coordinates": [
     194314.754,
     547105.787
    ]
   },
   "properties": {
    "pid": "체육관동(정보화센타) 3층-2",
    "school": "여의도중학교",
    "kind": "교사동 창면",
    "dong": "체육관동(정보화센타)",
    "floor": 3,
    "source": "도면기준",
    "z_m": 9.55,
    "base_pass_a": true,
    "plan_pass_a": false,
    "total_h": 1.83,
    "cont_h": 1.33,
    "change_cd": "new_fail",
    "변화": "신규 불충족"
   }
  },
  {
   "type": "Feature",
   "geometry": {
    "type": "Point",
    "coordinates": [
     194314.754,
     547105.787
    ]
   },
   "properties": {
    "pid": "체육관동(정보화센타) 4층-2",
    "school": "여의도중학교",
    "kind": "교사동 창면",
    "dong": "체육관동(정보화센타)",
    "floor": 4,
    "source": "도면기준",
    "z_m": 13.15,
    "base_pass_a": true,
    "plan_pass_a": false,
    "total_h": 3.0,
    "cont_h": 1.33,
    "change_cd": "new_fail",
    "변화": "신규 불충족"
   }
  },
  {
   "type": "Feature",
   "geometry": {
    "type": "Point",
    "coordinates": [
     194328.607,
     547095.834
    ]
   },
   "properties": {
    "pid": "체육관동(정보화센타) 3층-6",
    "school": "여의도중학교",
    "kind": "교사동 창면",
    "dong": "체육관동(정보화센타)",
    "floor": 3,
    "source": "도면기준",
    "z_m": 9.55,
    "base_pass_a": true,
    "plan_pass_a": false,
    "total_h": 2.17,
    "cont_h": 1.33,
    "change_cd": "new_fail",
    "변화": "신규 불충족"
   }
  },
  {
   "type": "Feature",
   "geometry": {
    "type": "Point",
    "coordinates": [
     194328.607,
     547095.834
    ]
   },
   "properties": {
    "pid": "체육관동(정보화센타) 4층-6",
    "school": "여의도중학교",
    "kind": "교사동 창면",
    "dong": "체육관동(정보화센타)",
    "floor": 4,
    "source": "도면기준",
    "z_m": 13.15,
    "base_pass_a": true,
    "plan_pass_a": false,
    "total_h": 3.17,
    "cont_h": 1.83,
    "change_cd": "new_fail",
    "변화": "신규 불충족"
   }
  },
  {
   "type": "Feature",
   "geometry": {
    "type": "Point",
    "coordinates": [
     194289.547,
     547087.932
    ]
   },
   "properties": {
    "pid": "체육관동 부속(원형부) 4층-2",
    "school": "여의도중학교",
    "kind": "교사동 창면",
    "dong": "체육관동 부속(원형부)",
    "floor": 4,
    "source": "도면기준",
    "z_m": 13.15,
    "base_pass_a": true,
    "plan_pass_a": false,
    "total_h": 1.83,
    "cont_h": 1.5,
    "change_cd": "new_fail",
    "변화": "신규 불충족"
   }
  },
  {
   "type": "Feature",
   "geometry": {
    "type": "Point",
    "coordinates": [
     194291.882,
     547083.014
    ]
   },
   "properties": {
    "pid": "체육관동 부속(원형부) 3층-3",
    "school": "여의도중학교",
    "kind": "교사동 창면",
    "dong": "체육관동 부속(원형부)",
    "floor": 3,
    "source": "도면기준",
    "z_m": 9.55,
    "base_pass_a": true,
    "plan_pass_a": false,
    "total_h": 1.67,
    "cont_h": 1.0,
    "change_cd": "new_fail",
    "변화": "신규 불충족"
   }
  },
  {
   "type": "Feature",
   "geometry": {
    "type": "Point",
    "coordinates": [
     194291.882,
     547083.014
    ]
   },
   "properties": {
    "pid": "체육관동 부속(원형부) 4층-3",
    "school": "여의도중학교",
    "kind": "교사동 창면",
    "dong": "체육관동 부속(원형부)",
    "floor": 4,
    "source": "도면기준",
    "z_m": 13.15,
    "base_pass_a": true,
    "plan_pass_a": false,
    "total_h": 2.5,
    "cont_h": 1.5,
    "change_cd": "new_fail",
    "변화": "신규 불충족"
   }
  },
  {
   "type": "Feature",
   "geometry": {
    "type": "Point",
    "coordinates": [
     194293.971,
     547080.01
    ]
   },
   "properties": {
    "pid": "체육관동 부속(원형부) 1층-4",
    "school": "여의도중학교",
    "kind": "교사동 창면",
    "dong": "체육관동 부속(원형부)",
    "floor": 1,
    "source": "도면기준",
    "z_m": 2.05,
    "base_pass_a": true,
    "plan_pass_a": false,
    "total_h": 1.83,
    "cont_h": 1.83,
    "change_cd": "new_fail",
    "변화": "신규 불충족"
   }
  },
  {
   "type": "Feature",
   "geometry": {
    "type": "Point",
    "coordinates": [
     194293.971,
     547080.01
    ]
   },
   "properties": {
    "pid": "체육관동 부속(원형부) 2층-4",
    "school": "여의도중학교",
    "kind": "교사동 창면",
    "dong": "체육관동 부속(원형부)",
    "floor": 2,
    "source": "도면기준",
    "z_m": 5.95,
    "base_pass_a": true,
    "plan_pass_a": false,
    "total_h": 2.0,
    "cont_h": 1.83,
    "change_cd": "new_fail",
    "변화": "신규 불충족"
   }
  },
  {
   "type": "Feature",
   "geometry": {
    "type": "Point",
    "coordinates": [
     194293.971,
     547080.01
    ]
   },
   "properties": {
    "pid": "체육관동 부속(원형부) 3층-4",
    "school": "여의도중학교",
    "kind": "교사동 창면",
    "dong": "체육관동 부속(원형부)",
    "floor": 3,
    "source": "도면기준",
    "z_m": 9.55,
    "base_pass_a": true,
    "plan_pass_a": false,
    "total_h": 2.33,
    "cont_h": 1.83,
    "change_cd": "new_fail",
    "변화": "신규 불충족"
   }
  },
  {
   "type": "Feature",
   "geometry": {
    "type": "Point",
    "coordinates": [
     194293.971,
     547080.01
    ]
   },
   "properties": {
    "pid": "체육관동 부속(원형부) 4층-4",
    "school": "여의도중학교",
    "kind": "교사동 창면",
    "dong": "체육관동 부속(원형부)",
    "floor": 4,
    "source": "도면기준",
    "z_m": 13.15,
    "base_pass_a": true,
    "plan_pass_a": false,
    "total_h": 3.17,
    "cont_h": 1.83,
    "change_cd": "new_fail",
    "변화": "신규 불충족"
   }
  },
  {
   "type": "Feature",
   "geometry": {
    "type": "Point",
    "coordinates": [
     194307.589,
     547144.529
    ]
   },
   "properties": {
    "pid": "여의도중학교 운동장-3",
    "school": "여의도중학교",
    "kind": "운동장 지반",
    "dong": "여의도중학교 운동장",
    "floor": 0,
    "source": "배치도 경계(래스터 계측) + 분석지점도 격자",
    "z_m": 0.0,
    "base_pass_a": true,
    "plan_pass_a": false,
    "total_h": 2.67,
    "cont_h": 1.0,
    "change_cd": "new_fail",
    "변화": "신규 불충족"
   }
  },
  {
   "type": "Feature",
   "geometry": {
    "type": "Point",
    "coordinates": [
     194304.998,
     547131.109
    ]
   },
   "properties": {
    "pid": "여의도중학교 운동장-14",
    "school": "여의도중학교",
    "kind": "운동장 지반",
    "dong": "여의도중학교 운동장",
    "floor": 0,
    "source": "배치도 경계(래스터 계측) + 분석지점도 격자",
    "z_m": 0.0,
    "base_pass_a": true,
    "plan_pass_a": false,
    "total_h": 2.33,
    "cont_h": 1.17,
    "change_cd": "new_fail",
    "변화": "신규 불충족"
   }
  },
  {
   "type": "Feature",
   "geometry": {
    "type": "Point",
    "coordinates": [
     194299.469,
     547138.185
    ]
   },
   "properties": {
    "pid": "여의도중학교 운동장-15",
    "school": "여의도중학교",
    "kind": "운동장 지반",
    "dong": "여의도중학교 운동장",
    "floor": 0,
    "source": "배치도 경계(래스터 계측) + 분석지점도 격자",
    "z_m": 0.0,
    "base_pass_a": true,
    "plan_pass_a": false,
    "total_h": 3.17,
    "cont_h": 1.33,
    "change_cd": "new_fail",
    "변화": "신규 불충족"
   }
  },
  {
   "type": "Feature",
   "geometry": {
    "type": "Point",
    "coordinates": [
     194293.94,
     547145.262
    ]
   },
   "properties": {
    "pid": "여의도중학교 운동장-16",
    "school": "여의도중학교",
    "kind": "운동장 지반",
    "dong": "여의도중학교 운동장",
    "floor": 0,
    "source": "배치도 경계(래스터 계측) + 분석지점도 격자",
    "z_m": 0.0,
    "base_pass_a": true,
    "plan_pass_a": false,
    "total_h": 3.67,
    "cont_h": 1.67,
    "change_cd": "new_fail",
    "변화": "신규 불충족"
   }
  },
  {
   "type": "Feature",
   "geometry": {
    "type": "Point",
    "coordinates": [
     194277.701,
     547132.574
    ]
   },
   "properties": {
    "pid": "여의도중학교 운동장-41",
    "school": "여의도중학교",
    "kind": "운동장 지반",
    "dong": "여의도중학교 운동장",
    "floor": 0,
    "source": "배치도 경계(래스터 계측) + 분석지점도 격자",
    "z_m": 0.0,
    "base_pass_a": true,
    "plan_pass_a": false,
    "total_h": 3.33,
    "cont_h": 1.0,
    "change_cd": "new_fail",
    "변화": "신규 불충족"
   }
  },
  {
   "type": "Feature",
   "geometry": {
    "type": "Point",
    "coordinates": [
     194258.524,
     547140.383
    ]
   },
   "properties": {
    "pid": "여의도중학교 운동장-56",
    "school": "여의도중학교",
    "kind": "운동장 지반",
    "dong": "여의도중학교 운동장",
    "floor": 0,
    "source": "배치도 경계(래스터 계측) + 분석지점도 격자",
    "z_m": 0.0,
    "base_pass_a": true,
    "plan_pass_a": false,
    "total_h": 3.67,
    "cont_h": 1.83,
    "change_cd": "new_fail",
    "변화": "신규 불충족"
   }
  },
  {
   "type": "Feature",
   "geometry": {
    "type": "Point",
    "coordinates": [
     194250.404,
     547134.039
    ]
   },
   "properties": {
    "pid": "여의도중학교 운동장-69",
    "school": "여의도중학교",
    "kind": "운동장 지반",
    "dong": "여의도중학교 운동장",
    "floor": 0,
    "source": "배치도 경계(래스터 계측) + 분석지점도 격자",
    "z_m": 0.0,
    "base_pass_a": true,
    "plan_pass_a": false,
    "total_h": 2.83,
    "cont_h": 1.5,
    "change_cd": "new_fail",
    "변화": "신규 불충족"
   }
  },
  {
   "type": "Feature",
   "geometry": {
    "type": "Point",
    "coordinates": [
     194244.876,
     547141.115
    ]
   },
   "properties": {
    "pid": "여의도중학교 운동장-70",
    "school": "여의도중학교",
    "kind": "운동장 지반",
    "dong": "여의도중학교 운동장",
    "floor": 0,
    "source": "배치도 경계(래스터 계측) + 분석지점도 격자",
    "z_m": 0.0,
    "base_pass_a": true,
    "plan_pass_a": false,
    "total_h": 3.33,
    "cont_h": 1.83,
    "change_cd": "new_fail",
    "변화": "신규 불충족"
   }
  },
  {
   "type": "Feature",
   "geometry": {
    "type": "Point",
    "coordinates": [
     194295.023,
     547044.139
    ]
   },
   "properties": {
    "pid": "여의도여자고등학교 ②(5층) 4층-12",
    "school": "여의도여자고등학교",
    "kind": "교사동 창면",
    "dong": "여의도여자고등학교 ②(5층)",
    "floor": 4,
    "source": "일반식",
    "z_m": 11.7,
    "base_pass_a": true,
    "plan_pass_a": false,
    "total_h": 2.17,
    "cont_h": 1.67,
    "change_cd": "new_fail",
    "변화": "신규 불충족"
   }
  },
  {
   "type": "Feature",
   "geometry": {
    "type": "Point",
    "coordinates": [
     194255.287,
     546986.128
    ]
   },
   "properties": {
    "pid": "여의도여자고등학교 운동장-25",
    "school": "여의도여자고등학교",
    "kind": "운동장 지반",
    "dong": "여의도여자고등학교 운동장",
    "floor": 0,
    "source": "배치도 경계(래스터 계측) + 분석지점도 격자",
    "z_m": 0.0,
    "base_pass_a": true,
    "plan_pass_a": false,
    "total_h": 2.0,
    "cont_h": 1.83,
    "change_cd": "new_fail",
    "변화": "신규 불충족"
   }
  },
  {
   "type": "Feature",
   "geometry": {
    "type": "Point",
    "coordinates": [
     194421.229,
     547061.56
    ]
   },
   "properties": {
    "pid": "별관(5층) 5층-12",
    "school": "여의도초등학교",
    "kind": "교사동 창면",
    "dong": "별관(5층)",
    "floor": 5,
    "source": "도면기준",
    "z_m": 14.75,
    "base_pass_a": true,
    "plan_pass_a": false,
    "total_h": 1.67,
    "cont_h": 1.67,
    "change_cd": "new_fail",
    "변화": "신규 불충족"
   }
  }
 ],
 "crs": {
  "type": "name",
  "properties": {
   "name": "urn:ogc:def:crs:EPSG::5186"
  }
 }
}