{
 "type": "FeatureCollection",
 "crs": {
  "type": "name",
  "properties": {
   "name": "urn:ogc:def:crs:EPSG::5186"
  }
 },
 "features": [
  {
   "type": "Feature",
   "geometry": {
    "type": "Polygon",
    "coordinates": [
     [
      [
       194284.81153659048,
       546905.3738962063
      ],
      [
       194300.1477619394,
       546917.3389480145
      ],
      [
       194286.6431887923,
       546934.6484574379
      ],
      [
       194271.30696344338,
       546922.6834056296
      ],
      [
       194284.81153659048,
       546905.3738962063
      ]
     ]
    ]
   },
   "properties": {
    "scheme": "F2-44",
    "id": "F2-44-1",
    "floors": 44,
    "height_m": 133.8,
    "base_elev_m": 13.3,
    "top_elev_m": 147.1,
    "area_m2": 427.0
   }
  },
  {
   "type": "Feature",
   "geometry": {
    "type": "Polygon",
    "coordinates": [
     [
      [
       194345.3517368512,
       546952.6062898443
      ],
      [
       194360.68796220014,
       546964.5713416527
      ],
      [
       194347.1833890531,
       546981.8808510758
      ],
      [
       194331.84716370417,
       546969.9157992676
      ],
      [
       194345.3517368512,
       546952.6062898443
      ]
     ]
    ]
   },
   "properties": {
    "scheme": "F2-44",
    "id": "F2-44-2",
    "floors": 44,
    "height_m": 133.8,
    "base_elev_m": 13.3,
    "top_elev_m": 147.1,
    "area_m2": 427.0
   }
  }
 ]
}