{
 "type": "FeatureCollection",
 "crs": {
  "type": "name",
  "properties": {
   "name": "urn:ogc:def:crs:EPSG::5186"
  }
 },
 "features": [
  {
   "type": "Feature",
   "geometry": {
    "type": "Polygon",
    "coordinates": [
     [
      [
       194284.75984353607,
       546905.3335661993
      ],
      [
       194299.2925593026,
       546916.6717340406
      ],
      [
       194286.4955301361,
       546933.0743477726
      ],
      [
       194271.9628143696,
       546921.7361799311
      ],
      [
       194284.75984353607,
       546905.3335661993
      ]
     ]
    ]
   },
   "properties": {
    "scheme": "F2-49",
    "id": "F2-49-1",
    "floors": 49,
    "height_m": 148.55,
    "base_elev_m": 13.3,
    "top_elev_m": 161.85,
    "area_m2": 383.5
   }
  },
  {
   "type": "Feature",
   "geometry": {
    "type": "Polygon",
    "coordinates": [
     [
      [
       194346.20693948813,
       546953.2735038181
      ],
      [
       194360.7396552546,
       546964.6116716595
      ],
      [
       194347.94262608813,
       546981.0142853914
      ],
      [
       194333.40991032164,
       546969.67611755
      ],
      [
       194346.20693948813,
       546953.2735038181
      ]
     ]
    ]
   },
   "properties": {
    "scheme": "F2-49",
    "id": "F2-49-2",
    "floors": 49,
    "height_m": 148.55,
    "base_elev_m": 13.3,
    "top_elev_m": 161.85,
    "area_m2": 383.5
   }
  }
 ]
}