{
 "type": "FeatureCollection",
 "crs": {
  "type": "name",
  "properties": {
   "name": "urn:ogc:def:crs:EPSG::5186"
  }
 },
 "features": [
  {
   "type": "Feature",
   "geometry": {
    "type": "Polygon",
    "coordinates": [
     [
      [
       194308.23842660955,
       546934.521344427
      ],
      [
       194326.71737592775,
       546948.9382938996
      ],
      [
       194310.4454239272,
       546969.7948958387
      ],
      [
       194291.96647460898,
       546955.3779463661
      ],
      [
       194308.23842660955,
       546934.521344427
      ]
     ]
    ]
   },
   "properties": {
    "scheme": "A2",
    "id": "A2-1",
    "floors": 60,
    "height_m": 181.0,
    "base_elev_m": 13.3,
    "top_elev_m": 194.3,
    "area_m2": 620.0
   }
  }
 ]
}