{
 "type": "FeatureCollection",
 "crs": {
  "type": "name",
  "properties": {
   "name": "urn:ogc:def:crs:EPSG::5186"
  }
 },
 "features": [
  {
   "type": "Feature",
   "geometry": {
    "type": "Polygon",
    "coordinates": [
     [
      [
       194314.15207880133,
       546928.2648683749
      ],
      [
       194331.34741998927,
       546941.6803694838
      ],
      [
       194316.20577088217,
       546961.0882037818
      ],
      [
       194299.01042969423,
       546947.6727026729
      ],
      [
       194314.15207880133,
       546928.2648683749
      ]
     ]
    ]
   },
   "properties": {
    "scheme": "F1-70",
    "id": "F1-70-1",
    "floors": 70,
    "height_m": 210.5,
    "base_elev_m": 13.3,
    "top_elev_m": 223.8,
    "area_m2": 536.9
   }
  }
 ]
}