{
 "type": "FeatureCollection",
 "crs": {
  "type": "name",
  "properties": {
   "name": "urn:ogc:def:crs:EPSG::5186"
  }
 },
 "features": [
  {
   "type": "Feature",
   "geometry": {
    "type": "Polygon",
    "coordinates": [
     [
      [
       194284.85969345178,
       546905.4114673379
      ],
      [
       194300.94446229524,
       546917.9605195432
      ],
      [
       194286.78074648793,
       546936.1148861835
      ],
      [
       194270.69597764447,
       546923.5658339782
      ],
      [
       194284.85969345178,
       546905.4114673379
      ]
     ]
    ]
   },
   "properties": {
    "scheme": "F2-40",
    "id": "F2-40-1",
    "floors": 40,
    "height_m": 122.0,
    "base_elev_m": 13.3,
    "top_elev_m": 135.3,
    "area_m2": 469.7
   }
  },
  {
   "type": "Feature",
   "geometry": {
    "type": "Polygon",
    "coordinates": [
     [
      [
       194344.55503649532,
       546951.9847183155
      ],
      [
       194360.6398053388,
       546964.5337705209
      ],
      [
       194346.4760895315,
       546982.6881371613
      ],
      [
       194330.391320688,
       546970.139084956
      ],
      [
       194344.55503649532,
       546951.9847183155
      ]
     ]
    ]
   },
   "properties": {
    "scheme": "F2-40",
    "id": "F2-40-2",
    "floors": 40,
    "height_m": 122.0,
    "base_elev_m": 13.3,
    "top_elev_m": 135.3,
    "area_m2": 469.7
   }
  }
 ]
}