{
 "type": "FeatureCollection",
 "crs": {
  "type": "name",
  "properties": {
   "name": "urn:ogc:def:crs:EPSG::5186"
  }
 },
 "features": [
  {
   "type": "Feature",
   "geometry": {
    "type": "MultiPolygon",
    "coordinates": [
     [
      [
       [
        194254.85349219493,
        546958.795357719
       ],
       [
        194289.25291497874,
        546915.0252711569
       ],
       [
        194290.52289737048,
        546915.4752878771
       ],
       [
        194292.7629240945,
        546912.675346945
       ],
       [
        194285.7930742848,
        546906.8752826032
       ],
       [
        194285.3130677571,
        546907.5252695348
       ],
       [
        194281.71314025472,
        546904.8452337048
       ],
       [
        194243.7026673839,
        546953.5652214566
       ],
       [
        194247.36259214065,
        546956.3852570987
       ],
       [
        194246.9225865696,
        546956.9552453303
       ],
       [
        194253.8924432878,
        546962.325313207
       ],
       [
        194256.04247058328,
        546959.5353707453
       ],
       [
        194254.85349219493,
        546958.795357719
       ]
      ]
     ]
    ]
   },
   "properties": {
    "scheme": "Z1",
    "id": "화랑 기존 3동",
    "floors": 9,
    "height_m": 30.0,
    "base_elev_m": 13.3,
    "top_elev_m": 43.3,
    "area_m2": 769.2
   }
  },
  {
   "type": "Feature",
   "geometry": {
    "type": "MultiPolygon",
    "coordinates": [
     [
      [
       [
        194289.6227687084,
        546986.1256918716
       ],
       [
        194324.06319809257,
        546941.9256095262
       ],
       [
        194325.27318177623,
        546942.3256256931
       ],
       [
        194327.43320513197,
        546939.7756814172
       ],
       [
        194320.62335370164,
        546933.9956194796
       ],
       [
        194320.12334846053,
        546934.5756066663
       ],
       [
        194316.7534185977,
        546931.9255742872
       ],
       [
        194278.5629478162,
        546980.6055594569
       ],
       [
        194282.0028763014,
        546983.3055925508
       ],
       [
        194281.50287025573,
        546983.9355793229
       ],
       [
        194288.59272277265,
        546989.5056474858
       ],
       [
        194290.83274660195,
        546986.8857050752
       ],
       [
        194289.6227687084,
        546986.1256918716
       ]
      ]
     ]
    ]
   },
   "properties": {
    "scheme": "Z1",
    "id": "화랑 기존 2동",
    "floors": 9,
    "height_m": 30.0,
    "base_elev_m": 13.3,
    "top_elev_m": 43.3,
    "area_m2": 763.4
   }
  },
  {
   "type": "Feature",
   "geometry": {
    "type": "MultiPolygon",
    "coordinates": [
     [
      [
       [
        194323.9430335969,
        547014.4060110019
       ],
       [
        194356.90244213905,
        546972.2558879807
       ],
       [
        194357.50243176773,
        546972.5958948331
       ],
       [
        194358.78244479198,
        546971.1359274351
       ],
       [
        194356.61349305915,
        546969.2359081937
       ],
       [
        194355.95348526683,
        546970.0558908313
       ],
       [
        194347.55266162608,
        546963.3558108786
       ],
       [
        194313.45322992196,
        547007.5258989417
       ],
       [
        194321.67306066566,
        547013.8759788581
       ],
       [
        194321.05305157855,
        547014.7559616456
       ],
       [
        194323.5730022092,
        547016.5459874383
       ],
       [
        194324.91301731282,
        547014.9260223191
       ],
       [
        194323.9430335969,
        547014.4060110019
       ]
      ]
     ]
    ]
   },
   "properties": {
    "scheme": "Z1",
    "id": "화랑 기존 1동",
    "floors": 9,
    "height_m": 30.0,
    "base_elev_m": 13.3,
    "top_elev_m": 43.3,
    "area_m2": 713.9
   }
  }
 ]
}