{
 "type": "FeatureCollection",
 "crs": {
  "type": "name",
  "properties": {
   "name": "urn:ogc:def:crs:EPSG::5186"
  }
 },
 "features": [
  {
   "type": "Feature",
   "geometry": {
    "type": "Polygon",
    "coordinates": [
     [
      [
       194311.3761002722,
       546926.0990990177
      ],
      [
       194334.12339851828,
       546943.8461388414
      ],
      [
       194314.09287952996,
       546969.5202903606
      ],
      [
       194291.34558128388,
       546951.7732505369
      ],
      [
       194311.3761002722,
       546926.0990990177
      ]
     ]
    ]
   },
   "properties": {
    "scheme": "F1-40",
    "id": "F1-40-1",
    "floors": 40,
    "height_m": 122.0,
    "base_elev_m": 13.3,
    "top_elev_m": 135.3,
    "area_m2": 939.5
   }
  }
 ]
}