{
 "type": "FeatureCollection",
 "crs": {
  "type": "name",
  "properties": {
   "name": "urn:ogc:def:crs:EPSG::5186"
  }
 },
 "features": [
  {
   "type": "Feature",
   "geometry": {
    "type": "Polygon",
    "coordinates": [
     [
      [
       194308.61074076412,
       546935.3156725476
      ],
      [
       194325.8563407953,
       546948.770384717
      ],
      [
       194310.67043541203,
       546968.2349445717
      ],
      [
       194293.42483538087,
       546954.780232402
      ],
      [
       194308.61074076412,
       546935.3156725476
      ]
     ]
    ]
   },
   "properties": {
    "scheme": "A3",
    "id": "A3-1",
    "floors": 69,
    "height_m": 207.55,
    "base_elev_m": 13.3,
    "top_elev_m": 220.85,
    "area_m2": 540.0
   }
  }
 ]
}