{
 "type": "FeatureCollection",
 "crs": {
  "type": "name",
  "properties": {
   "name": "urn:ogc:def:crs:EPSG::5186"
  }
 },
 "features": [
  {
   "type": "Feature",
   "geometry": {
    "type": "Polygon",
    "coordinates": [
     [
      [
       194312.7743992231,
       546927.1900271312
      ],
      [
       194332.72509956738,
       546942.7552107277
      ],
      [
       194315.15717225778,
       546965.2729312065
      ],
      [
       194295.2064719135,
       546949.70774761
      ],
      [
       194312.7743992231,
       546927.1900271312
      ]
     ]
    ]
   },
   "properties": {
    "scheme": "F1-52",
    "id": "F1-52-1",
    "floors": 52,
    "height_m": 157.4,
    "base_elev_m": 13.3,
    "top_elev_m": 170.7,
    "area_m2": 722.7
   }
  }
 ]
}