{
 "type": "FeatureCollection",
 "crs": {
  "type": "name",
  "properties": {
   "name": "urn:ogc:def:crs:EPSG::5186"
  }
 },
 "features": [
  {
   "type": "Feature",
   "geometry": {
    "type": "Polygon",
    "coordinates": [
     [
      [
       194266.17042384684,
       546929.5624366946
      ],
      [
       194283.73248330186,
       546943.2640449104
      ],
      [
       194268.26791420966,
       546963.0857824442
      ],
      [
       194250.70585475463,
       546949.3841742285
      ],
      [
       194266.17042384684,
       546929.5624366946
      ]
     ]
    ]
   },
   "properties": {
    "scheme": "B3",
    "id": "B3-1",
    "floors": 33,
    "height_m": 101.35,
    "base_elev_m": 13.3,
    "top_elev_m": 114.65,
    "area_m2": 560.0
   }
  },
  {
   "type": "Feature",
   "geometry": {
    "type": "Polygon",
    "coordinates": [
     [
      [
       194324.19839599682,
       546974.8348343874
      ],
      [
       194341.76045545185,
       546988.5364426032
      ],
      [
       194326.29588635964,
       547008.358180137
      ],
      [
       194308.73382690462,
       546994.6565719212
      ],
      [
       194324.19839599682,
       546974.8348343874
      ]
     ]
    ]
   },
   "properties": {
    "scheme": "B3",
    "id": "B3-2",
    "floors": 33,
    "height_m": 101.35,
    "base_elev_m": 13.3,
    "top_elev_m": 114.65,
    "area_m2": 560.0
   }
  }
 ]
}