{
 "type": "FeatureCollection",
 "crs": {
  "type": "name",
  "properties": {
   "name": "urn:ogc:def:crs:EPSG::5186"
  }
 },
 "features": [
  {
   "type": "Feature",
   "geometry": {
    "type": "Polygon",
    "coordinates": [
     [
      [
       194313.4632037736,
       546927.7274202607
      ],
      [
       194332.03629501685,
       546942.2178175983
      ],
      [
       194315.68144474874,
       546963.180674532
      ],
      [
       194297.1083535055,
       546948.6902771944
      ],
      [
       194313.4632037736,
       546927.7274202607
      ]
     ]
    ]
   },
   "properties": {
    "scheme": "F1-60",
    "id": "F1-60-1",
    "floors": 59,
    "height_m": 178.05,
    "base_elev_m": 13.3,
    "top_elev_m": 191.35,
    "area_m2": 626.3
   }
  }
 ]
}