{
 "type": "FeatureCollection",
 "crs": {
  "type": "name",
  "properties": {
   "name": "urn:ogc:def:crs:EPSG::5186"
  }
 },
 "features": [
  {
   "type": "Feature",
   "geometry": {
    "type": "Polygon",
    "coordinates": [
     [
      [
       194279.11461540507,
       546912.775798517
      ],
      [
       194295.20366381994,
       546925.3281895681
      ],
      [
       194281.0361795635,
       546943.4873864248
      ],
      [
       194264.94713114863,
       546930.9349953735
      ],
      [
       194279.11461540507,
       546912.775798517
      ]
     ]
    ]
   },
   "properties": {
    "scheme": "C1",
    "id": "C1-1",
    "floors": 26,
    "height_m": 80.7,
    "base_elev_m": 13.3,
    "top_elev_m": 94.0,
    "area_m2": 470.0
   }
  },
  {
   "type": "Feature",
   "geometry": {
    "type": "Polygon",
    "coordinates": [
     [
      [
       194308.95987181872,
       546936.0605397813
      ],
      [
       194325.0489202336,
       546948.6129308324
      ],
      [
       194310.88143597715,
       546966.7721276889
      ],
      [
       194294.79238756228,
       546954.2197366378
      ],
      [
       194308.95987181872,
       546936.0605397813
      ]
     ]
    ]
   },
   "properties": {
    "scheme": "C1",
    "id": "C1-2",
    "floors": 26,
    "height_m": 80.7,
    "base_elev_m": 13.3,
    "top_elev_m": 94.0,
    "area_m2": 470.0
   }
  },
  {
   "type": "Feature",
   "geometry": {
    "type": "Polygon",
    "coordinates": [
     [
      [
       194338.80512823243,
       546959.3452810457
      ],
      [
       194354.89417664733,
       546971.8976720967
      ],
      [
       194340.7266923909,
       546990.0568689532
      ],
      [
       194324.637643976,
       546977.5044779021
      ],
      [
       194338.80512823243,
       546959.3452810457
      ]
     ]
    ]
   },
   "properties": {
    "scheme": "C1",
    "id": "C1-3",
    "floors": 26,
    "height_m": 80.7,
    "base_elev_m": 13.3,
    "top_elev_m": 94.0,
    "area_m2": 470.0
   }
  }
 ]
}