{
 "type": "FeatureCollection",
 "crs": {
  "type": "name",
  "properties": {
   "name": "urn:ogc:def:crs:EPSG::5186"
  }
 },
 "features": [
  {
   "type": "Feature",
   "geometry": {
    "type": "Polygon",
    "coordinates": [
     [
      [
       194313.0502688329,
       546927.4052557222
      ],
      [
       194332.4492299578,
       546942.5399821366
      ],
      [
       194315.36714596857,
       546964.4349721196
      ],
      [
       194295.9681848437,
       546949.3002457052
      ],
      [
       194313.0502688329,
       546927.4052557222
      ]
     ]
    ]
   },
   "properties": {
    "scheme": "F1-55",
    "id": "F1-55-1",
    "floors": 55,
    "height_m": 166.25,
    "base_elev_m": 13.3,
    "top_elev_m": 179.55,
    "area_m2": 683.3
   }
  }
 ]
}