{
 "type": "FeatureCollection",
 "crs": {
  "type": "name",
  "properties": {
   "name": "urn:ogc:def:crs:EPSG::5186"
  }
 },
 "features": [
  {
   "type": "Feature",
   "geometry": {
    "type": "Polygon",
    "coordinates": [
     [
      [
       194279.50122431168,
       546912.4756607001
      ],
      [
       194297.0632837667,
       546926.1772689158
      ],
      [
       194281.5987146745,
       546945.9990064497
      ],
      [
       194264.03665521948,
       546932.297398234
      ],
      [
       194279.50122431168,
       546912.4756607001
      ]
     ]
    ]
   },
   "properties": {
    "scheme": "B1",
    "id": "B1-1",
    "floors": 33,
    "height_m": 101.35,
    "base_elev_m": 13.3,
    "top_elev_m": 114.65,
    "area_m2": 560.0
   }
  },
  {
   "type": "Feature",
   "geometry": {
    "type": "Polygon",
    "coordinates": [
     [
      [
       194337.52919646172,
       546957.748058393
      ],
      [
       194355.09125591675,
       546971.4496666087
      ],
      [
       194339.62668682454,
       546991.2714041426
      ],
      [
       194322.06462736952,
       546977.5697959268
      ],
      [
       194337.52919646172,
       546957.748058393
      ]
     ]
    ]
   },
   "properties": {
    "scheme": "B1",
    "id": "B1-2",
    "floors": 33,
    "height_m": 101.35,
    "base_elev_m": 13.3,
    "top_elev_m": 114.65,
    "area_m2": 560.0
   }
  }
 ]
}