{
 "type": "FeatureCollection",
 "crs": {
  "type": "name",
  "properties": {
   "name": "urn:ogc:def:crs:EPSG::5186"
  }
 },
 "features": [
  {
   "type": "Feature",
   "geometry": {
    "type": "Polygon",
    "coordinates": [
     [
      [
       194284.93114110833,
       546905.4672095359
      ],
      [
       194302.12648229627,
       546918.8827106447
      ],
      [
       194286.98483318917,
       546938.2905449427
      ],
      [
       194269.78949200123,
       546924.8750438339
      ],
      [
       194284.93114110833,
       546905.4672095359
      ]
     ]
    ]
   },
   "properties": {
    "scheme": "F2-35",
    "id": "F2-35-1",
    "floors": 35,
    "height_m": 107.25,
    "base_elev_m": 13.3,
    "top_elev_m": 120.55,
    "area_m2": 536.9
   }
  },
  {
   "type": "Feature",
   "geometry": {
    "type": "Polygon",
    "coordinates": [
     [
      [
       194343.37301649438,
       546951.062527214
      ],
      [
       194360.56835768232,
       546964.4780283228
      ],
      [
       194345.42670857522,
       546983.8858626208
      ],
      [
       194328.23136738728,
       546970.4703615119
      ],
      [
       194343.37301649438,
       546951.062527214
      ]
     ]
    ]
   },
   "properties": {
    "scheme": "F2-35",
    "id": "F2-35-2",
    "floors": 35,
    "height_m": 107.25,
    "base_elev_m": 13.3,
    "top_elev_m": 120.55,
    "area_m2": 536.9
   }
  }
 ]
}