{
 "type": "FeatureCollection",
 "crs": {
  "type": "name",
  "properties": {
   "name": "urn:ogc:def:crs:EPSG::5186"
  }
 },
 "features": [
  {
   "type": "Feature",
   "geometry": {
    "type": "Polygon",
    "coordinates": [
     [
      [
       194312.1437669008,
       546926.6980189455
      ],
      [
       194333.35573188975,
       546943.2472189132
      ],
      [
       194314.67717662154,
       546967.1884886525
      ],
      [
       194293.46521163257,
       546950.6392886848
      ],
      [
       194312.1437669008,
       546926.6980189455
      ]
     ]
    ]
   },
   "properties": {
    "scheme": "F1-46",
    "id": "F1-46-1",
    "floors": 46,
    "height_m": 139.7,
    "base_elev_m": 13.3,
    "top_elev_m": 153.0,
    "area_m2": 817.0
   }
  }
 ]
}