{
 "type": "FeatureCollection",
 "crs": {
  "type": "name",
  "properties": {
   "name": "urn:ogc:def:crs:EPSG::5186"
  }
 },
 "features": [
  {
   "type": "Feature",
   "geometry": {
    "type": "Polygon",
    "coordinates": [
     [
      [
       194272.83582407932,
       546921.0190486974
      ],
      [
       194290.39788353434,
       546934.7206569131
      ],
      [
       194274.93331444214,
       546954.542394447
      ],
      [
       194257.3712549871,
       546940.8407862312
      ],
      [
       194272.83582407932,
       546921.0190486974
      ]
     ]
    ]
   },
   "properties": {
    "scheme": "B2",
    "id": "B2-1",
    "floors": 33,
    "height_m": 101.35,
    "base_elev_m": 13.3,
    "top_elev_m": 114.65,
    "area_m2": 560.0
   }
  },
  {
   "type": "Feature",
   "geometry": {
    "type": "Polygon",
    "coordinates": [
     [
      [
       194330.86379622936,
       546966.2914463901
      ],
      [
       194348.42585568439,
       546979.993054606
      ],
      [
       194332.96128659218,
       546999.8147921397
      ],
      [
       194315.39922713715,
       546986.113183924
      ],
      [
       194330.86379622936,
       546966.2914463901
      ]
     ]
    ]
   },
   "properties": {
    "scheme": "B2",
    "id": "B2-2",
    "floors": 33,
    "height_m": 101.35,
    "base_elev_m": 13.3,
    "top_elev_m": 114.65,
    "area_m2": 560.0
   }
  }
 ]
}