{
 "type": "FeatureCollection",
 "crs": {
  "type": "name",
  "properties": {
   "name": "urn:ogc:def:crs:EPSG::5186"
  }
 },
 "features": [
  {
   "type": "Feature",
   "geometry": {
    "type": "Polygon",
    "coordinates": [
     [
      [
       194311.90540045325,
       546926.5120496587
      ],
      [
       194333.5940983373,
       546943.4331882005
      ],
      [
       194314.4957478387,
       546967.9125311847
      ],
      [
       194292.80704995466,
       546950.991392643
      ],
      [
       194311.90540045325,
       546926.5120496587
      ]
     ]
    ]
   },
   "properties": {
    "scheme": "F1-44",
    "id": "F1-44-1",
    "floors": 44,
    "height_m": 133.8,
    "base_elev_m": 13.3,
    "top_elev_m": 147.1,
    "area_m2": 854.1
   }
  }
 ]
}