{
 "type": "FeatureCollection",
 "crs": {
  "type": "name",
  "properties": {
   "name": "urn:ogc:def:crs:EPSG::5186"
  }
 },
 "features": [
  {
   "type": "Feature",
   "geometry": {
    "type": "Polygon",
    "coordinates": [
     [
      [
       194278.05443044423,
       546892.4920860021
      ],
      [
       194230.97058833847,
       546952.8418800812
      ],
      [
       194327.74268022715,
       547028.3417548352
      ],
      [
       194374.8265223329,
       546967.9919607561
      ],
      [
       194278.05443044423,
       546892.4920860021
      ]
     ]
    ]
   },
   "properties": {
    "name": "화랑아파트 재건축 대지(추정)",
    "area_m2": 9395.0
   }
  }
 ]
}