{
 "type": "FeatureCollection",
 "crs": {
  "type": "name",
  "properties": {
   "name": "urn:ogc:def:crs:EPSG::5186"
  }
 },
 "features": [
  {
   "type": "Feature",
   "geometry": {
    "type": "Polygon",
    "coordinates": [
     [
      [
       194314.70736497352,
       546928.6980928269
      ],
      [
       194330.792133817,
       546941.247145032
      ],
      [
       194316.62841800976,
       546959.4015116727
      ],
      [
       194300.54364916627,
       546946.8524594672
      ],
      [
       194314.70736497352,
       546928.6980928269
      ]
     ]
    ]
   },
   "properties": {
    "scheme": "F1-80",
    "id": "F1-80-1",
    "floors": 80,
    "height_m": 240.0,
    "base_elev_m": 13.3,
    "top_elev_m": 253.3,
    "area_m2": 469.7
   }
  }
 ]
}