{
 "type": "FeatureCollection",
 "crs": {
  "type": "name",
  "properties": {
   "name": "urn:ogc:def:crs:EPSG::5186"
  }
 },
 "features": [
  {
   "type": "Feature",
   "geometry": {
    "type": "Polygon",
    "coordinates": [
     [
      [
       194268.31109332645,
       546924.4889764425
      ],
      [
       194329.80883549192,
       546972.4684273412
      ],
      [
       194321.1340498265,
       546983.5873485084
      ],
      [
       194259.63630766104,
       546935.6078976097
      ],
      [
       194268.31109332645,
       546924.4889764425
      ]
     ]
    ]
   },
   "properties": {
    "scheme": "D1",
    "id": "D1-1",
    "floors": 17,
    "height_m": 54.15,
    "base_elev_m": 13.3,
    "top_elev_m": 67.45,
    "area_m2": 1100.0
   }
  },
  {
   "type": "Feature",
   "geometry": {
    "type": "Polygon",
    "coordinates": [
     [
      [
       194284.66306084488,
       546937.2464923288
      ],
      [
       194346.16080301034,
       546985.2259432275
      ],
      [
       194337.48601734493,
       546996.3448643947
      ],
      [
       194275.98827517946,
       546948.365413496
      ],
      [
       194284.66306084488,
       546937.2464923288
      ]
     ]
    ]
   },
   "properties": {
    "scheme": "D1",
    "id": "D1-2",
    "floors": 17,
    "height_m": 54.15,
    "base_elev_m": 13.3,
    "top_elev_m": 67.45,
    "area_m2": 1100.0
   }
  }
 ]
}