{
 "type": "FeatureCollection",
 "crs": {
  "type": "name",
  "properties": {
   "name": "urn:ogc:def:crs:EPSG::5186"
  }
 },
 "features": [
  {
   "type": "Feature",
   "geometry": {
    "type": "Polygon",
    "coordinates": [
     [
      [
       194307.88945299687,
       546933.7768130939
      ],
      [
       194327.52443238004,
       546949.0956767796
      ],
      [
       194310.23451851355,
       546971.2570530587
      ],
      [
       194290.59953913037,
       546955.938189373
      ],
      [
       194307.88945299687,
       546933.7768130939
      ]
     ]
    ]
   },
   "properties": {
    "scheme": "A1",
    "id": "A1-1",
    "floors": 53,
    "height_m": 160.35,
    "base_elev_m": 13.3,
    "top_elev_m": 173.65,
    "area_m2": 700.0
   }
  }
 ]
}