{
 "type": "FeatureCollection",
 "crs": {
  "type": "name",
  "properties": {
   "name": "urn:ogc:def:crs:EPSG::5186"
  }
 },
 "features": [
  {
   "type": "Feature",
   "geometry": {
    "type": "Polygon",
    "coordinates": [
     [
      [
       194284.78984950174,
       546905.3569763231
      ],
      [
       194299.7889737877,
       546917.0590278434
      ],
      [
       194286.58124069477,
       546933.9880620264
      ],
      [
       194271.5821164088,
       546922.2860105061
      ],
      [
       194284.78984950174,
       546905.3569763231
      ]
     ]
    ]
   },
   "properties": {
    "scheme": "F2-46",
    "id": "F2-46-1",
    "floors": 46,
    "height_m": 139.7,
    "base_elev_m": 13.3,
    "top_elev_m": 153.0,
    "area_m2": 408.5
   }
  },
  {
   "type": "Feature",
   "geometry": {
    "type": "Polygon",
    "coordinates": [
     [
      [
       194345.7105250029,
       546952.8862100153
      ],
      [
       194360.70964928888,
       546964.5882615356
      ],
      [
       194347.50191619594,
       546981.5172957187
      ],
      [
       194332.50279190997,
       546969.8152441983
      ],
      [
       194345.7105250029,
       546952.8862100153
      ]
     ]
    ]
   },
   "properties": {
    "scheme": "F2-46",
    "id": "F2-46-2",
    "floors": 46,
    "height_m": 139.7,
    "base_elev_m": 13.3,
    "top_elev_m": 153.0,
    "area_m2": 408.5
   }
  }
 ]
}