{
 "type": "FeatureCollection",
 "crs": {
  "type": "name",
  "properties": {
   "name": "urn:ogc:def:crs:EPSG::5186"
  }
 },
 "features": [
  {
   "type": "Feature",
   "geometry": {
    "type": "Polygon",
    "coordinates": [
     [
      [
       194312.47356752784,
       546926.9553235624
      ],
      [
       194333.0259312629,
       546942.9899142963
      ],
      [
       194314.92819905755,
       546966.1867130945
      ],
      [
       194294.37583532248,
       546950.1521223605
      ],
      [
       194312.47356752784,
       546926.9553235624
      ]
     ]
    ]
   },
   "properties": {
    "scheme": "F1-49",
    "id": "F1-49-1",
    "floors": 49,
    "height_m": 148.55,
    "base_elev_m": 13.3,
    "top_elev_m": 161.85,
    "area_m2": 766.9
   }
  }
 ]
}