{
 "type": "FeatureCollection",
 "crs": {
  "type": "name",
  "properties": {
   "name": "urn:ogc:def:crs:EPSG::5186"
  }
 },
 "features": [
  {
   "type": "Feature",
   "geometry": {
    "type": "Polygon",
    "coordinates": [
     [
      [
       194310.59080703644,
       546925.4864271224
      ],
      [
       194334.90869175404,
       546944.4588107365
      ],
      [
       194313.49516623013,
       546971.9056332168
      ],
      [
       194289.17728151253,
       546952.9332496027
      ],
      [
       194310.59080703644,
       546925.4864271224
      ]
     ]
    ]
   },
   "properties": {
    "scheme": "F1-35",
    "id": "F1-35-1",
    "floors": 35,
    "height_m": 107.25,
    "base_elev_m": 13.3,
    "top_elev_m": 120.55,
    "area_m2": 1073.7
   }
  }
 ]
}