{
 "type": "FeatureCollection",
 "features": [
  {
   "type": "Feature",
   "geometry": {
    "type": "Polygon",
    "coordinates": [
     [
      [
       126.93582339,
       37.52237396
      ],
      [
       126.93572457,
       37.52251007
      ],
      [
       126.9352707,
       37.52230102
      ],
      [
       126.93536951,
       37.52216492
      ],
      [
       126.93582339,
       37.52237396
      ]
     ]
    ]
   },
   "properties": {
    "label": "타워1 외형선",
    "kind": "타워1 외형선",
    "height_m": 70.0
   }
  },
  {
   "type": "Feature",
   "geometry": {
    "type": "Polygon",
    "coordinates": [
     [
      [
       126.93594654,
       37.52220432
      ],
      [
       126.93584774,
       37.52234042
      ],
      [
       126.93539386,
       37.52213138
      ],
      [
       126.93549267,
       37.52199528
      ],
      [
       126.93594654,
       37.52220432
      ]
     ]
    ]
   },
   "properties": {
    "label": "타워2 외형선",
    "kind": "타워2 외형선",
    "height_m": 70.0
   }
  },
  {
   "type": "Feature",
   "geometry": {
    "type": "Polygon",
    "coordinates": [
     [
      [
       126.93606971,
       37.52203469
      ],
      [
       126.93597089,
       37.52217078
      ],
      [
       126.93551702,
       37.52196174
      ],
      [
       126.93561584,
       37.52182564
      ],
      [
       126.93606971,
       37.52203469
      ]
     ]
    ]
   },
   "properties": {
    "label": "타워3 외형선",
    "kind": "타워3 외형선",
    "height_m": 70.0
   }
  },
  {
   "type": "Feature",
   "geometry": {
    "type": "Polygon",
    "coordinates": [
     [
      [
       126.93527217,
       37.52150157
      ],
      [
       126.93473908,
       37.52204503
      ],
      [
       126.93583321,
       37.52272589
      ],
      [
       126.93636631,
       37.52218242
      ],
      [
       126.93527217,
       37.52150157
      ]
     ]
    ]
   },
   "properties": {
    "label": "화랑 대지",
    "kind": "대지",
    "area_m2": 9395
   }
  }
 ]
}