{
 "type": "FeatureCollection",
 "features": [
  {
   "type": "Feature",
   "geometry": {
    "type": "Polygon",
    "coordinates": [
     [
      [
       194319.766,
       546984.849
      ],
      [
       194311.042,
       546999.96
      ],
      [
       194289.674,
       546987.623
      ],
      [
       194298.398,
       546972.512
      ],
      [
       194319.766,
       546984.849
      ]
     ]
    ]
   },
   "properties": {
    "label": "타워1 외형선",
    "kind": "타워1 외형선",
    "height_m": 70.0
   }
  },
  {
   "type": "Feature",
   "geometry": {
    "type": "Polygon",
    "coordinates": [
     [
      [
       194330.491,
       546966.273
      ],
      [
       194321.766,
       546981.384
      ],
      [
       194300.398,
       546969.048
      ],
      [
       194309.123,
       546953.936
      ],
      [
       194330.491,
       546966.273
      ]
     ]
    ]
   },
   "properties": {
    "label": "타워2 외형선",
    "kind": "타워2 외형선",
    "height_m": 70.0
   }
  },
  {
   "type": "Feature",
   "geometry": {
    "type": "Polygon",
    "coordinates": [
     [
      [
       194341.215,
       546947.698
      ],
      [
       194332.491,
       546962.809
      ],
      [
       194311.123,
       546950.472
      ],
      [
       194319.847,
       546935.361
      ],
      [
       194341.215,
       546947.698
      ]
     ]
    ]
   },
   "properties": {
    "label": "타워3 외형선",
    "kind": "타워3 외형선",
    "height_m": 70.0
   }
  },
  {
   "type": "Feature",
   "geometry": {
    "type": "Polygon",
    "coordinates": [
     [
      [
       194294.674,
       546970.362
      ],
      [
       194285.95,
       546985.473
      ],
      [
       194264.582,
       546973.136
      ],
      [
       194273.306,
       546958.025
      ],
      [
       194294.674,
       546970.362
      ]
     ]
    ]
   },
   "properties": {
    "label": "타워4 외형선",
    "kind": "타워4 외형선",
    "height_m": 70.0
   }
  },
  {
   "type": "Feature",
   "geometry": {
    "type": "Polygon",
    "coordinates": [
     [
      [
       194305.399,
       546951.786
      ],
      [
       194296.674,
       546966.898
      ],
      [
       194275.306,
       546954.561
      ],
      [
       194284.031,
       546939.449
      ],
      [
       194305.399,
       546951.786
      ]
     ]
    ]
   },
   "properties": {
    "label": "타워5 외형선",
    "kind": "타워5 외형선",
    "height_m": 70.0
   }
  },
  {
   "type": "Feature",
   "geometry": {
    "type": "Polygon",
    "coordinates": [
     [
      [
       194316.123,
       546933.211
      ],
      [
       194307.399,
       546948.322
      ],
      [
       194286.031,
       546935.985
      ],
      [
       194294.755,
       546920.874
      ],
      [
       194316.123,
       546933.211
      ]
     ]
    ]
   },
   "properties": {
    "label": "타워6 외형선",
    "kind": "타워6 외형선",
    "height_m": 70.0
   }
  },
  {
   "type": "Feature",
   "geometry": {
    "type": "Polygon",
    "coordinates": [
     [
      [
       194278.054,
       546892.492
      ],
      [
       194230.971,
       546952.842
      ],
      [
       194327.743,
       547028.342
      ],
      [
       194374.827,
       546967.992
      ],
      [
       194278.054,
       546892.492
      ]
     ]
    ]
   },
   "properties": {
    "label": "화랑 대지",
    "kind": "대지",
    "area_m2": 9395
   }
  }
 ],
 "crs": {
  "type": "name",
  "properties": {
   "name": "urn:ogc:def:crs:EPSG::5186"
  }
 }
}