{
 "type": "FeatureCollection",
 "features": [
  {
   "type": "Feature",
   "geometry": {
    "type": "Polygon",
    "coordinates": [
     [
      [
       126.93556825,
       37.52172104
      ],
      [
       126.93567221,
       37.52178582
      ],
      [
       126.93534914,
       37.52211471
      ],
      [
       126.93524517,
       37.52204992
      ],
      [
       126.93556825,
       37.52172104
      ]
     ]
    ]
   },
   "properties": {
    "label": "타워1 외형선",
    "kind": "타워1 외형선",
    "height_m": 70.0
   }
  },
  {
   "type": "Feature",
   "geometry": {
    "type": "Polygon",
    "coordinates": [
     [
      [
       126.93571052,
       37.5218097
      ],
      [
       126.9358145,
       37.52187449
      ],
      [
       126.93549142,
       37.52220337
      ],
      [
       126.93538744,
       37.52213859
      ],
      [
       126.93571052,
       37.5218097
      ]
     ]
    ]
   },
   "properties": {
    "label": "타워2 외형선",
    "kind": "타워2 외형선",
    "height_m": 70.0
   }
  },
  {
   "type": "Feature",
   "geometry": {
    "type": "Polygon",
    "coordinates": [
     [
      [
       126.9358528,
       37.52189836
      ],
      [
       126.93595677,
       37.52196315
      ],
      [
       126.93563369,
       37.52229204
      ],
      [
       126.93552973,
       37.52222725
      ],
      [
       126.9358528,
       37.52189836
      ]
     ]
    ]
   },
   "properties": {
    "label": "타워3 외형선",
    "kind": "타워3 외형선",
    "height_m": 70.0
   }
  },
  {
   "type": "Feature",
   "geometry": {
    "type": "Polygon",
    "coordinates": [
     [
      [
       126.93599508,
       37.52198702
      ],
      [
       126.93609905,
       37.52205181
      ],
      [
       126.93577597,
       37.5223807
      ],
      [
       126.93567201,
       37.52231591
      ],
      [
       126.93599508,
       37.52198702
      ]
     ]
    ]
   },
   "properties": {
    "label": "타워4 외형선",
    "kind": "타워4 외형선",
    "height_m": 70.0
   }
  },
  {
   "type": "Feature",
   "geometry": {
    "type": "Polygon",
    "coordinates": [
     [
      [
       126.93613736,
       37.52207568
      ],
      [
       126.93624133,
       37.52214047
      ],
      [
       126.93591826,
       37.52246937
      ],
      [
       126.93581429,
       37.52240457
      ],
      [
       126.93613736,
       37.52207568
      ]
     ]
    ]
   },
   "properties": {
    "label": "타워5 외형선",
    "kind": "타워5 외형선",
    "height_m": 70.0
   }
  },
  {
   "type": "Feature",
   "geometry": {
    "type": "Polygon",
    "coordinates": [
     [
      [
       126.93527217,
       37.52150157
      ],
      [
       126.93473908,
       37.52204503
      ],
      [
       126.93583321,
       37.52272589
      ],
      [
       126.93636631,
       37.52218242
      ],
      [
       126.93527217,
       37.52150157
      ]
     ]
    ]
   },
   "properties": {
    "label": "화랑 대지",
    "kind": "대지",
    "area_m2": 9395
   }
  }
 ]
}