{
 "type": "FeatureCollection",
 "features": [
  {
   "type": "Feature",
   "geometry": {
    "type": "Polygon",
    "coordinates": [
     [
      [
       126.93567455,
       37.52241882
      ],
      [
       126.93557917,
       37.52251768
      ],
      [
       126.93516344,
       37.52226324
      ],
      [
       126.93525881,
       37.52216439
      ],
      [
       126.93567455,
       37.52241882
      ]
     ]
    ]
   },
   "properties": {
    "label": "타워1 외형선",
    "kind": "타워1 외형선",
    "height_m": 70.0
   }
  },
  {
   "type": "Feature",
   "geometry": {
    "type": "Polygon",
    "coordinates": [
     [
      [
       126.93579956,
       37.52228924
      ],
      [
       126.93570418,
       37.52238811
      ],
      [
       126.93528845,
       37.52213366
      ],
      [
       126.93538382,
       37.52203481
      ],
      [
       126.93579956,
       37.52228924
      ]
     ]
    ]
   },
   "properties": {
    "label": "타워2 외형선",
    "kind": "타워2 외형선",
    "height_m": 70.0
   }
  },
  {
   "type": "Feature",
   "geometry": {
    "type": "Polygon",
    "coordinates": [
     [
      [
       126.93592457,
       37.52215968
      ],
      [
       126.93582919,
       37.52225853
      ],
      [
       126.93541347,
       37.52200409
      ],
      [
       126.93550883,
       37.52190523
      ],
      [
       126.93592457,
       37.52215968
      ]
     ]
    ]
   },
   "properties": {
    "label": "타워3 외형선",
    "kind": "타워3 외형선",
    "height_m": 70.0
   }
  },
  {
   "type": "Feature",
   "geometry": {
    "type": "Polygon",
    "coordinates": [
     [
      [
       126.93604958,
       37.5220301
      ],
      [
       126.9359542,
       37.52212895
      ],
      [
       126.93553848,
       37.52187452
      ],
      [
       126.93563384,
       37.52177566
      ],
      [
       126.93604958,
       37.5220301
      ]
     ]
    ]
   },
   "properties": {
    "label": "타워4 외형선",
    "kind": "타워4 외형선",
    "height_m": 70.0
   }
  },
  {
   "type": "Feature",
   "geometry": {
    "type": "Polygon",
    "coordinates": [
     [
      [
       126.93527217,
       37.52150157
      ],
      [
       126.93473908,
       37.52204503
      ],
      [
       126.93583321,
       37.52272589
      ],
      [
       126.93636631,
       37.52218242
      ],
      [
       126.93527217,
       37.52150157
      ]
     ]
    ]
   },
   "properties": {
    "label": "화랑 대지",
    "kind": "대지",
    "area_m2": 9395
   }
  }
 ]
}