{
 "type": "FeatureCollection",
 "features": [
  {
   "type": "Feature",
   "geometry": {
    "type": "Polygon",
    "coordinates": [
     [
      [
       194313.694,
       546994.271
      ],
      [
       194305.27,
       547005.249
      ],
      [
       194268.501,
       546977.034
      ],
      [
       194276.924,
       546966.057
      ],
      [
       194313.694,
       546994.271
      ]
     ]
    ]
   },
   "properties": {
    "label": "타워1 외형선",
    "kind": "타워1 외형선",
    "height_m": 70.0
   }
  },
  {
   "type": "Feature",
   "geometry": {
    "type": "Polygon",
    "coordinates": [
     [
      [
       194324.735,
       546979.882
      ],
      [
       194316.311,
       546990.86
      ],
      [
       194279.542,
       546962.645
      ],
      [
       194287.965,
       546951.668
      ],
      [
       194324.735,
       546979.882
      ]
     ]
    ]
   },
   "properties": {
    "label": "타워2 외형선",
    "kind": "타워2 외형선",
    "height_m": 70.0
   }
  },
  {
   "type": "Feature",
   "geometry": {
    "type": "Polygon",
    "coordinates": [
     [
      [
       194335.776,
       546965.494
      ],
      [
       194327.352,
       546976.471
      ],
      [
       194290.583,
       546948.257
      ],
      [
       194299.006,
       546937.279
      ],
      [
       194335.776,
       546965.494
      ]
     ]
    ]
   },
   "properties": {
    "label": "타워3 외형선",
    "kind": "타워3 외형선",
    "height_m": 70.0
   }
  },
  {
   "type": "Feature",
   "geometry": {
    "type": "Polygon",
    "coordinates": [
     [
      [
       194346.817,
       546951.105
      ],
      [
       194338.393,
       546962.082
      ],
      [
       194301.624,
       546933.868
      ],
      [
       194310.047,
       546922.89
      ],
      [
       194346.817,
       546951.105
      ]
     ]
    ]
   },
   "properties": {
    "label": "타워4 외형선",
    "kind": "타워4 외형선",
    "height_m": 70.0
   }
  },
  {
   "type": "Feature",
   "geometry": {
    "type": "Polygon",
    "coordinates": [
     [
      [
       194278.054,
       546892.492
      ],
      [
       194230.971,
       546952.842
      ],
      [
       194327.743,
       547028.342
      ],
      [
       194374.827,
       546967.992
      ],
      [
       194278.054,
       546892.492
      ]
     ]
    ]
   },
   "properties": {
    "label": "화랑 대지",
    "kind": "대지",
    "area_m2": 9395
   }
  }
 ],
 "crs": {
  "type": "name",
  "properties": {
   "name": "urn:ogc:def:crs:EPSG::5186"
  }
 }
}