{
 "type": "FeatureCollection",
 "features": [
  {
   "type": "Feature",
   "geometry": {
    "type": "Polygon",
    "coordinates": [
     [
      [
       126.93574331,
       37.52233397
      ],
      [
       126.9356445,
       37.52247006
      ],
      [
       126.93540288,
       37.52235878
      ],
      [
       126.93550168,
       37.52222268
      ],
      [
       126.93574331,
       37.52233397
      ]
     ]
    ]
   },
   "properties": {
    "label": "타워1 외형선",
    "kind": "타워1 외형선",
    "height_m": 70.0
   }
  },
  {
   "type": "Feature",
   "geometry": {
    "type": "Polygon",
    "coordinates": [
     [
      [
       126.93586478,
       37.52216666
      ],
      [
       126.93576596,
       37.52230276
      ],
      [
       126.93552433,
       37.52219148
      ],
      [
       126.93562315,
       37.52205537
      ],
      [
       126.93586478,
       37.52216666
      ]
     ]
    ]
   },
   "properties": {
    "label": "타워2 외형선",
    "kind": "타워2 외형선",
    "height_m": 70.0
   }
  },
  {
   "type": "Feature",
   "geometry": {
    "type": "Polygon",
    "coordinates": [
     [
      [
       126.93598623,
       37.52199937
      ],
      [
       126.93588743,
       37.52213546
      ],
      [
       126.9356458,
       37.52202418
      ],
      [
       126.93574461,
       37.52188808
      ],
      [
       126.93598623,
       37.52199937
      ]
     ]
    ]
   },
   "properties": {
    "label": "타워3 외형선",
    "kind": "타워3 외형선",
    "height_m": 70.0
   }
  },
  {
   "type": "Feature",
   "geometry": {
    "type": "Polygon",
    "coordinates": [
     [
      [
       126.93545957,
       37.52220328
      ],
      [
       126.93536077,
       37.52233938
      ],
      [
       126.93511914,
       37.52222809
      ],
      [
       126.93521795,
       37.522092
      ],
      [
       126.93545957,
       37.52220328
      ]
     ]
    ]
   },
   "properties": {
    "label": "타워4 외형선",
    "kind": "타워4 외형선",
    "height_m": 70.0
   }
  },
  {
   "type": "Feature",
   "geometry": {
    "type": "Polygon",
    "coordinates": [
     [
      [
       126.93558104,
       37.52203598
      ],
      [
       126.93548222,
       37.52217209
      ],
      [
       126.9352406,
       37.5220608
      ],
      [
       126.93533942,
       37.52192469
      ],
      [
       126.93558104,
       37.52203598
      ]
     ]
    ]
   },
   "properties": {
    "label": "타워5 외형선",
    "kind": "타워5 외형선",
    "height_m": 70.0
   }
  },
  {
   "type": "Feature",
   "geometry": {
    "type": "Polygon",
    "coordinates": [
     [
      [
       126.9357025,
       37.52186869
      ],
      [
       126.93560369,
       37.52200478
      ],
      [
       126.93536207,
       37.52189349
      ],
      [
       126.93546087,
       37.5217574
      ],
      [
       126.9357025,
       37.52186869
      ]
     ]
    ]
   },
   "properties": {
    "label": "타워6 외형선",
    "kind": "타워6 외형선",
    "height_m": 70.0
   }
  },
  {
   "type": "Feature",
   "geometry": {
    "type": "Polygon",
    "coordinates": [
     [
      [
       126.93527217,
       37.52150157
      ],
      [
       126.93473908,
       37.52204503
      ],
      [
       126.93583321,
       37.52272589
      ],
      [
       126.93636631,
       37.52218242
      ],
      [
       126.93527217,
       37.52150157
      ]
     ]
    ]
   },
   "properties": {
    "label": "화랑 대지",
    "kind": "대지",
    "area_m2": 9395
   }
  }
 ]
}