{
 "type": "FeatureCollection",
 "features": [
  {
   "type": "Feature",
   "geometry": {
    "type": "Polygon",
    "coordinates": [
     [
      [
       194304.244,
       546916.832
      ],
      [
       194313.439,
       546924.016
      ],
      [
       194284.905,
       546960.538
      ],
      [
       194275.709,
       546953.354
      ],
      [
       194304.244,
       546916.832
      ]
     ]
    ]
   },
   "properties": {
    "label": "타워1 외형선",
    "kind": "타워1 외형선",
    "height_m": 70.0
   }
  },
  {
   "type": "Feature",
   "geometry": {
    "type": "Polygon",
    "coordinates": [
     [
      [
       194316.828,
       546926.664
      ],
      [
       194326.024,
       546933.848
      ],
      [
       194297.489,
       546970.37
      ],
      [
       194288.293,
       546963.186
      ],
      [
       194316.828,
       546926.664
      ]
     ]
    ]
   },
   "properties": {
    "label": "타워2 외형선",
    "kind": "타워2 외형선",
    "height_m": 70.0
   }
  },
  {
   "type": "Feature",
   "geometry": {
    "type": "Polygon",
    "coordinates": [
     [
      [
       194329.412,
       546936.495
      ],
      [
       194338.608,
       546943.68
      ],
      [
       194310.073,
       546980.202
      ],
      [
       194300.878,
       546973.018
      ],
      [
       194329.412,
       546936.495
      ]
     ]
    ]
   },
   "properties": {
    "label": "타워3 외형선",
    "kind": "타워3 외형선",
    "height_m": 70.0
   }
  },
  {
   "type": "Feature",
   "geometry": {
    "type": "Polygon",
    "coordinates": [
     [
      [
       194341.996,
       546946.327
      ],
      [
       194351.192,
       546953.512
      ],
      [
       194322.657,
       546990.034
      ],
      [
       194313.462,
       546982.849
      ],
      [
       194341.996,
       546946.327
      ]
     ]
    ]
   },
   "properties": {
    "label": "타워4 외형선",
    "kind": "타워4 외형선",
    "height_m": 70.0
   }
  },
  {
   "type": "Feature",
   "geometry": {
    "type": "Polygon",
    "coordinates": [
     [
      [
       194354.58,
       546956.159
      ],
      [
       194363.776,
       546963.343
      ],
      [
       194335.242,
       546999.866
      ],
      [
       194326.046,
       546992.681
      ],
      [
       194354.58,
       546956.159
      ]
     ]
    ]
   },
   "properties": {
    "label": "타워5 외형선",
    "kind": "타워5 외형선",
    "height_m": 70.0
   }
  },
  {
   "type": "Feature",
   "geometry": {
    "type": "Polygon",
    "coordinates": [
     [
      [
       194278.054,
       546892.492
      ],
      [
       194230.971,
       546952.842
      ],
      [
       194327.743,
       547028.342
      ],
      [
       194374.827,
       546967.992
      ],
      [
       194278.054,
       546892.492
      ]
     ]
    ]
   },
   "properties": {
    "label": "화랑 대지",
    "kind": "대지",
    "area_m2": 9395
   }
  }
 ],
 "crs": {
  "type": "name",
  "properties": {
   "name": "urn:ogc:def:crs:EPSG::5186"
  }
 }
}