{
 "type": "FeatureCollection",
 "features": [
  {
   "type": "Feature",
   "geometry": {
    "type": "Polygon",
    "coordinates": [
     [
      [
       194365.219,
       546966.081
      ],
      [
       194337.704,
       547002.595
      ],
      [
       194300.181,
       546974.319
      ],
      [
       194327.696,
       546937.805
      ],
      [
       194365.219,
       546966.081
      ]
     ]
    ]
   },
   "properties": {
    "label": "타워1 외형선",
    "kind": "타워1 외형선",
    "height_m": 70.0
   }
  },
  {
   "type": "Feature",
   "geometry": {
    "type": "Polygon",
    "coordinates": [
     [
      [
       194278.054,
       546892.492
      ],
      [
       194230.971,
       546952.842
      ],
      [
       194327.743,
       547028.342
      ],
      [
       194374.827,
       546967.992
      ],
      [
       194278.054,
       546892.492
      ]
     ]
    ]
   },
   "properties": {
    "label": "화랑 대지",
    "kind": "대지",
    "area_m2": 9395
   }
  }
 ],
 "crs": {
  "type": "name",
  "properties": {
   "name": "urn:ogc:def:crs:EPSG::5186"
  }
 }
}