{"type": "FeatureCollection", "features": [{"type": "Feature", "geometry": {"type": "Polygon", "coordinates": [[[194328.36964778628, 546946.3246380624], [194327.84772195554, 546946.3383061606], [194327.3471178804, 546946.486592875], [194326.90195090123, 546946.7593927106], [194326.54255841204, 546947.1381148098], [194326.293432417, 546947.5969498872], [194326.171550441, 546948.1046290906], [194320.6755595559, 547000.3964423279], [194320.6892276542, 547000.9183681586], [194320.83751436844, 547001.4189722338], [194321.11031420412, 547001.864139213], [194321.4890363033, 547002.2235317022], [194321.94787138075, 547002.4726576972], [194322.45555058419, 547002.5945396732], [194329.01939640052, 547003.2844150963], [194329.54132223123, 547003.2707469979], [194330.0419263064, 547003.1224602837], [194330.48709328557, 547002.849660448], [194330.84648577476, 547002.4709383488], [194331.0956117698, 547002.0121032714], [194331.2174937458, 547001.5044240679], [194336.7134846309, 546949.2126108307], [194336.6998165326, 546948.6906849999], [194336.55152981836, 546948.1900809248], [194336.27872998267, 546947.7449139457], [194335.9000078835, 546947.3855214565], [194335.44117280605, 546947.1363954614], [194334.9334936026, 546947.0145134855], [194328.36964778628, 546946.3246380624]]]}, "properties": {"floor": 1, "z_bottom_m": 0.0, "z_top_m": 3.3, "height_m": 3.3, "area_m2": 596.17, "kind": "lobby"}}, {"type": "Feature", "geometry": {"type": "Polygon", "coordinates": [[[194326.53739346837, 546944.6238017639], [194326.01546763766, 546944.6374698621], [194325.51486356248, 546944.7857565763], [194325.06969658332, 546945.0585564121], [194324.71030409413, 546945.4372785112], [194324.4611780991, 546945.8961135887], [194324.3392961231, 546946.4037927921], [194318.52972550027, 547001.6791723096], [194318.54339359855, 547002.2010981402], [194318.6916803128, 547002.7017022154], [194318.96448014848, 547003.1468691946], [194319.34320224766, 547003.5062616838], [194319.8020373251, 547003.7553876787], [194320.30971652854, 547003.8772696548], [194328.86260653165, 547004.7761982363], [194329.38453236237, 547004.762530138], [194329.88513643754, 547004.6142434238], [194330.3303034167, 547004.341443588], [194330.6896959059, 547003.9627214889], [194330.93882190093, 547003.5038864114], [194331.06070387692, 547002.996207208], [194336.87027449976, 546947.7208276906], [194336.85660640147, 546947.1989018599], [194336.70831968723, 546946.6982977848], [194336.43551985154, 546946.2531308056], [194336.05679775236, 546945.8937383164], [194335.59796267492, 546945.6446123214], [194335.09028347148, 546945.5227303454], [194326.53739346837, 546944.6238017639]]]}, "properties": {"floor": 2, "z_bottom_m": 3.3, "z_top_m": 6.6, "height_m": 3.3, "area_m2": 747.13, "kind": "base"}}, {"type": "Feature", "geometry": {"type": "Polygon", "coordinates": [[[194326.45377220496, 546945.4194194386], [194325.93184637424, 546945.4330875368], [194325.4312422991, 546945.581374251], [194324.98607531993, 546945.8541740868], [194324.62668283074, 546946.232896186], [194324.3775568357, 546946.6917312634], [194324.2556748597, 546947.1994104668], [194318.44610423688, 547002.4747899842], [194318.45977233516, 547002.9967158149], [194318.6080590494, 547003.4973198901], [194318.8808588851, 547003.9424868693], [194319.25958098425, 547004.3018793585], [194319.7184160617, 547004.5510053535], [194320.22609526516, 547004.6728873295], [194328.77898526826, 547005.571815911], [194329.30091109898, 547005.5581478127], [194329.80151517413, 547005.4098610985], [194330.2466821533, 547005.1370612627], [194330.6060746425, 547004.7583391636], [194330.85520063754, 547004.2995040861], [194330.9770826135, 547003.7918248827], [194336.78665323637, 546948.5164453653], [194336.7729851381, 546947.9945195346], [194336.62469842384, 546947.4939154595], [194336.35189858812, 546947.0487484803], [194335.97317648897, 546946.6893559911], [194335.51434141153, 546946.4402299961], [194335.0066622081, 546946.3183480201], [194326.45377220496, 546945.4194194386]]]}, "properties": {"floor": 3, "z_bottom_m": 6.6, "z_top_m": 9.9, "height_m": 3.3, "area_m2": 747.13, "kind": "A"}}, {"type": "Feature", "geometry": {"type": "Polygon", "coordinates": [[[194326.45377220496, 546945.4194194386], [194325.93184637424, 546945.4330875368], [194325.4312422991, 546945.581374251], [194324.98607531993, 546945.8541740868], [194324.62668283074, 546946.232896186], [194324.3775568357, 546946.6917312634], [194324.2556748597, 546947.1994104668], [194318.44610423688, 547002.4747899842], [194318.45977233516, 547002.9967158149], [194318.6080590494, 547003.4973198901], [194318.8808588851, 547003.9424868693], [194319.25958098425, 547004.3018793585], [194319.7184160617, 547004.5510053535], [194320.22609526516, 547004.6728873295], [194328.77898526826, 547005.571815911], [194329.30091109898, 547005.5581478127], [194329.80151517413, 547005.4098610985], [194330.2466821533, 547005.1370612627], [194330.6060746425, 547004.7583391636], [194330.85520063754, 547004.2995040861], [194330.9770826135, 547003.7918248827], [194336.78665323637, 546948.5164453653], [194336.7729851381, 546947.9945195346], [194336.62469842384, 546947.4939154595], [194336.35189858812, 546947.0487484803], [194335.97317648897, 546946.6893559911], [194335.51434141153, 546946.4402299961], [194335.0066622081, 546946.3183480201], [194326.45377220496, 546945.4194194386]]]}, "properties": {"floor": 4, "z_bottom_m": 9.9, "z_top_m": 13.2, "height_m": 3.3, "area_m2": 747.13, "kind": "A"}}, {"type": "Feature", "geometry": {"type": "Polygon", "coordinates": [[[194326.45377220496, 546945.4194194386], [194325.93184637424, 546945.4330875368], [194325.4312422991, 546945.581374251], [194324.98607531993, 546945.8541740868], [194324.62668283074, 546946.232896186], [194324.3775568357, 546946.6917312634], [194324.2556748597, 546947.1994104668], [194318.44610423688, 547002.4747899842], [194318.45977233516, 547002.9967158149], [194318.6080590494, 547003.4973198901], [194318.8808588851, 547003.9424868693], [194319.25958098425, 547004.3018793585], [194319.7184160617, 547004.5510053535], [194320.22609526516, 547004.6728873295], [194328.77898526826, 547005.571815911], [194329.30091109898, 547005.5581478127], [194329.80151517413, 547005.4098610985], [194330.2466821533, 547005.1370612627], [194330.6060746425, 547004.7583391636], [194330.85520063754, 547004.2995040861], [194330.9770826135, 547003.7918248827], [194336.78665323637, 546948.5164453653], [194336.7729851381, 546947.9945195346], [194336.62469842384, 546947.4939154595], [194336.35189858812, 546947.0487484803], [194335.97317648897, 546946.6893559911], [194335.51434141153, 546946.4402299961], [194335.0066622081, 546946.3183480201], [194326.45377220496, 546945.4194194386]]]}, "properties": {"floor": 5, "z_bottom_m": 13.2, "z_top_m": 16.5, "height_m": 3.3, "area_m2": 747.13, "kind": "A"}}, {"type": "Feature", "geometry": {"type": "Polygon", "coordinates": [[[194326.45377220496, 546945.4194194386], [194325.93184637424, 546945.4330875368], [194325.4312422991, 546945.581374251], [194324.98607531993, 546945.8541740868], [194324.62668283074, 546946.232896186], [194324.3775568357, 546946.6917312634], [194324.2556748597, 546947.1994104668], [194318.44610423688, 547002.4747899842], [194318.45977233516, 547002.9967158149], [194318.6080590494, 547003.4973198901], [194318.8808588851, 547003.9424868693], [194319.25958098425, 547004.3018793585], [194319.7184160617, 547004.5510053535], [194320.22609526516, 547004.6728873295], [194328.77898526826, 547005.571815911], [194329.30091109898, 547005.5581478127], [194329.80151517413, 547005.4098610985], [194330.2466821533, 547005.1370612627], [194330.6060746425, 547004.7583391636], [194330.85520063754, 547004.2995040861], [194330.9770826135, 547003.7918248827], [194336.78665323637, 546948.5164453653], [194336.7729851381, 546947.9945195346], [194336.62469842384, 546947.4939154595], [194336.35189858812, 546947.0487484803], [194335.97317648897, 546946.6893559911], [194335.51434141153, 546946.4402299961], [194335.0066622081, 546946.3183480201], [194326.45377220496, 546945.4194194386]]]}, "properties": {"floor": 6, "z_bottom_m": 16.5, "z_top_m": 19.8, "height_m": 3.3, "area_m2": 747.13, "kind": "A"}}, {"type": "Feature", "geometry": {"type": "Polygon", "coordinates": [[[194326.45377220496, 546945.4194194386], [194325.93184637424, 546945.4330875368], [194325.4312422991, 546945.581374251], [194324.98607531993, 546945.8541740868], [194324.62668283074, 546946.232896186], [194324.3775568357, 546946.6917312634], [194324.2556748597, 546947.1994104668], [194318.44610423688, 547002.4747899842], [194318.45977233516, 547002.9967158149], [194318.6080590494, 547003.4973198901], [194318.8808588851, 547003.9424868693], [194319.25958098425, 547004.3018793585], [194319.7184160617, 547004.5510053535], [194320.22609526516, 547004.6728873295], [194328.77898526826, 547005.571815911], [194329.30091109898, 547005.5581478127], [194329.80151517413, 547005.4098610985], [194330.2466821533, 547005.1370612627], [194330.6060746425, 547004.7583391636], [194330.85520063754, 547004.2995040861], [194330.9770826135, 547003.7918248827], [194336.78665323637, 546948.5164453653], [194336.7729851381, 546947.9945195346], [194336.62469842384, 546947.4939154595], [194336.35189858812, 546947.0487484803], [194335.97317648897, 546946.6893559911], [194335.51434141153, 546946.4402299961], [194335.0066622081, 546946.3183480201], [194326.45377220496, 546945.4194194386]]]}, "properties": {"floor": 7, "z_bottom_m": 19.8, "z_top_m": 23.1, "height_m": 3.3, "area_m2": 747.13, "kind": "A"}}, {"type": "Feature", "geometry": {"type": "Polygon", "coordinates": [[[194326.45377220496, 546945.4194194386], [194325.93184637424, 546945.4330875368], [194325.4312422991, 546945.581374251], [194324.98607531993, 546945.8541740868], [194324.62668283074, 546946.232896186], [194324.3775568357, 546946.6917312634], [194324.2556748597, 546947.1994104668], [194318.44610423688, 547002.4747899842], [194318.45977233516, 547002.9967158149], [194318.6080590494, 547003.4973198901], [194318.8808588851, 547003.9424868693], [194319.25958098425, 547004.3018793585], [194319.7184160617, 547004.5510053535], [194320.22609526516, 547004.6728873295], [194328.77898526826, 547005.571815911], [194329.30091109898, 547005.5581478127], [194329.80151517413, 547005.4098610985], [194330.2466821533, 547005.1370612627], [194330.6060746425, 547004.7583391636], [194330.85520063754, 547004.2995040861], [194330.9770826135, 547003.7918248827], [194336.78665323637, 546948.5164453653], [194336.7729851381, 546947.9945195346], [194336.62469842384, 546947.4939154595], [194336.35189858812, 546947.0487484803], [194335.97317648897, 546946.6893559911], [194335.51434141153, 546946.4402299961], [194335.0066622081, 546946.3183480201], [194326.45377220496, 546945.4194194386]]]}, "properties": {"floor": 8, "z_bottom_m": 23.1, "z_top_m": 26.4, "height_m": 3.3, "area_m2": 747.13, "kind": "A"}}, {"type": "Feature", "geometry": {"type": "Polygon", "coordinates": [[[194326.45377220496, 546945.4194194386], [194325.93184637424, 546945.4330875368], [194325.4312422991, 546945.581374251], [194324.98607531993, 546945.8541740868], [194324.62668283074, 546946.232896186], [194324.3775568357, 546946.6917312634], [194324.2556748597, 546947.1994104668], [194318.44610423688, 547002.4747899842], [194318.45977233516, 547002.9967158149], [194318.6080590494, 547003.4973198901], [194318.8808588851, 547003.9424868693], [194319.25958098425, 547004.3018793585], [194319.7184160617, 547004.5510053535], [194320.22609526516, 547004.6728873295], [194328.77898526826, 547005.571815911], [194329.30091109898, 547005.5581478127], [194329.80151517413, 547005.4098610985], [194330.2466821533, 547005.1370612627], [194330.6060746425, 547004.7583391636], [194330.85520063754, 547004.2995040861], [194330.9770826135, 547003.7918248827], [194336.78665323637, 546948.5164453653], [194336.7729851381, 546947.9945195346], [194336.62469842384, 546947.4939154595], [194336.35189858812, 546947.0487484803], [194335.97317648897, 546946.6893559911], [194335.51434141153, 546946.4402299961], [194335.0066622081, 546946.3183480201], [194326.45377220496, 546945.4194194386]]]}, "properties": {"floor": 9, "z_bottom_m": 26.4, "z_top_m": 29.7, "height_m": 3.3, "area_m2": 747.13, "kind": "A"}}, {"type": "Feature", "geometry": {"type": "Polygon", "coordinates": [[[194326.45377220496, 546945.4194194386], [194325.93184637424, 546945.4330875368], [194325.4312422991, 546945.581374251], [194324.98607531993, 546945.8541740868], [194324.62668283074, 546946.232896186], [194324.3775568357, 546946.6917312634], [194324.2556748597, 546947.1994104668], [194318.44610423688, 547002.4747899842], [194318.45977233516, 547002.9967158149], [194318.6080590494, 547003.4973198901], [194318.8808588851, 547003.9424868693], [194319.25958098425, 547004.3018793585], [194319.7184160617, 547004.5510053535], [194320.22609526516, 547004.6728873295], [194328.77898526826, 547005.571815911], [194329.30091109898, 547005.5581478127], [194329.80151517413, 547005.4098610985], [194330.2466821533, 547005.1370612627], [194330.6060746425, 547004.7583391636], [194330.85520063754, 547004.2995040861], [194330.9770826135, 547003.7918248827], [194336.78665323637, 546948.5164453653], [194336.7729851381, 546947.9945195346], [194336.62469842384, 546947.4939154595], [194336.35189858812, 546947.0487484803], [194335.97317648897, 546946.6893559911], [194335.51434141153, 546946.4402299961], [194335.0066622081, 546946.3183480201], [194326.45377220496, 546945.4194194386]]]}, "properties": {"floor": 10, "z_bottom_m": 29.7, "z_top_m": 33.0, "height_m": 3.3, "area_m2": 747.13, "kind": "A"}}, {"type": "Feature", "geometry": {"type": "Polygon", "coordinates": [[[194326.45377220496, 546945.4194194386], [194325.93184637424, 546945.4330875368], [194325.4312422991, 546945.581374251], [194324.98607531993, 546945.8541740868], [194324.62668283074, 546946.232896186], [194324.3775568357, 546946.6917312634], [194324.2556748597, 546947.1994104668], [194318.44610423688, 547002.4747899842], [194318.45977233516, 547002.9967158149], [194318.6080590494, 547003.4973198901], [194318.8808588851, 547003.9424868693], [194319.25958098425, 547004.3018793585], [194319.7184160617, 547004.5510053535], [194320.22609526516, 547004.6728873295], [194328.77898526826, 547005.571815911], [194329.30091109898, 547005.5581478127], [194329.80151517413, 547005.4098610985], [194330.2466821533, 547005.1370612627], [194330.6060746425, 547004.7583391636], [194330.85520063754, 547004.2995040861], [194330.9770826135, 547003.7918248827], [194336.78665323637, 546948.5164453653], [194336.7729851381, 546947.9945195346], [194336.62469842384, 546947.4939154595], [194336.35189858812, 546947.0487484803], [194335.97317648897, 546946.6893559911], [194335.51434141153, 546946.4402299961], [194335.0066622081, 546946.3183480201], [194326.45377220496, 546945.4194194386]]]}, "properties": {"floor": 11, "z_bottom_m": 33.0, "z_top_m": 36.3, "height_m": 3.3, "area_m2": 747.13, "kind": "A"}}, {"type": "Feature", "geometry": {"type": "Polygon", "coordinates": [[[194326.45377220496, 546945.4194194386], [194325.93184637424, 546945.4330875368], [194325.4312422991, 546945.581374251], [194324.98607531993, 546945.8541740868], [194324.62668283074, 546946.232896186], [194324.3775568357, 546946.6917312634], [194324.2556748597, 546947.1994104668], [194318.44610423688, 547002.4747899842], [194318.45977233516, 547002.9967158149], [194318.6080590494, 547003.4973198901], [194318.8808588851, 547003.9424868693], [194319.25958098425, 547004.3018793585], [194319.7184160617, 547004.5510053535], [194320.22609526516, 547004.6728873295], [194328.77898526826, 547005.571815911], [194329.30091109898, 547005.5581478127], [194329.80151517413, 547005.4098610985], [194330.2466821533, 547005.1370612627], [194330.6060746425, 547004.7583391636], [194330.85520063754, 547004.2995040861], [194330.9770826135, 547003.7918248827], [194336.78665323637, 546948.5164453653], [194336.7729851381, 546947.9945195346], [194336.62469842384, 546947.4939154595], [194336.35189858812, 546947.0487484803], [194335.97317648897, 546946.6893559911], [194335.51434141153, 546946.4402299961], [194335.0066622081, 546946.3183480201], [194326.45377220496, 546945.4194194386]]]}, "properties": {"floor": 12, "z_bottom_m": 36.3, "z_top_m": 39.6, "height_m": 3.3, "area_m2": 747.13, "kind": "A"}}, {"type": "Feature", "geometry": {"type": "Polygon", "coordinates": [[[194326.45377220496, 546945.4194194386], [194325.93184637424, 546945.4330875368], [194325.4312422991, 546945.581374251], [194324.98607531993, 546945.8541740868], [194324.62668283074, 546946.232896186], [194324.3775568357, 546946.6917312634], [194324.2556748597, 546947.1994104668], [194318.44610423688, 547002.4747899842], [194318.45977233516, 547002.9967158149], [194318.6080590494, 547003.4973198901], [194318.8808588851, 547003.9424868693], [194319.25958098425, 547004.3018793585], [194319.7184160617, 547004.5510053535], [194320.22609526516, 547004.6728873295], [194328.77898526826, 547005.571815911], [194329.30091109898, 547005.5581478127], [194329.80151517413, 547005.4098610985], [194330.2466821533, 547005.1370612627], [194330.6060746425, 547004.7583391636], [194330.85520063754, 547004.2995040861], [194330.9770826135, 547003.7918248827], [194336.78665323637, 546948.5164453653], [194336.7729851381, 546947.9945195346], [194336.62469842384, 546947.4939154595], [194336.35189858812, 546947.0487484803], [194335.97317648897, 546946.6893559911], [194335.51434141153, 546946.4402299961], [194335.0066622081, 546946.3183480201], [194326.45377220496, 546945.4194194386]]]}, "properties": {"floor": 13, "z_bottom_m": 39.6, "z_top_m": 42.9, "height_m": 3.3, "area_m2": 747.13, "kind": "A"}}, {"type": "Feature", "geometry": {"type": "Polygon", "coordinates": [[[194326.45377220496, 546945.4194194386], [194325.93184637424, 546945.4330875368], [194325.4312422991, 546945.581374251], [194324.98607531993, 546945.8541740868], [194324.62668283074, 546946.232896186], [194324.3775568357, 546946.6917312634], [194324.2556748597, 546947.1994104668], [194318.44610423688, 547002.4747899842], [194318.45977233516, 547002.9967158149], [194318.6080590494, 547003.4973198901], [194318.8808588851, 547003.9424868693], [194319.25958098425, 547004.3018793585], [194319.7184160617, 547004.5510053535], [194320.22609526516, 547004.6728873295], [194328.77898526826, 547005.571815911], [194329.30091109898, 547005.5581478127], [194329.80151517413, 547005.4098610985], [194330.2466821533, 547005.1370612627], [194330.6060746425, 547004.7583391636], [194330.85520063754, 547004.2995040861], [194330.9770826135, 547003.7918248827], [194336.78665323637, 546948.5164453653], [194336.7729851381, 546947.9945195346], [194336.62469842384, 546947.4939154595], [194336.35189858812, 546947.0487484803], [194335.97317648897, 546946.6893559911], [194335.51434141153, 546946.4402299961], [194335.0066622081, 546946.3183480201], [194326.45377220496, 546945.4194194386]]]}, "properties": {"floor": 14, "z_bottom_m": 42.9, "z_top_m": 46.2, "height_m": 3.3, "area_m2": 747.13, "kind": "A"}}, {"type": "Feature", "geometry": {"type": "Polygon", "coordinates": [[[194326.45377220496, 546945.4194194386], [194325.93184637424, 546945.4330875368], [194325.4312422991, 546945.581374251], [194324.98607531993, 546945.8541740868], [194324.62668283074, 546946.232896186], [194324.3775568357, 546946.6917312634], [194324.2556748597, 546947.1994104668], [194318.44610423688, 547002.4747899842], [194318.45977233516, 547002.9967158149], [194318.6080590494, 547003.4973198901], [194318.8808588851, 547003.9424868693], [194319.25958098425, 547004.3018793585], [194319.7184160617, 547004.5510053535], [194320.22609526516, 547004.6728873295], [194328.77898526826, 547005.571815911], [194329.30091109898, 547005.5581478127], [194329.80151517413, 547005.4098610985], [194330.2466821533, 547005.1370612627], [194330.6060746425, 547004.7583391636], [194330.85520063754, 547004.2995040861], [194330.9770826135, 547003.7918248827], [194336.78665323637, 546948.5164453653], [194336.7729851381, 546947.9945195346], [194336.62469842384, 546947.4939154595], [194336.35189858812, 546947.0487484803], [194335.97317648897, 546946.6893559911], [194335.51434141153, 546946.4402299961], [194335.0066622081, 546946.3183480201], [194326.45377220496, 546945.4194194386]]]}, "properties": {"floor": 15, "z_bottom_m": 46.2, "z_top_m": 49.5, "height_m": 3.3, "area_m2": 747.13, "kind": "A"}}, {"type": "Feature", "geometry": {"type": "Polygon", "coordinates": [[[194326.45377220496, 546945.4194194386], [194325.93184637424, 546945.4330875368], [194325.4312422991, 546945.581374251], [194324.98607531993, 546945.8541740868], [194324.62668283074, 546946.232896186], [194324.3775568357, 546946.6917312634], [194324.2556748597, 546947.1994104668], [194318.44610423688, 547002.4747899842], [194318.45977233516, 547002.9967158149], [194318.6080590494, 547003.4973198901], [194318.8808588851, 547003.9424868693], [194319.25958098425, 547004.3018793585], [194319.7184160617, 547004.5510053535], [194320.22609526516, 547004.6728873295], [194328.77898526826, 547005.571815911], [194329.30091109898, 547005.5581478127], [194329.80151517413, 547005.4098610985], [194330.2466821533, 547005.1370612627], [194330.6060746425, 547004.7583391636], [194330.85520063754, 547004.2995040861], [194330.9770826135, 547003.7918248827], [194336.78665323637, 546948.5164453653], [194336.7729851381, 546947.9945195346], [194336.62469842384, 546947.4939154595], [194336.35189858812, 546947.0487484803], [194335.97317648897, 546946.6893559911], [194335.51434141153, 546946.4402299961], [194335.0066622081, 546946.3183480201], [194326.45377220496, 546945.4194194386]]]}, "properties": {"floor": 16, "z_bottom_m": 49.5, "z_top_m": 52.8, "height_m": 3.3, "area_m2": 747.13, "kind": "A"}}, {"type": "Feature", "geometry": {"type": "Polygon", "coordinates": [[[194326.45377220496, 546945.4194194386], [194325.93184637424, 546945.4330875368], [194325.4312422991, 546945.581374251], [194324.98607531993, 546945.8541740868], [194324.62668283074, 546946.232896186], [194324.3775568357, 546946.6917312634], [194324.2556748597, 546947.1994104668], [194318.44610423688, 547002.4747899842], [194318.45977233516, 547002.9967158149], [194318.6080590494, 547003.4973198901], [194318.8808588851, 547003.9424868693], [194319.25958098425, 547004.3018793585], [194319.7184160617, 547004.5510053535], [194320.22609526516, 547004.6728873295], [194328.77898526826, 547005.571815911], [194329.30091109898, 547005.5581478127], [194329.80151517413, 547005.4098610985], [194330.2466821533, 547005.1370612627], [194330.6060746425, 547004.7583391636], [194330.85520063754, 547004.2995040861], [194330.9770826135, 547003.7918248827], [194336.78665323637, 546948.5164453653], [194336.7729851381, 546947.9945195346], [194336.62469842384, 546947.4939154595], [194336.35189858812, 546947.0487484803], [194335.97317648897, 546946.6893559911], [194335.51434141153, 546946.4402299961], [194335.0066622081, 546946.3183480201], [194326.45377220496, 546945.4194194386]]]}, "properties": {"floor": 17, "z_bottom_m": 52.8, "z_top_m": 56.1, "height_m": 3.3, "area_m2": 747.13, "kind": "A"}}, {"type": "Feature", "geometry": {"type": "Polygon", "coordinates": [[[194326.01546763766, 546944.6374698621], [194325.51486356248, 546944.7857565763], [194325.06969658332, 546945.0585564121], [194324.71030409413, 546945.4372785112], [194324.4611780991, 546945.8961135887], [194324.3392961231, 546946.4037927921], [194319.15688497573, 546995.7120397493], [194325.42237416407, 546996.3705571984], [194324.5861615301, 547004.3267339455], [194328.86260653165, 547004.7761982363], [194329.38453236237, 547004.762530138], [194329.88513643754, 547004.6142434238], [194330.3303034167, 547004.341443588], [194330.6896959059, 547003.9627214889], [194330.93882190093, 547003.5038864114], [194331.06070387692, 547002.996207208], [194336.2431150243, 546953.6879602509], [194329.97762583595, 546953.0294428017], [194330.8138384699, 546945.0732660546], [194326.53739346837, 546944.6238017639], [194326.01546763766, 546944.6374698621]]]}, "properties": {"floor": 18, "z_bottom_m": 56.1, "z_top_m": 59.4, "height_m": 3.3, "area_m2": 648.12, "kind": "sky"}}, {"type": "Feature", "geometry": {"type": "Polygon", "coordinates": [[[194326.62101473176, 546943.8281840892], [194326.09908890104, 546943.8418521874], [194325.5984848259, 546943.9901389016], [194325.15331784674, 546944.2629387374], [194324.79392535752, 546944.6416608365], [194324.54479936248, 546945.100495914], [194324.42291738652, 546945.6081751174], [194318.61334676365, 547000.8835546349], [194318.62701486194, 547001.4054804655], [194318.77530157618, 547001.9060845406], [194319.0481014119, 547002.3512515199], [194319.42682351105, 547002.710644009], [194319.8856585885, 547002.959770004], [194320.39333779193, 547003.08165198], [194328.94622779507, 547003.9805805616], [194329.46815362578, 547003.9669124633], [194329.96875770093, 547003.8186257491], [194330.4139246801, 547003.5458259133], [194330.77331716928, 547003.1671038142], [194331.02244316431, 547002.7082687367], [194331.1443251403, 547002.2005895333], [194336.95389576314, 546946.925210016], [194336.94022766486, 546946.4032841852], [194336.7919409506, 546945.9026801101], [194336.51914111493, 546945.4575131309], [194336.14041901578, 546945.0981206417], [194335.68158393833, 546944.8489946467], [194335.17390473487, 546944.7271126707], [194326.62101473176, 546943.8281840892]]]}, "properties": {"floor": 19, "z_bottom_m": 59.4, "z_top_m": 62.7, "height_m": 3.3, "area_m2": 747.13, "kind": "B"}}, {"type": "Feature", "geometry": {"type": "Polygon", "coordinates": [[[194326.62101473176, 546943.8281840892], [194326.09908890104, 546943.8418521874], [194325.5984848259, 546943.9901389016], [194325.15331784674, 546944.2629387374], [194324.79392535752, 546944.6416608365], [194324.54479936248, 546945.100495914], [194324.42291738652, 546945.6081751174], [194318.61334676365, 547000.8835546349], [194318.62701486194, 547001.4054804655], [194318.77530157618, 547001.9060845406], [194319.0481014119, 547002.3512515199], [194319.42682351105, 547002.710644009], [194319.8856585885, 547002.959770004], [194320.39333779193, 547003.08165198], [194328.94622779507, 547003.9805805616], [194329.46815362578, 547003.9669124633], [194329.96875770093, 547003.8186257491], [194330.4139246801, 547003.5458259133], [194330.77331716928, 547003.1671038142], [194331.02244316431, 547002.7082687367], [194331.1443251403, 547002.2005895333], [194336.95389576314, 546946.925210016], [194336.94022766486, 546946.4032841852], [194336.7919409506, 546945.9026801101], [194336.51914111493, 546945.4575131309], [194336.14041901578, 546945.0981206417], [194335.68158393833, 546944.8489946467], [194335.17390473487, 546944.7271126707], [194326.62101473176, 546943.8281840892]]]}, "properties": {"floor": 20, "z_bottom_m": 62.7, "z_top_m": 66.0, "height_m": 3.3, "area_m2": 747.13, "kind": "B"}}, {"type": "Feature", "geometry": {"type": "Polygon", "coordinates": [[[194326.62101473176, 546943.8281840892], [194326.09908890104, 546943.8418521874], [194325.5984848259, 546943.9901389016], [194325.15331784674, 546944.2629387374], [194324.79392535752, 546944.6416608365], [194324.54479936248, 546945.100495914], [194324.42291738652, 546945.6081751174], [194318.61334676365, 547000.8835546349], [194318.62701486194, 547001.4054804655], [194318.77530157618, 547001.9060845406], [194319.0481014119, 547002.3512515199], [194319.42682351105, 547002.710644009], [194319.8856585885, 547002.959770004], [194320.39333779193, 547003.08165198], [194328.94622779507, 547003.9805805616], [194329.46815362578, 547003.9669124633], [194329.96875770093, 547003.8186257491], [194330.4139246801, 547003.5458259133], [194330.77331716928, 547003.1671038142], [194331.02244316431, 547002.7082687367], [194331.1443251403, 547002.2005895333], [194336.95389576314, 546946.925210016], [194336.94022766486, 546946.4032841852], [194336.7919409506, 546945.9026801101], [194336.51914111493, 546945.4575131309], [194336.14041901578, 546945.0981206417], [194335.68158393833, 546944.8489946467], [194335.17390473487, 546944.7271126707], [194326.62101473176, 546943.8281840892]]]}, "properties": {"floor": 21, "z_bottom_m": 66.0, "z_top_m": 69.3, "height_m": 3.3, "area_m2": 747.13, "kind": "B"}}, {"type": "Feature", "geometry": {"type": "Polygon", "coordinates": [[[194326.62101473176, 546943.8281840892], [194326.09908890104, 546943.8418521874], [194325.5984848259, 546943.9901389016], [194325.15331784674, 546944.2629387374], [194324.79392535752, 546944.6416608365], [194324.54479936248, 546945.100495914], [194324.42291738652, 546945.6081751174], [194318.61334676365, 547000.8835546349], [194318.62701486194, 547001.4054804655], [194318.77530157618, 547001.9060845406], [194319.0481014119, 547002.3512515199], [194319.42682351105, 547002.710644009], [194319.8856585885, 547002.959770004], [194320.39333779193, 547003.08165198], [194328.94622779507, 547003.9805805616], [194329.46815362578, 547003.9669124633], [194329.96875770093, 547003.8186257491], [194330.4139246801, 547003.5458259133], [194330.77331716928, 547003.1671038142], [194331.02244316431, 547002.7082687367], [194331.1443251403, 547002.2005895333], [194336.95389576314, 546946.925210016], [194336.94022766486, 546946.4032841852], [194336.7919409506, 546945.9026801101], [194336.51914111493, 546945.4575131309], [194336.14041901578, 546945.0981206417], [194335.68158393833, 546944.8489946467], [194335.17390473487, 546944.7271126707], [194326.62101473176, 546943.8281840892]]]}, "properties": {"floor": 22, "z_bottom_m": 69.3, "z_top_m": 72.6, "height_m": 3.3, "area_m2": 747.13, "kind": "B"}}, {"type": "Feature", "geometry": {"type": "Polygon", "coordinates": [[[194326.62101473176, 546943.8281840892], [194326.09908890104, 546943.8418521874], [194325.5984848259, 546943.9901389016], [194325.15331784674, 546944.2629387374], [194324.79392535752, 546944.6416608365], [194324.54479936248, 546945.100495914], [194324.42291738652, 546945.6081751174], [194318.61334676365, 547000.8835546349], [194318.62701486194, 547001.4054804655], [194318.77530157618, 547001.9060845406], [194319.0481014119, 547002.3512515199], [194319.42682351105, 547002.710644009], [194319.8856585885, 547002.959770004], [194320.39333779193, 547003.08165198], [194328.94622779507, 547003.9805805616], [194329.46815362578, 547003.9669124633], [194329.96875770093, 547003.8186257491], [194330.4139246801, 547003.5458259133], [194330.77331716928, 547003.1671038142], [194331.02244316431, 547002.7082687367], [194331.1443251403, 547002.2005895333], [194336.95389576314, 546946.925210016], [194336.94022766486, 546946.4032841852], [194336.7919409506, 546945.9026801101], [194336.51914111493, 546945.4575131309], [194336.14041901578, 546945.0981206417], [194335.68158393833, 546944.8489946467], [194335.17390473487, 546944.7271126707], [194326.62101473176, 546943.8281840892]]]}, "properties": {"floor": 23, "z_bottom_m": 72.6, "z_top_m": 75.9, "height_m": 3.3, "area_m2": 747.13, "kind": "B"}}, {"type": "Feature", "geometry": {"type": "Polygon", "coordinates": [[[194326.62101473176, 546943.8281840892], [194326.09908890104, 546943.8418521874], [194325.5984848259, 546943.9901389016], [194325.15331784674, 546944.2629387374], [194324.79392535752, 546944.6416608365], [194324.54479936248, 546945.100495914], [194324.42291738652, 546945.6081751174], [194318.61334676365, 547000.8835546349], [194318.62701486194, 547001.4054804655], [194318.77530157618, 547001.9060845406], [194319.0481014119, 547002.3512515199], [194319.42682351105, 547002.710644009], [194319.8856585885, 547002.959770004], [194320.39333779193, 547003.08165198], [194328.94622779507, 547003.9805805616], [194329.46815362578, 547003.9669124633], [194329.96875770093, 547003.8186257491], [194330.4139246801, 547003.5458259133], [194330.77331716928, 547003.1671038142], [194331.02244316431, 547002.7082687367], [194331.1443251403, 547002.2005895333], [194336.95389576314, 546946.925210016], [194336.94022766486, 546946.4032841852], [194336.7919409506, 546945.9026801101], [194336.51914111493, 546945.4575131309], [194336.14041901578, 546945.0981206417], [194335.68158393833, 546944.8489946467], [194335.17390473487, 546944.7271126707], [194326.62101473176, 546943.8281840892]]]}, "properties": {"floor": 24, "z_bottom_m": 75.9, "z_top_m": 79.2, "height_m": 3.3, "area_m2": 747.13, "kind": "B"}}, {"type": "Feature", "geometry": {"type": "Polygon", "coordinates": [[[194326.62101473176, 546943.8281840892], [194326.09908890104, 546943.8418521874], [194325.5984848259, 546943.9901389016], [194325.15331784674, 546944.2629387374], [194324.79392535752, 546944.6416608365], [194324.54479936248, 546945.100495914], [194324.42291738652, 546945.6081751174], [194318.61334676365, 547000.8835546349], [194318.62701486194, 547001.4054804655], [194318.77530157618, 547001.9060845406], [194319.0481014119, 547002.3512515199], [194319.42682351105, 547002.710644009], [194319.8856585885, 547002.959770004], [194320.39333779193, 547003.08165198], [194328.94622779507, 547003.9805805616], [194329.46815362578, 547003.9669124633], [194329.96875770093, 547003.8186257491], [194330.4139246801, 547003.5458259133], [194330.77331716928, 547003.1671038142], [194331.02244316431, 547002.7082687367], [194331.1443251403, 547002.2005895333], [194336.95389576314, 546946.925210016], [194336.94022766486, 546946.4032841852], [194336.7919409506, 546945.9026801101], [194336.51914111493, 546945.4575131309], [194336.14041901578, 546945.0981206417], [194335.68158393833, 546944.8489946467], [194335.17390473487, 546944.7271126707], [194326.62101473176, 546943.8281840892]]]}, "properties": {"floor": 25, "z_bottom_m": 79.2, "z_top_m": 82.5, "height_m": 3.3, "area_m2": 747.13, "kind": "B"}}, {"type": "Feature", "geometry": {"type": "Polygon", "coordinates": [[[194326.62101473176, 546943.8281840892], [194326.09908890104, 546943.8418521874], [194325.5984848259, 546943.9901389016], [194325.15331784674, 546944.2629387374], [194324.79392535752, 546944.6416608365], [194324.54479936248, 546945.100495914], [194324.42291738652, 546945.6081751174], [194318.61334676365, 547000.8835546349], [194318.62701486194, 547001.4054804655], [194318.77530157618, 547001.9060845406], [194319.0481014119, 547002.3512515199], [194319.42682351105, 547002.710644009], [194319.8856585885, 547002.959770004], [194320.39333779193, 547003.08165198], [194328.94622779507, 547003.9805805616], [194329.46815362578, 547003.9669124633], [194329.96875770093, 547003.8186257491], [194330.4139246801, 547003.5458259133], [194330.77331716928, 547003.1671038142], [194331.02244316431, 547002.7082687367], [194331.1443251403, 547002.2005895333], [194336.95389576314, 546946.925210016], [194336.94022766486, 546946.4032841852], [194336.7919409506, 546945.9026801101], [194336.51914111493, 546945.4575131309], [194336.14041901578, 546945.0981206417], [194335.68158393833, 546944.8489946467], [194335.17390473487, 546944.7271126707], [194326.62101473176, 546943.8281840892]]]}, "properties": {"floor": 26, "z_bottom_m": 82.5, "z_top_m": 85.8, "height_m": 3.3, "area_m2": 747.13, "kind": "B"}}, {"type": "Feature", "geometry": {"type": "Polygon", "coordinates": [[[194326.62101473176, 546943.8281840892], [194326.09908890104, 546943.8418521874], [194325.5984848259, 546943.9901389016], [194325.15331784674, 546944.2629387374], [194324.79392535752, 546944.6416608365], [194324.54479936248, 546945.100495914], [194324.42291738652, 546945.6081751174], [194318.61334676365, 547000.8835546349], [194318.62701486194, 547001.4054804655], [194318.77530157618, 547001.9060845406], [194319.0481014119, 547002.3512515199], [194319.42682351105, 547002.710644009], [194319.8856585885, 547002.959770004], [194320.39333779193, 547003.08165198], [194328.94622779507, 547003.9805805616], [194329.46815362578, 547003.9669124633], [194329.96875770093, 547003.8186257491], [194330.4139246801, 547003.5458259133], [194330.77331716928, 547003.1671038142], [194331.02244316431, 547002.7082687367], [194331.1443251403, 547002.2005895333], [194336.95389576314, 546946.925210016], [194336.94022766486, 546946.4032841852], [194336.7919409506, 546945.9026801101], [194336.51914111493, 546945.4575131309], [194336.14041901578, 546945.0981206417], [194335.68158393833, 546944.8489946467], [194335.17390473487, 546944.7271126707], [194326.62101473176, 546943.8281840892]]]}, "properties": {"floor": 27, "z_bottom_m": 85.8, "z_top_m": 89.1, "height_m": 3.3, "area_m2": 747.13, "kind": "B"}}, {"type": "Feature", "geometry": {"type": "Polygon", "coordinates": [[[194326.62101473176, 546943.8281840892], [194326.09908890104, 546943.8418521874], [194325.5984848259, 546943.9901389016], [194325.15331784674, 546944.2629387374], [194324.79392535752, 546944.6416608365], [194324.54479936248, 546945.100495914], [194324.42291738652, 546945.6081751174], [194318.61334676365, 547000.8835546349], [194318.62701486194, 547001.4054804655], [194318.77530157618, 547001.9060845406], [194319.0481014119, 547002.3512515199], [194319.42682351105, 547002.710644009], [194319.8856585885, 547002.959770004], [194320.39333779193, 547003.08165198], [194328.94622779507, 547003.9805805616], [194329.46815362578, 547003.9669124633], [194329.96875770093, 547003.8186257491], [194330.4139246801, 547003.5458259133], [194330.77331716928, 547003.1671038142], [194331.02244316431, 547002.7082687367], [194331.1443251403, 547002.2005895333], [194336.95389576314, 546946.925210016], [194336.94022766486, 546946.4032841852], [194336.7919409506, 546945.9026801101], [194336.51914111493, 546945.4575131309], [194336.14041901578, 546945.0981206417], [194335.68158393833, 546944.8489946467], [194335.17390473487, 546944.7271126707], [194326.62101473176, 546943.8281840892]]]}, "properties": {"floor": 28, "z_bottom_m": 89.1, "z_top_m": 92.4, "height_m": 3.3, "area_m2": 747.13, "kind": "B"}}, {"type": "Feature", "geometry": {"type": "Polygon", "coordinates": [[[194326.62101473176, 546943.8281840892], [194326.09908890104, 546943.8418521874], [194325.5984848259, 546943.9901389016], [194325.15331784674, 546944.2629387374], [194324.79392535752, 546944.6416608365], [194324.54479936248, 546945.100495914], [194324.42291738652, 546945.6081751174], [194318.61334676365, 547000.8835546349], [194318.62701486194, 547001.4054804655], [194318.77530157618, 547001.9060845406], [194319.0481014119, 547002.3512515199], [194319.42682351105, 547002.710644009], [194319.8856585885, 547002.959770004], [194320.39333779193, 547003.08165198], [194328.94622779507, 547003.9805805616], [194329.46815362578, 547003.9669124633], [194329.96875770093, 547003.8186257491], [194330.4139246801, 547003.5458259133], [194330.77331716928, 547003.1671038142], [194331.02244316431, 547002.7082687367], [194331.1443251403, 547002.2005895333], [194336.95389576314, 546946.925210016], [194336.94022766486, 546946.4032841852], [194336.7919409506, 546945.9026801101], [194336.51914111493, 546945.4575131309], [194336.14041901578, 546945.0981206417], [194335.68158393833, 546944.8489946467], [194335.17390473487, 546944.7271126707], [194326.62101473176, 546943.8281840892]]]}, "properties": {"floor": 29, "z_bottom_m": 92.4, "z_top_m": 95.7, "height_m": 3.3, "area_m2": 747.13, "kind": "B"}}, {"type": "Feature", "geometry": {"type": "Polygon", "coordinates": [[[194326.62101473176, 546943.8281840892], [194326.09908890104, 546943.8418521874], [194325.5984848259, 546943.9901389016], [194325.15331784674, 546944.2629387374], [194324.79392535752, 546944.6416608365], [194324.54479936248, 546945.100495914], [194324.42291738652, 546945.6081751174], [194318.61334676365, 547000.8835546349], [194318.62701486194, 547001.4054804655], [194318.77530157618, 547001.9060845406], [194319.0481014119, 547002.3512515199], [194319.42682351105, 547002.710644009], [194319.8856585885, 547002.959770004], [194320.39333779193, 547003.08165198], [194328.94622779507, 547003.9805805616], [194329.46815362578, 547003.9669124633], [194329.96875770093, 547003.8186257491], [194330.4139246801, 547003.5458259133], [194330.77331716928, 547003.1671038142], [194331.02244316431, 547002.7082687367], [194331.1443251403, 547002.2005895333], [194336.95389576314, 546946.925210016], [194336.94022766486, 546946.4032841852], [194336.7919409506, 546945.9026801101], [194336.51914111493, 546945.4575131309], [194336.14041901578, 546945.0981206417], [194335.68158393833, 546944.8489946467], [194335.17390473487, 546944.7271126707], [194326.62101473176, 546943.8281840892]]]}, "properties": {"floor": 30, "z_bottom_m": 95.7, "z_top_m": 99.0, "height_m": 3.3, "area_m2": 747.13, "kind": "B"}}, {"type": "Feature", "geometry": {"type": "Polygon", "coordinates": [[[194326.62101473176, 546943.8281840892], [194326.09908890104, 546943.8418521874], [194325.5984848259, 546943.9901389016], [194325.15331784674, 546944.2629387374], [194324.79392535752, 546944.6416608365], [194324.54479936248, 546945.100495914], [194324.42291738652, 546945.6081751174], [194318.61334676365, 547000.8835546349], [194318.62701486194, 547001.4054804655], [194318.77530157618, 547001.9060845406], [194319.0481014119, 547002.3512515199], [194319.42682351105, 547002.710644009], [194319.8856585885, 547002.959770004], [194320.39333779193, 547003.08165198], [194328.94622779507, 547003.9805805616], [194329.46815362578, 547003.9669124633], [194329.96875770093, 547003.8186257491], [194330.4139246801, 547003.5458259133], [194330.77331716928, 547003.1671038142], [194331.02244316431, 547002.7082687367], [194331.1443251403, 547002.2005895333], [194336.95389576314, 546946.925210016], [194336.94022766486, 546946.4032841852], [194336.7919409506, 546945.9026801101], [194336.51914111493, 546945.4575131309], [194336.14041901578, 546945.0981206417], [194335.68158393833, 546944.8489946467], [194335.17390473487, 546944.7271126707], [194326.62101473176, 546943.8281840892]]]}, "properties": {"floor": 31, "z_bottom_m": 99.0, "z_top_m": 102.3, "height_m": 3.3, "area_m2": 747.13, "kind": "B"}}, {"type": "Feature", "geometry": {"type": "Polygon", "coordinates": [[[194326.62101473176, 546943.8281840892], [194326.09908890104, 546943.8418521874], [194325.5984848259, 546943.9901389016], [194325.15331784674, 546944.2629387374], [194324.79392535752, 546944.6416608365], [194324.54479936248, 546945.100495914], [194324.42291738652, 546945.6081751174], [194318.61334676365, 547000.8835546349], [194318.62701486194, 547001.4054804655], [194318.77530157618, 547001.9060845406], [194319.0481014119, 547002.3512515199], [194319.42682351105, 547002.710644009], [194319.8856585885, 547002.959770004], [194320.39333779193, 547003.08165198], [194328.94622779507, 547003.9805805616], [194329.46815362578, 547003.9669124633], [194329.96875770093, 547003.8186257491], [194330.4139246801, 547003.5458259133], [194330.77331716928, 547003.1671038142], [194331.02244316431, 547002.7082687367], [194331.1443251403, 547002.2005895333], [194336.95389576314, 546946.925210016], [194336.94022766486, 546946.4032841852], [194336.7919409506, 546945.9026801101], [194336.51914111493, 546945.4575131309], [194336.14041901578, 546945.0981206417], [194335.68158393833, 546944.8489946467], [194335.17390473487, 546944.7271126707], [194326.62101473176, 546943.8281840892]]]}, "properties": {"floor": 32, "z_bottom_m": 102.3, "z_top_m": 105.6, "height_m": 3.3, "area_m2": 747.13, "kind": "B"}}, {"type": "Feature", "geometry": {"type": "Polygon", "coordinates": [[[194326.62101473176, 546943.8281840892], [194326.09908890104, 546943.8418521874], [194325.5984848259, 546943.9901389016], [194325.15331784674, 546944.2629387374], [194324.79392535752, 546944.6416608365], [194324.54479936248, 546945.100495914], [194324.42291738652, 546945.6081751174], [194318.61334676365, 547000.8835546349], [194318.62701486194, 547001.4054804655], [194318.77530157618, 547001.9060845406], [194319.0481014119, 547002.3512515199], [194319.42682351105, 547002.710644009], [194319.8856585885, 547002.959770004], [194320.39333779193, 547003.08165198], [194328.94622779507, 547003.9805805616], [194329.46815362578, 547003.9669124633], [194329.96875770093, 547003.8186257491], [194330.4139246801, 547003.5458259133], [194330.77331716928, 547003.1671038142], [194331.02244316431, 547002.7082687367], [194331.1443251403, 547002.2005895333], [194336.95389576314, 546946.925210016], [194336.94022766486, 546946.4032841852], [194336.7919409506, 546945.9026801101], [194336.51914111493, 546945.4575131309], [194336.14041901578, 546945.0981206417], [194335.68158393833, 546944.8489946467], [194335.17390473487, 546944.7271126707], [194326.62101473176, 546943.8281840892]]]}, "properties": {"floor": 33, "z_bottom_m": 105.6, "z_top_m": 108.9, "height_m": 3.3, "area_m2": 747.13, "kind": "B"}}, {"type": "Feature", "geometry": {"type": "Polygon", "coordinates": [[[194326.62101473176, 546943.8281840892], [194326.09908890104, 546943.8418521874], [194325.5984848259, 546943.9901389016], [194325.15331784674, 546944.2629387374], [194324.79392535752, 546944.6416608365], [194324.54479936248, 546945.100495914], [194324.42291738652, 546945.6081751174], [194318.61334676365, 547000.8835546349], [194318.62701486194, 547001.4054804655], [194318.77530157618, 547001.9060845406], [194319.0481014119, 547002.3512515199], [194319.42682351105, 547002.710644009], [194319.8856585885, 547002.959770004], [194320.39333779193, 547003.08165198], [194328.94622779507, 547003.9805805616], [194329.46815362578, 547003.9669124633], [194329.96875770093, 547003.8186257491], [194330.4139246801, 547003.5458259133], [194330.77331716928, 547003.1671038142], [194331.02244316431, 547002.7082687367], [194331.1443251403, 547002.2005895333], [194336.95389576314, 546946.925210016], [194336.94022766486, 546946.4032841852], [194336.7919409506, 546945.9026801101], [194336.51914111493, 546945.4575131309], [194336.14041901578, 546945.0981206417], [194335.68158393833, 546944.8489946467], [194335.17390473487, 546944.7271126707], [194326.62101473176, 546943.8281840892]]]}, "properties": {"floor": 34, "z_bottom_m": 108.9, "z_top_m": 112.2, "height_m": 3.3, "area_m2": 747.13, "kind": "B"}}, {"type": "Feature", "geometry": {"type": "Polygon", "coordinates": [[[194318.52972550027, 547001.6791723096], [194318.54339359855, 547002.2010981402], [194318.6916803128, 547002.7017022154], [194318.96448014848, 547003.1468691946], [194319.34320224766, 547003.5062616838], [194319.8020373251, 547003.7553876787], [194320.30971652854, 547003.8772696548], [194324.5861615301, 547004.3267339455], [194325.42237416407, 546996.3705571984], [194331.6878633524, 546997.0290746477], [194336.87027449976, 546947.7208276906], [194336.85660640147, 546947.1989018599], [194336.70831968723, 546946.6982977848], [194336.43551985154, 546946.2531308056], [194336.05679775236, 546945.8937383164], [194335.59796267492, 546945.6446123214], [194335.09028347148, 546945.5227303454], [194330.8138384699, 546945.0732660546], [194329.97762583595, 546953.0294428017], [194323.71213664763, 546952.3709253524], [194318.52972550027, 547001.6791723096]]]}, "properties": {"floor": 35, "z_bottom_m": 112.2, "z_top_m": 115.5, "height_m": 3.3, "area_m2": 648.12, "kind": "sky"}}, {"type": "Feature", "geometry": {"type": "Polygon", "coordinates": [[[194326.45377220496, 546945.4194194386], [194325.93184637424, 546945.4330875368], [194325.4312422991, 546945.581374251], [194324.98607531993, 546945.8541740868], [194324.62668283074, 546946.232896186], [194324.3775568357, 546946.6917312634], [194324.2556748597, 546947.1994104668], [194318.44610423688, 547002.4747899842], [194318.45977233516, 547002.9967158149], [194318.6080590494, 547003.4973198901], [194318.8808588851, 547003.9424868693], [194319.25958098425, 547004.3018793585], [194319.7184160617, 547004.5510053535], [194320.22609526516, 547004.6728873295], [194328.77898526826, 547005.571815911], [194329.30091109898, 547005.5581478127], [194329.80151517413, 547005.4098610985], [194330.2466821533, 547005.1370612627], [194330.6060746425, 547004.7583391636], [194330.85520063754, 547004.2995040861], [194330.9770826135, 547003.7918248827], [194336.78665323637, 546948.5164453653], [194336.7729851381, 546947.9945195346], [194336.62469842384, 546947.4939154595], [194336.35189858812, 546947.0487484803], [194335.97317648897, 546946.6893559911], [194335.51434141153, 546946.4402299961], [194335.0066622081, 546946.3183480201], [194326.45377220496, 546945.4194194386]]]}, "properties": {"floor": 36, "z_bottom_m": 115.5, "z_top_m": 118.8, "height_m": 3.3, "area_m2": 747.13, "kind": "C"}}, {"type": "Feature", "geometry": {"type": "Polygon", "coordinates": [[[194326.45377220496, 546945.4194194386], [194325.93184637424, 546945.4330875368], [194325.4312422991, 546945.581374251], [194324.98607531993, 546945.8541740868], [194324.62668283074, 546946.232896186], [194324.3775568357, 546946.6917312634], [194324.2556748597, 546947.1994104668], [194318.44610423688, 547002.4747899842], [194318.45977233516, 547002.9967158149], [194318.6080590494, 547003.4973198901], [194318.8808588851, 547003.9424868693], [194319.25958098425, 547004.3018793585], [194319.7184160617, 547004.5510053535], [194320.22609526516, 547004.6728873295], [194328.77898526826, 547005.571815911], [194329.30091109898, 547005.5581478127], [194329.80151517413, 547005.4098610985], [194330.2466821533, 547005.1370612627], [194330.6060746425, 547004.7583391636], [194330.85520063754, 547004.2995040861], [194330.9770826135, 547003.7918248827], [194336.78665323637, 546948.5164453653], [194336.7729851381, 546947.9945195346], [194336.62469842384, 546947.4939154595], [194336.35189858812, 546947.0487484803], [194335.97317648897, 546946.6893559911], [194335.51434141153, 546946.4402299961], [194335.0066622081, 546946.3183480201], [194326.45377220496, 546945.4194194386]]]}, "properties": {"floor": 37, "z_bottom_m": 118.8, "z_top_m": 122.1, "height_m": 3.3, "area_m2": 747.13, "kind": "C"}}, {"type": "Feature", "geometry": {"type": "Polygon", "coordinates": [[[194326.45377220496, 546945.4194194386], [194325.93184637424, 546945.4330875368], [194325.4312422991, 546945.581374251], [194324.98607531993, 546945.8541740868], [194324.62668283074, 546946.232896186], [194324.3775568357, 546946.6917312634], [194324.2556748597, 546947.1994104668], [194318.44610423688, 547002.4747899842], [194318.45977233516, 547002.9967158149], [194318.6080590494, 547003.4973198901], [194318.8808588851, 547003.9424868693], [194319.25958098425, 547004.3018793585], [194319.7184160617, 547004.5510053535], [194320.22609526516, 547004.6728873295], [194328.77898526826, 547005.571815911], [194329.30091109898, 547005.5581478127], [194329.80151517413, 547005.4098610985], [194330.2466821533, 547005.1370612627], [194330.6060746425, 547004.7583391636], [194330.85520063754, 547004.2995040861], [194330.9770826135, 547003.7918248827], [194336.78665323637, 546948.5164453653], [194336.7729851381, 546947.9945195346], [194336.62469842384, 546947.4939154595], [194336.35189858812, 546947.0487484803], [194335.97317648897, 546946.6893559911], [194335.51434141153, 546946.4402299961], [194335.0066622081, 546946.3183480201], [194326.45377220496, 546945.4194194386]]]}, "properties": {"floor": 38, "z_bottom_m": 122.1, "z_top_m": 125.4, "height_m": 3.3, "area_m2": 747.13, "kind": "C"}}, {"type": "Feature", "geometry": {"type": "Polygon", "coordinates": [[[194326.45377220496, 546945.4194194386], [194325.93184637424, 546945.4330875368], [194325.4312422991, 546945.581374251], [194324.98607531993, 546945.8541740868], [194324.62668283074, 546946.232896186], [194324.3775568357, 546946.6917312634], [194324.2556748597, 546947.1994104668], [194318.44610423688, 547002.4747899842], [194318.45977233516, 547002.9967158149], [194318.6080590494, 547003.4973198901], [194318.8808588851, 547003.9424868693], [194319.25958098425, 547004.3018793585], [194319.7184160617, 547004.5510053535], [194320.22609526516, 547004.6728873295], [194328.77898526826, 547005.571815911], [194329.30091109898, 547005.5581478127], [194329.80151517413, 547005.4098610985], [194330.2466821533, 547005.1370612627], [194330.6060746425, 547004.7583391636], [194330.85520063754, 547004.2995040861], [194330.9770826135, 547003.7918248827], [194336.78665323637, 546948.5164453653], [194336.7729851381, 546947.9945195346], [194336.62469842384, 546947.4939154595], [194336.35189858812, 546947.0487484803], [194335.97317648897, 546946.6893559911], [194335.51434141153, 546946.4402299961], [194335.0066622081, 546946.3183480201], [194326.45377220496, 546945.4194194386]]]}, "properties": {"floor": 39, "z_bottom_m": 125.4, "z_top_m": 128.7, "height_m": 3.3, "area_m2": 747.13, "kind": "C"}}, {"type": "Feature", "geometry": {"type": "Polygon", "coordinates": [[[194326.45377220496, 546945.4194194386], [194325.93184637424, 546945.4330875368], [194325.4312422991, 546945.581374251], [194324.98607531993, 546945.8541740868], [194324.62668283074, 546946.232896186], [194324.3775568357, 546946.6917312634], [194324.2556748597, 546947.1994104668], [194318.44610423688, 547002.4747899842], [194318.45977233516, 547002.9967158149], [194318.6080590494, 547003.4973198901], [194318.8808588851, 547003.9424868693], [194319.25958098425, 547004.3018793585], [194319.7184160617, 547004.5510053535], [194320.22609526516, 547004.6728873295], [194328.77898526826, 547005.571815911], [194329.30091109898, 547005.5581478127], [194329.80151517413, 547005.4098610985], [194330.2466821533, 547005.1370612627], [194330.6060746425, 547004.7583391636], [194330.85520063754, 547004.2995040861], [194330.9770826135, 547003.7918248827], [194336.78665323637, 546948.5164453653], [194336.7729851381, 546947.9945195346], [194336.62469842384, 546947.4939154595], [194336.35189858812, 546947.0487484803], [194335.97317648897, 546946.6893559911], [194335.51434141153, 546946.4402299961], [194335.0066622081, 546946.3183480201], [194326.45377220496, 546945.4194194386]]]}, "properties": {"floor": 40, "z_bottom_m": 128.7, "z_top_m": 132.0, "height_m": 3.3, "area_m2": 747.13, "kind": "C"}}, {"type": "Feature", "geometry": {"type": "Polygon", "coordinates": [[[194326.45377220496, 546945.4194194386], [194325.93184637424, 546945.4330875368], [194325.4312422991, 546945.581374251], [194324.98607531993, 546945.8541740868], [194324.62668283074, 546946.232896186], [194324.3775568357, 546946.6917312634], [194324.2556748597, 546947.1994104668], [194318.44610423688, 547002.4747899842], [194318.45977233516, 547002.9967158149], [194318.6080590494, 547003.4973198901], [194318.8808588851, 547003.9424868693], [194319.25958098425, 547004.3018793585], [194319.7184160617, 547004.5510053535], [194320.22609526516, 547004.6728873295], [194328.77898526826, 547005.571815911], [194329.30091109898, 547005.5581478127], [194329.80151517413, 547005.4098610985], [194330.2466821533, 547005.1370612627], [194330.6060746425, 547004.7583391636], [194330.85520063754, 547004.2995040861], [194330.9770826135, 547003.7918248827], [194336.78665323637, 546948.5164453653], [194336.7729851381, 546947.9945195346], [194336.62469842384, 546947.4939154595], [194336.35189858812, 546947.0487484803], [194335.97317648897, 546946.6893559911], [194335.51434141153, 546946.4402299961], [194335.0066622081, 546946.3183480201], [194326.45377220496, 546945.4194194386]]]}, "properties": {"floor": 41, "z_bottom_m": 132.0, "z_top_m": 135.3, "height_m": 3.3, "area_m2": 747.13, "kind": "C"}}, {"type": "Feature", "geometry": {"type": "Polygon", "coordinates": [[[194326.45377220496, 546945.4194194386], [194325.93184637424, 546945.4330875368], [194325.4312422991, 546945.581374251], [194324.98607531993, 546945.8541740868], [194324.62668283074, 546946.232896186], [194324.3775568357, 546946.6917312634], [194324.2556748597, 546947.1994104668], [194318.44610423688, 547002.4747899842], [194318.45977233516, 547002.9967158149], [194318.6080590494, 547003.4973198901], [194318.8808588851, 547003.9424868693], [194319.25958098425, 547004.3018793585], [194319.7184160617, 547004.5510053535], [194320.22609526516, 547004.6728873295], [194328.77898526826, 547005.571815911], [194329.30091109898, 547005.5581478127], [194329.80151517413, 547005.4098610985], [194330.2466821533, 547005.1370612627], [194330.6060746425, 547004.7583391636], [194330.85520063754, 547004.2995040861], [194330.9770826135, 547003.7918248827], [194336.78665323637, 546948.5164453653], [194336.7729851381, 546947.9945195346], [194336.62469842384, 546947.4939154595], [194336.35189858812, 546947.0487484803], [194335.97317648897, 546946.6893559911], [194335.51434141153, 546946.4402299961], [194335.0066622081, 546946.3183480201], [194326.45377220496, 546945.4194194386]]]}, "properties": {"floor": 42, "z_bottom_m": 135.3, "z_top_m": 138.6, "height_m": 3.3, "area_m2": 747.13, "kind": "C"}}, {"type": "Feature", "geometry": {"type": "Polygon", "coordinates": [[[194326.45377220496, 546945.4194194386], [194325.93184637424, 546945.4330875368], [194325.4312422991, 546945.581374251], [194324.98607531993, 546945.8541740868], [194324.62668283074, 546946.232896186], [194324.3775568357, 546946.6917312634], [194324.2556748597, 546947.1994104668], [194318.44610423688, 547002.4747899842], [194318.45977233516, 547002.9967158149], [194318.6080590494, 547003.4973198901], [194318.8808588851, 547003.9424868693], [194319.25958098425, 547004.3018793585], [194319.7184160617, 547004.5510053535], [194320.22609526516, 547004.6728873295], [194328.77898526826, 547005.571815911], [194329.30091109898, 547005.5581478127], [194329.80151517413, 547005.4098610985], [194330.2466821533, 547005.1370612627], [194330.6060746425, 547004.7583391636], [194330.85520063754, 547004.2995040861], [194330.9770826135, 547003.7918248827], [194336.78665323637, 546948.5164453653], [194336.7729851381, 546947.9945195346], [194336.62469842384, 546947.4939154595], [194336.35189858812, 546947.0487484803], [194335.97317648897, 546946.6893559911], [194335.51434141153, 546946.4402299961], [194335.0066622081, 546946.3183480201], [194326.45377220496, 546945.4194194386]]]}, "properties": {"floor": 43, "z_bottom_m": 138.6, "z_top_m": 141.9, "height_m": 3.3, "area_m2": 747.13, "kind": "C"}}, {"type": "Feature", "geometry": {"type": "Polygon", "coordinates": [[[194326.45377220496, 546945.4194194386], [194325.93184637424, 546945.4330875368], [194325.4312422991, 546945.581374251], [194324.98607531993, 546945.8541740868], [194324.62668283074, 546946.232896186], [194324.3775568357, 546946.6917312634], [194324.2556748597, 546947.1994104668], [194318.44610423688, 547002.4747899842], [194318.45977233516, 547002.9967158149], [194318.6080590494, 547003.4973198901], [194318.8808588851, 547003.9424868693], [194319.25958098425, 547004.3018793585], [194319.7184160617, 547004.5510053535], [194320.22609526516, 547004.6728873295], [194328.77898526826, 547005.571815911], [194329.30091109898, 547005.5581478127], [194329.80151517413, 547005.4098610985], [194330.2466821533, 547005.1370612627], [194330.6060746425, 547004.7583391636], [194330.85520063754, 547004.2995040861], [194330.9770826135, 547003.7918248827], [194336.78665323637, 546948.5164453653], [194336.7729851381, 546947.9945195346], [194336.62469842384, 546947.4939154595], [194336.35189858812, 546947.0487484803], [194335.97317648897, 546946.6893559911], [194335.51434141153, 546946.4402299961], [194335.0066622081, 546946.3183480201], [194326.45377220496, 546945.4194194386]]]}, "properties": {"floor": 44, "z_bottom_m": 141.9, "z_top_m": 145.2, "height_m": 3.3, "area_m2": 747.13, "kind": "C"}}, {"type": "Feature", "geometry": {"type": "Polygon", "coordinates": [[[194326.45377220496, 546945.4194194386], [194325.93184637424, 546945.4330875368], [194325.4312422991, 546945.581374251], [194324.98607531993, 546945.8541740868], [194324.62668283074, 546946.232896186], [194324.3775568357, 546946.6917312634], [194324.2556748597, 546947.1994104668], [194318.44610423688, 547002.4747899842], [194318.45977233516, 547002.9967158149], [194318.6080590494, 547003.4973198901], [194318.8808588851, 547003.9424868693], [194319.25958098425, 547004.3018793585], [194319.7184160617, 547004.5510053535], [194320.22609526516, 547004.6728873295], [194328.77898526826, 547005.571815911], [194329.30091109898, 547005.5581478127], [194329.80151517413, 547005.4098610985], [194330.2466821533, 547005.1370612627], [194330.6060746425, 547004.7583391636], [194330.85520063754, 547004.2995040861], [194330.9770826135, 547003.7918248827], [194336.78665323637, 546948.5164453653], [194336.7729851381, 546947.9945195346], [194336.62469842384, 546947.4939154595], [194336.35189858812, 546947.0487484803], [194335.97317648897, 546946.6893559911], [194335.51434141153, 546946.4402299961], [194335.0066622081, 546946.3183480201], [194326.45377220496, 546945.4194194386]]]}, "properties": {"floor": 45, "z_bottom_m": 145.2, "z_top_m": 148.5, "height_m": 3.3, "area_m2": 747.13, "kind": "C"}}, {"type": "Feature", "geometry": {"type": "Polygon", "coordinates": [[[194326.45377220496, 546945.4194194386], [194325.93184637424, 546945.4330875368], [194325.4312422991, 546945.581374251], [194324.98607531993, 546945.8541740868], [194324.62668283074, 546946.232896186], [194324.3775568357, 546946.6917312634], [194324.2556748597, 546947.1994104668], [194318.44610423688, 547002.4747899842], [194318.45977233516, 547002.9967158149], [194318.6080590494, 547003.4973198901], [194318.8808588851, 547003.9424868693], [194319.25958098425, 547004.3018793585], [194319.7184160617, 547004.5510053535], [194320.22609526516, 547004.6728873295], [194328.77898526826, 547005.571815911], [194329.30091109898, 547005.5581478127], [194329.80151517413, 547005.4098610985], [194330.2466821533, 547005.1370612627], [194330.6060746425, 547004.7583391636], [194330.85520063754, 547004.2995040861], [194330.9770826135, 547003.7918248827], [194336.78665323637, 546948.5164453653], [194336.7729851381, 546947.9945195346], [194336.62469842384, 546947.4939154595], [194336.35189858812, 546947.0487484803], [194335.97317648897, 546946.6893559911], [194335.51434141153, 546946.4402299961], [194335.0066622081, 546946.3183480201], [194326.45377220496, 546945.4194194386]]]}, "properties": {"floor": 46, "z_bottom_m": 148.5, "z_top_m": 151.8, "height_m": 3.3, "area_m2": 747.13, "kind": "C"}}, {"type": "Feature", "geometry": {"type": "Polygon", "coordinates": [[[194326.45377220496, 546945.4194194386], [194325.93184637424, 546945.4330875368], [194325.4312422991, 546945.581374251], [194324.98607531993, 546945.8541740868], [194324.62668283074, 546946.232896186], [194324.3775568357, 546946.6917312634], [194324.2556748597, 546947.1994104668], [194318.44610423688, 547002.4747899842], [194318.45977233516, 547002.9967158149], [194318.6080590494, 547003.4973198901], [194318.8808588851, 547003.9424868693], [194319.25958098425, 547004.3018793585], [194319.7184160617, 547004.5510053535], [194320.22609526516, 547004.6728873295], [194328.77898526826, 547005.571815911], [194329.30091109898, 547005.5581478127], [194329.80151517413, 547005.4098610985], [194330.2466821533, 547005.1370612627], [194330.6060746425, 547004.7583391636], [194330.85520063754, 547004.2995040861], [194330.9770826135, 547003.7918248827], [194336.78665323637, 546948.5164453653], [194336.7729851381, 546947.9945195346], [194336.62469842384, 546947.4939154595], [194336.35189858812, 546947.0487484803], [194335.97317648897, 546946.6893559911], [194335.51434141153, 546946.4402299961], [194335.0066622081, 546946.3183480201], [194326.45377220496, 546945.4194194386]]]}, "properties": {"floor": 47, "z_bottom_m": 151.8, "z_top_m": 155.1, "height_m": 3.3, "area_m2": 747.13, "kind": "C"}}, {"type": "Feature", "geometry": {"type": "Polygon", "coordinates": [[[194326.45377220496, 546945.4194194386], [194325.93184637424, 546945.4330875368], [194325.4312422991, 546945.581374251], [194324.98607531993, 546945.8541740868], [194324.62668283074, 546946.232896186], [194324.3775568357, 546946.6917312634], [194324.2556748597, 546947.1994104668], [194318.44610423688, 547002.4747899842], [194318.45977233516, 547002.9967158149], [194318.6080590494, 547003.4973198901], [194318.8808588851, 547003.9424868693], [194319.25958098425, 547004.3018793585], [194319.7184160617, 547004.5510053535], [194320.22609526516, 547004.6728873295], [194328.77898526826, 547005.571815911], [194329.30091109898, 547005.5581478127], [194329.80151517413, 547005.4098610985], [194330.2466821533, 547005.1370612627], [194330.6060746425, 547004.7583391636], [194330.85520063754, 547004.2995040861], [194330.9770826135, 547003.7918248827], [194336.78665323637, 546948.5164453653], [194336.7729851381, 546947.9945195346], [194336.62469842384, 546947.4939154595], [194336.35189858812, 546947.0487484803], [194335.97317648897, 546946.6893559911], [194335.51434141153, 546946.4402299961], [194335.0066622081, 546946.3183480201], [194326.45377220496, 546945.4194194386]]]}, "properties": {"floor": 48, "z_bottom_m": 155.1, "z_top_m": 158.4, "height_m": 3.3, "area_m2": 747.13, "kind": "C"}}, {"type": "Feature", "geometry": {"type": "Polygon", "coordinates": [[[194326.45377220496, 546945.4194194386], [194325.93184637424, 546945.4330875368], [194325.4312422991, 546945.581374251], [194324.98607531993, 546945.8541740868], [194324.62668283074, 546946.232896186], [194324.3775568357, 546946.6917312634], [194324.2556748597, 546947.1994104668], [194318.44610423688, 547002.4747899842], [194318.45977233516, 547002.9967158149], [194318.6080590494, 547003.4973198901], [194318.8808588851, 547003.9424868693], [194319.25958098425, 547004.3018793585], [194319.7184160617, 547004.5510053535], [194320.22609526516, 547004.6728873295], [194328.77898526826, 547005.571815911], [194329.30091109898, 547005.5581478127], [194329.80151517413, 547005.4098610985], [194330.2466821533, 547005.1370612627], [194330.6060746425, 547004.7583391636], [194330.85520063754, 547004.2995040861], [194330.9770826135, 547003.7918248827], [194336.78665323637, 546948.5164453653], [194336.7729851381, 546947.9945195346], [194336.62469842384, 546947.4939154595], [194336.35189858812, 546947.0487484803], [194335.97317648897, 546946.6893559911], [194335.51434141153, 546946.4402299961], [194335.0066622081, 546946.3183480201], [194326.45377220496, 546945.4194194386]]]}, "properties": {"floor": 49, "z_bottom_m": 158.4, "z_top_m": 161.7, "height_m": 3.3, "area_m2": 747.13, "kind": "C"}}, {"type": "Feature", "geometry": {"type": "Polygon", "coordinates": [[[194326.01546763766, 546944.6374698621], [194325.51486356248, 546944.7857565763], [194325.06969658332, 546945.0585564121], [194324.71030409413, 546945.4372785112], [194324.4611780991, 546945.8961135887], [194324.3392961231, 546946.4037927921], [194318.94783181726, 546997.701083936], [194325.21332100558, 546998.3596013852], [194324.5861615301, 547004.3267339455], [194328.86260653165, 547004.7761982363], [194329.38453236237, 547004.762530138], [194329.88513643754, 547004.6142434238], [194330.3303034167, 547004.341443588], [194330.6896959059, 547003.9627214889], [194330.93882190093, 547003.5038864114], [194331.06070387692, 547002.996207208], [194336.45216818276, 546951.6989160641], [194330.18667899445, 546951.040398615], [194330.8138384699, 546945.0732660546], [194326.53739346837, 546944.6238017639], [194326.01546763766, 546944.6374698621]]]}, "properties": {"floor": 50, "z_bottom_m": 161.7, "z_top_m": 165.0, "height_m": 3.3, "area_m2": 673.32, "kind": "crown1"}}, {"type": "Feature", "geometry": {"type": "Polygon", "coordinates": [[[194326.11928715138, 546948.6018901374], [194325.59736132066, 546948.6155582357], [194325.0967572455, 546948.7638449499], [194324.65159026635, 546949.0366447855], [194324.29219777713, 546949.4153668848], [194324.04307178213, 546949.8742019623], [194323.92118980613, 546950.3818811657], [194318.94783181726, 546997.701083936], [194318.96149991555, 546998.2230097667], [194319.1097866298, 546998.7236138418], [194319.38258646548, 546999.168780821], [194319.76130856463, 546999.5281733102], [194320.22014364207, 546999.7772993053], [194320.72782284554, 546999.8991812812], [194329.28071284865, 547000.7981098627], [194329.80263867936, 547000.7844417645], [194330.3032427545, 547000.6361550502], [194330.74840973367, 547000.3633552146], [194331.1078022229, 546999.9846331154], [194331.3569282179, 546999.5257980379], [194331.4788101939, 546999.0181188345], [194336.45216818276, 546951.6989160641], [194336.43850008448, 546951.1769902335], [194336.29021337023, 546950.6763861583], [194336.01741353454, 546950.2312191791], [194335.6386914354, 546949.8718266899], [194335.17985635795, 546949.6227006948], [194334.67217715448, 546949.5008187189], [194326.11928715138, 546948.6018901374]]]}, "properties": {"floor": 51, "z_bottom_m": 165.0, "z_top_m": 168.3, "height_m": 3.3, "area_m2": 646.33, "kind": "crown2"}}], "crs": {"type": "name", "properties": {"name": "urn:ogc:def:crs:EPSG::5186"}}}