{"type": "FeatureCollection", "features": [{"type": "Feature", "geometry": {"type": "Polygon", "coordinates": [[[126.9358409335367, 37.52198691465738], [126.93583502926388, 37.52198703459984], [126.93582936514976, 37.52198836758974], [126.93582432719408, 37.521990822786066], [126.93582025872513, 37.52199423287138], [126.93581743700233, 37.52199836545409], [126.93581605432158, 37.52200293890559], [126.93575347816385, 37.52247405546823], [126.93575362874975, 37.522478758115135], [126.93575530235302, 37.52248326948093], [126.93575838492056, 37.522487282123436], [126.93576266638064, 37.52249052258759], [126.93576785495877, 37.52249277004101], [126.93577359706181, 37.52249387132337], [126.93584784425644, 37.52250012747018], [126.93585374856968, 37.522500007527135], [126.93585941272207, 37.522498674536216], [126.93586445071075, 37.52249621933863], [126.935868519205, 37.52249280925212], [126.93587134094366, 37.52248867666856], [126.93587272363004, 37.52248410321678], [126.93593529904656, 37.522012986591086], [126.93593514845013, 37.52200828394402], [126.9359334748466, 37.522003772580405], [126.93593039228952, 37.52199975994216], [126.9359261108502, 37.521996519483835], [126.93592092230166, 37.5219942720372], [126.93591518023473, 37.52199317076196], [126.9358409335367, 37.52198691465738]]]}, "properties": {"floor": 1, "z_bottom_m": 0.0, "z_top_m": 3.3, "height_m": 3.3, "area_m2": 596.17, "kind": "lobby"}}, {"type": "Feature", "geometry": {"type": "Polygon", "coordinates": [[[126.93582021970266, 37.52197157882383], [126.93581431543103, 37.521971698765256], [126.93580865131769, 37.521973031754165], [126.93580361336238, 37.52197548694962], [126.93579954489331, 37.52197889703422], [126.93579672316996, 37.521983029616436], [126.93579534048821, 37.521987603067714], [126.9357291938319, 37.52248559968568], [126.93572934441633, 37.522490302332606], [126.93573101801839, 37.52249481369874], [126.93573410058508, 37.52249882634187], [126.93573838204478, 37.522502066806894], [126.93574357062299, 37.52250431426137], [126.93574931272654, 37.5225054155449], [126.93584605908575, 37.52251356750446], [126.93585196340007, 37.52251344756151], [126.93585762755352, 37.522512114570674], [126.93586266554314, 37.52250965937317], [126.93586673403821, 37.52250624928672], [126.93586955577744, 37.522502116703215], [126.9358709384642, 37.52249754325148], [126.93593708418919, 37.521999546554284], [126.93593693359264, 37.521994843907216], [126.93593525998932, 37.52199033254361], [126.9359321774327, 37.521986319905395], [126.93592789599408, 37.52198307944714], [126.9359227074464, 37.52198083200058], [126.93591696538046, 37.52197973072541], [126.93582021970266, 37.52197157882383]]]}, "properties": {"floor": 2, "z_bottom_m": 3.3, "z_top_m": 6.6, "height_m": 3.3, "area_m2": 747.13, "kind": "base"}}, {"type": "Feature", "geometry": {"type": "Polygon", "coordinates": [[[126.93581926761587, 37.52197874684255], [126.93581336334367, 37.52197886678391], [126.93580769922976, 37.52198019977278], [126.93580266127394, 37.52198265496819], [126.93579859280445, 37.52198606505276], [126.93579577108076, 37.52199019763495], [126.93579438839883, 37.521994771086206], [126.93572824172979, 37.522492767703014], [126.93572839231416, 37.52249747034995], [126.93573006591633, 37.52250198171608], [126.9357331484833, 37.52250599435923], [126.93573742994332, 37.52250923482429], [126.93574261852201, 37.52251148227881], [126.93574836062609, 37.52251258356239], [126.93584510699446, 37.52252073552272], [126.93585101130934, 37.522520615579815], [126.93585667546334, 37.52251928258904], [126.93586171345349, 37.52251682739157], [126.93586578194899, 37.52251341730516], [126.93586860368856, 37.52250928472168], [126.9358699863755, 37.52250471126995], [126.9359361321132, 37.52200671457392], [126.93593598151674, 37.52200201192685], [126.93593430791329, 37.521997500563245], [126.93593122535643, 37.521993487925016], [126.93592694391742, 37.52199024746672], [126.9359217553693, 37.521988000020116], [126.93591601330282, 37.52198689874492], [126.93581926761587, 37.52197874684255]]]}, "properties": {"floor": 3, "z_bottom_m": 6.6, "z_top_m": 9.9, "height_m": 3.3, "area_m2": 747.13, "kind": "A"}}, {"type": "Feature", "geometry": {"type": "Polygon", "coordinates": [[[126.93581926761587, 37.52197874684255], [126.93581336334367, 37.52197886678391], [126.93580769922976, 37.52198019977278], [126.93580266127394, 37.52198265496819], [126.93579859280445, 37.52198606505276], [126.93579577108076, 37.52199019763495], [126.93579438839883, 37.521994771086206], [126.93572824172979, 37.522492767703014], [126.93572839231416, 37.52249747034995], [126.93573006591633, 37.52250198171608], [126.9357331484833, 37.52250599435923], [126.93573742994332, 37.52250923482429], [126.93574261852201, 37.52251148227881], [126.93574836062609, 37.52251258356239], [126.93584510699446, 37.52252073552272], [126.93585101130934, 37.522520615579815], [126.93585667546334, 37.52251928258904], [126.93586171345349, 37.52251682739157], [126.93586578194899, 37.52251341730516], [126.93586860368856, 37.52250928472168], [126.9358699863755, 37.52250471126995], [126.9359361321132, 37.52200671457392], [126.93593598151674, 37.52200201192685], [126.93593430791329, 37.521997500563245], [126.93593122535643, 37.521993487925016], [126.93592694391742, 37.52199024746672], [126.9359217553693, 37.521988000020116], [126.93591601330282, 37.52198689874492], [126.93581926761587, 37.52197874684255]]]}, "properties": {"floor": 4, "z_bottom_m": 9.9, "z_top_m": 13.2, "height_m": 3.3, "area_m2": 747.13, "kind": "A"}}, {"type": "Feature", "geometry": {"type": "Polygon", "coordinates": [[[126.93581926761587, 37.52197874684255], [126.93581336334367, 37.52197886678391], [126.93580769922976, 37.52198019977278], [126.93580266127394, 37.52198265496819], [126.93579859280445, 37.52198606505276], [126.93579577108076, 37.52199019763495], [126.93579438839883, 37.521994771086206], [126.93572824172979, 37.522492767703014], [126.93572839231416, 37.52249747034995], [126.93573006591633, 37.52250198171608], [126.9357331484833, 37.52250599435923], [126.93573742994332, 37.52250923482429], [126.93574261852201, 37.52251148227881], [126.93574836062609, 37.52251258356239], [126.93584510699446, 37.52252073552272], [126.93585101130934, 37.522520615579815], [126.93585667546334, 37.52251928258904], [126.93586171345349, 37.52251682739157], [126.93586578194899, 37.52251341730516], [126.93586860368856, 37.52250928472168], [126.9358699863755, 37.52250471126995], [126.9359361321132, 37.52200671457392], [126.93593598151674, 37.52200201192685], [126.93593430791329, 37.521997500563245], [126.93593122535643, 37.521993487925016], [126.93592694391742, 37.52199024746672], [126.9359217553693, 37.521988000020116], [126.93591601330282, 37.52198689874492], [126.93581926761587, 37.52197874684255]]]}, "properties": {"floor": 5, "z_bottom_m": 13.2, "z_top_m": 16.5, "height_m": 3.3, "area_m2": 747.13, "kind": "A"}}, {"type": "Feature", "geometry": {"type": "Polygon", "coordinates": [[[126.93581926761587, 37.52197874684255], [126.93581336334367, 37.52197886678391], [126.93580769922976, 37.52198019977278], [126.93580266127394, 37.52198265496819], [126.93579859280445, 37.52198606505276], [126.93579577108076, 37.52199019763495], [126.93579438839883, 37.521994771086206], [126.93572824172979, 37.522492767703014], [126.93572839231416, 37.52249747034995], [126.93573006591633, 37.52250198171608], [126.9357331484833, 37.52250599435923], [126.93573742994332, 37.52250923482429], [126.93574261852201, 37.52251148227881], [126.93574836062609, 37.52251258356239], [126.93584510699446, 37.52252073552272], [126.93585101130934, 37.522520615579815], [126.93585667546334, 37.52251928258904], [126.93586171345349, 37.52251682739157], [126.93586578194899, 37.52251341730516], [126.93586860368856, 37.52250928472168], [126.9358699863755, 37.52250471126995], [126.9359361321132, 37.52200671457392], [126.93593598151674, 37.52200201192685], [126.93593430791329, 37.521997500563245], [126.93593122535643, 37.521993487925016], [126.93592694391742, 37.52199024746672], [126.9359217553693, 37.521988000020116], [126.93591601330282, 37.52198689874492], [126.93581926761587, 37.52197874684255]]]}, "properties": {"floor": 6, "z_bottom_m": 16.5, "z_top_m": 19.8, "height_m": 3.3, "area_m2": 747.13, "kind": "A"}}, {"type": "Feature", "geometry": {"type": "Polygon", "coordinates": [[[126.93581926761587, 37.52197874684255], [126.93581336334367, 37.52197886678391], [126.93580769922976, 37.52198019977278], [126.93580266127394, 37.52198265496819], [126.93579859280445, 37.52198606505276], [126.93579577108076, 37.52199019763495], [126.93579438839883, 37.521994771086206], [126.93572824172979, 37.522492767703014], [126.93572839231416, 37.52249747034995], [126.93573006591633, 37.52250198171608], [126.9357331484833, 37.52250599435923], [126.93573742994332, 37.52250923482429], [126.93574261852201, 37.52251148227881], [126.93574836062609, 37.52251258356239], [126.93584510699446, 37.52252073552272], [126.93585101130934, 37.522520615579815], [126.93585667546334, 37.52251928258904], [126.93586171345349, 37.52251682739157], [126.93586578194899, 37.52251341730516], [126.93586860368856, 37.52250928472168], [126.9358699863755, 37.52250471126995], [126.9359361321132, 37.52200671457392], [126.93593598151674, 37.52200201192685], [126.93593430791329, 37.521997500563245], [126.93593122535643, 37.521993487925016], [126.93592694391742, 37.52199024746672], [126.9359217553693, 37.521988000020116], [126.93591601330282, 37.52198689874492], [126.93581926761587, 37.52197874684255]]]}, "properties": {"floor": 7, "z_bottom_m": 19.8, "z_top_m": 23.1, "height_m": 3.3, "area_m2": 747.13, "kind": "A"}}, {"type": "Feature", "geometry": {"type": "Polygon", "coordinates": [[[126.93581926761587, 37.52197874684255], [126.93581336334367, 37.52197886678391], [126.93580769922976, 37.52198019977278], [126.93580266127394, 37.52198265496819], [126.93579859280445, 37.52198606505276], [126.93579577108076, 37.52199019763495], [126.93579438839883, 37.521994771086206], [126.93572824172979, 37.522492767703014], [126.93572839231416, 37.52249747034995], [126.93573006591633, 37.52250198171608], [126.9357331484833, 37.52250599435923], [126.93573742994332, 37.52250923482429], [126.93574261852201, 37.52251148227881], [126.93574836062609, 37.52251258356239], [126.93584510699446, 37.52252073552272], [126.93585101130934, 37.522520615579815], [126.93585667546334, 37.52251928258904], [126.93586171345349, 37.52251682739157], [126.93586578194899, 37.52251341730516], [126.93586860368856, 37.52250928472168], [126.9358699863755, 37.52250471126995], [126.9359361321132, 37.52200671457392], [126.93593598151674, 37.52200201192685], [126.93593430791329, 37.521997500563245], [126.93593122535643, 37.521993487925016], [126.93592694391742, 37.52199024746672], [126.9359217553693, 37.521988000020116], [126.93591601330282, 37.52198689874492], [126.93581926761587, 37.52197874684255]]]}, "properties": {"floor": 8, "z_bottom_m": 23.1, "z_top_m": 26.4, "height_m": 3.3, "area_m2": 747.13, "kind": "A"}}, {"type": "Feature", "geometry": {"type": "Polygon", "coordinates": [[[126.93581926761587, 37.52197874684255], [126.93581336334367, 37.52197886678391], [126.93580769922976, 37.52198019977278], [126.93580266127394, 37.52198265496819], [126.93579859280445, 37.52198606505276], [126.93579577108076, 37.52199019763495], [126.93579438839883, 37.521994771086206], [126.93572824172979, 37.522492767703014], [126.93572839231416, 37.52249747034995], [126.93573006591633, 37.52250198171608], [126.9357331484833, 37.52250599435923], [126.93573742994332, 37.52250923482429], [126.93574261852201, 37.52251148227881], [126.93574836062609, 37.52251258356239], [126.93584510699446, 37.52252073552272], [126.93585101130934, 37.522520615579815], [126.93585667546334, 37.52251928258904], [126.93586171345349, 37.52251682739157], [126.93586578194899, 37.52251341730516], [126.93586860368856, 37.52250928472168], [126.9358699863755, 37.52250471126995], [126.9359361321132, 37.52200671457392], [126.93593598151674, 37.52200201192685], [126.93593430791329, 37.521997500563245], [126.93593122535643, 37.521993487925016], [126.93592694391742, 37.52199024746672], [126.9359217553693, 37.521988000020116], [126.93591601330282, 37.52198689874492], [126.93581926761587, 37.52197874684255]]]}, "properties": {"floor": 9, "z_bottom_m": 26.4, "z_top_m": 29.7, "height_m": 3.3, "area_m2": 747.13, "kind": "A"}}, {"type": "Feature", "geometry": {"type": "Polygon", "coordinates": [[[126.93581926761587, 37.52197874684255], [126.93581336334367, 37.52197886678391], [126.93580769922976, 37.52198019977278], [126.93580266127394, 37.52198265496819], [126.93579859280445, 37.52198606505276], [126.93579577108076, 37.52199019763495], [126.93579438839883, 37.521994771086206], [126.93572824172979, 37.522492767703014], [126.93572839231416, 37.52249747034995], [126.93573006591633, 37.52250198171608], [126.9357331484833, 37.52250599435923], [126.93573742994332, 37.52250923482429], [126.93574261852201, 37.52251148227881], [126.93574836062609, 37.52251258356239], [126.93584510699446, 37.52252073552272], [126.93585101130934, 37.522520615579815], [126.93585667546334, 37.52251928258904], [126.93586171345349, 37.52251682739157], [126.93586578194899, 37.52251341730516], [126.93586860368856, 37.52250928472168], [126.9358699863755, 37.52250471126995], [126.9359361321132, 37.52200671457392], [126.93593598151674, 37.52200201192685], [126.93593430791329, 37.521997500563245], [126.93593122535643, 37.521993487925016], [126.93592694391742, 37.52199024746672], [126.9359217553693, 37.521988000020116], [126.93591601330282, 37.52198689874492], [126.93581926761587, 37.52197874684255]]]}, "properties": {"floor": 10, "z_bottom_m": 29.7, "z_top_m": 33.0, "height_m": 3.3, "area_m2": 747.13, "kind": "A"}}, {"type": "Feature", "geometry": {"type": "Polygon", "coordinates": [[[126.93581926761587, 37.52197874684255], [126.93581336334367, 37.52197886678391], [126.93580769922976, 37.52198019977278], [126.93580266127394, 37.52198265496819], [126.93579859280445, 37.52198606505276], [126.93579577108076, 37.52199019763495], [126.93579438839883, 37.521994771086206], [126.93572824172979, 37.522492767703014], [126.93572839231416, 37.52249747034995], [126.93573006591633, 37.52250198171608], [126.9357331484833, 37.52250599435923], [126.93573742994332, 37.52250923482429], [126.93574261852201, 37.52251148227881], [126.93574836062609, 37.52251258356239], [126.93584510699446, 37.52252073552272], [126.93585101130934, 37.522520615579815], [126.93585667546334, 37.52251928258904], [126.93586171345349, 37.52251682739157], [126.93586578194899, 37.52251341730516], [126.93586860368856, 37.52250928472168], [126.9358699863755, 37.52250471126995], [126.9359361321132, 37.52200671457392], [126.93593598151674, 37.52200201192685], [126.93593430791329, 37.521997500563245], [126.93593122535643, 37.521993487925016], [126.93592694391742, 37.52199024746672], [126.9359217553693, 37.521988000020116], [126.93591601330282, 37.52198689874492], [126.93581926761587, 37.52197874684255]]]}, "properties": {"floor": 11, "z_bottom_m": 33.0, "z_top_m": 36.3, "height_m": 3.3, "area_m2": 747.13, "kind": "A"}}, {"type": "Feature", "geometry": {"type": "Polygon", "coordinates": [[[126.93581926761587, 37.52197874684255], [126.93581336334367, 37.52197886678391], [126.93580769922976, 37.52198019977278], [126.93580266127394, 37.52198265496819], [126.93579859280445, 37.52198606505276], [126.93579577108076, 37.52199019763495], [126.93579438839883, 37.521994771086206], [126.93572824172979, 37.522492767703014], [126.93572839231416, 37.52249747034995], [126.93573006591633, 37.52250198171608], [126.9357331484833, 37.52250599435923], [126.93573742994332, 37.52250923482429], [126.93574261852201, 37.52251148227881], [126.93574836062609, 37.52251258356239], [126.93584510699446, 37.52252073552272], [126.93585101130934, 37.522520615579815], [126.93585667546334, 37.52251928258904], [126.93586171345349, 37.52251682739157], [126.93586578194899, 37.52251341730516], [126.93586860368856, 37.52250928472168], [126.9358699863755, 37.52250471126995], [126.9359361321132, 37.52200671457392], [126.93593598151674, 37.52200201192685], [126.93593430791329, 37.521997500563245], [126.93593122535643, 37.521993487925016], [126.93592694391742, 37.52199024746672], [126.9359217553693, 37.521988000020116], [126.93591601330282, 37.52198689874492], [126.93581926761587, 37.52197874684255]]]}, "properties": {"floor": 12, "z_bottom_m": 36.3, "z_top_m": 39.6, "height_m": 3.3, "area_m2": 747.13, "kind": "A"}}, {"type": "Feature", "geometry": {"type": "Polygon", "coordinates": [[[126.93581926761587, 37.52197874684255], [126.93581336334367, 37.52197886678391], [126.93580769922976, 37.52198019977278], [126.93580266127394, 37.52198265496819], [126.93579859280445, 37.52198606505276], [126.93579577108076, 37.52199019763495], [126.93579438839883, 37.521994771086206], [126.93572824172979, 37.522492767703014], [126.93572839231416, 37.52249747034995], [126.93573006591633, 37.52250198171608], [126.9357331484833, 37.52250599435923], [126.93573742994332, 37.52250923482429], [126.93574261852201, 37.52251148227881], [126.93574836062609, 37.52251258356239], [126.93584510699446, 37.52252073552272], [126.93585101130934, 37.522520615579815], [126.93585667546334, 37.52251928258904], [126.93586171345349, 37.52251682739157], [126.93586578194899, 37.52251341730516], [126.93586860368856, 37.52250928472168], [126.9358699863755, 37.52250471126995], [126.9359361321132, 37.52200671457392], [126.93593598151674, 37.52200201192685], [126.93593430791329, 37.521997500563245], [126.93593122535643, 37.521993487925016], [126.93592694391742, 37.52199024746672], [126.9359217553693, 37.521988000020116], [126.93591601330282, 37.52198689874492], [126.93581926761587, 37.52197874684255]]]}, "properties": {"floor": 13, "z_bottom_m": 39.6, "z_top_m": 42.9, "height_m": 3.3, "area_m2": 747.13, "kind": "A"}}, {"type": "Feature", "geometry": {"type": "Polygon", "coordinates": [[[126.93581926761587, 37.52197874684255], [126.93581336334367, 37.52197886678391], [126.93580769922976, 37.52198019977278], [126.93580266127394, 37.52198265496819], [126.93579859280445, 37.52198606505276], [126.93579577108076, 37.52199019763495], [126.93579438839883, 37.521994771086206], [126.93572824172979, 37.522492767703014], [126.93572839231416, 37.52249747034995], [126.93573006591633, 37.52250198171608], [126.9357331484833, 37.52250599435923], [126.93573742994332, 37.52250923482429], [126.93574261852201, 37.52251148227881], [126.93574836062609, 37.52251258356239], [126.93584510699446, 37.52252073552272], [126.93585101130934, 37.522520615579815], [126.93585667546334, 37.52251928258904], [126.93586171345349, 37.52251682739157], [126.93586578194899, 37.52251341730516], [126.93586860368856, 37.52250928472168], [126.9358699863755, 37.52250471126995], [126.9359361321132, 37.52200671457392], [126.93593598151674, 37.52200201192685], [126.93593430791329, 37.521997500563245], [126.93593122535643, 37.521993487925016], [126.93592694391742, 37.52199024746672], [126.9359217553693, 37.521988000020116], [126.93591601330282, 37.52198689874492], [126.93581926761587, 37.52197874684255]]]}, "properties": {"floor": 14, "z_bottom_m": 42.9, "z_top_m": 46.2, "height_m": 3.3, "area_m2": 747.13, "kind": "A"}}, {"type": "Feature", "geometry": {"type": "Polygon", "coordinates": [[[126.93581926761587, 37.52197874684255], [126.93581336334367, 37.52197886678391], [126.93580769922976, 37.52198019977278], [126.93580266127394, 37.52198265496819], [126.93579859280445, 37.52198606505276], [126.93579577108076, 37.52199019763495], [126.93579438839883, 37.521994771086206], [126.93572824172979, 37.522492767703014], [126.93572839231416, 37.52249747034995], [126.93573006591633, 37.52250198171608], [126.9357331484833, 37.52250599435923], [126.93573742994332, 37.52250923482429], [126.93574261852201, 37.52251148227881], [126.93574836062609, 37.52251258356239], [126.93584510699446, 37.52252073552272], [126.93585101130934, 37.522520615579815], [126.93585667546334, 37.52251928258904], [126.93586171345349, 37.52251682739157], [126.93586578194899, 37.52251341730516], [126.93586860368856, 37.52250928472168], [126.9358699863755, 37.52250471126995], [126.9359361321132, 37.52200671457392], [126.93593598151674, 37.52200201192685], [126.93593430791329, 37.521997500563245], [126.93593122535643, 37.521993487925016], [126.93592694391742, 37.52199024746672], [126.9359217553693, 37.521988000020116], [126.93591601330282, 37.52198689874492], [126.93581926761587, 37.52197874684255]]]}, "properties": {"floor": 15, "z_bottom_m": 46.2, "z_top_m": 49.5, "height_m": 3.3, "area_m2": 747.13, "kind": "A"}}, {"type": "Feature", "geometry": {"type": "Polygon", "coordinates": [[[126.93581926761587, 37.52197874684255], [126.93581336334367, 37.52197886678391], [126.93580769922976, 37.52198019977278], [126.93580266127394, 37.52198265496819], [126.93579859280445, 37.52198606505276], [126.93579577108076, 37.52199019763495], [126.93579438839883, 37.521994771086206], [126.93572824172979, 37.522492767703014], [126.93572839231416, 37.52249747034995], [126.93573006591633, 37.52250198171608], [126.9357331484833, 37.52250599435923], [126.93573742994332, 37.52250923482429], [126.93574261852201, 37.52251148227881], [126.93574836062609, 37.52251258356239], [126.93584510699446, 37.52252073552272], [126.93585101130934, 37.522520615579815], [126.93585667546334, 37.52251928258904], [126.93586171345349, 37.52251682739157], [126.93586578194899, 37.52251341730516], [126.93586860368856, 37.52250928472168], [126.9358699863755, 37.52250471126995], [126.9359361321132, 37.52200671457392], [126.93593598151674, 37.52200201192685], [126.93593430791329, 37.521997500563245], [126.93593122535643, 37.521993487925016], [126.93592694391742, 37.52199024746672], [126.9359217553693, 37.521988000020116], [126.93591601330282, 37.52198689874492], [126.93581926761587, 37.52197874684255]]]}, "properties": {"floor": 16, "z_bottom_m": 49.5, "z_top_m": 52.8, "height_m": 3.3, "area_m2": 747.13, "kind": "A"}}, {"type": "Feature", "geometry": {"type": "Polygon", "coordinates": [[[126.93581926761587, 37.52197874684255], [126.93581336334367, 37.52197886678391], [126.93580769922976, 37.52198019977278], [126.93580266127394, 37.52198265496819], [126.93579859280445, 37.52198606505276], [126.93579577108076, 37.52199019763495], [126.93579438839883, 37.521994771086206], [126.93572824172979, 37.522492767703014], [126.93572839231416, 37.52249747034995], [126.93573006591633, 37.52250198171608], [126.9357331484833, 37.52250599435923], [126.93573742994332, 37.52250923482429], [126.93574261852201, 37.52251148227881], [126.93574836062609, 37.52251258356239], [126.93584510699446, 37.52252073552272], [126.93585101130934, 37.522520615579815], [126.93585667546334, 37.52251928258904], [126.93586171345349, 37.52251682739157], [126.93586578194899, 37.52251341730516], [126.93586860368856, 37.52250928472168], [126.9358699863755, 37.52250471126995], [126.9359361321132, 37.52200671457392], [126.93593598151674, 37.52200201192685], [126.93593430791329, 37.521997500563245], [126.93593122535643, 37.521993487925016], [126.93592694391742, 37.52199024746672], [126.9359217553693, 37.521988000020116], [126.93591601330282, 37.52198689874492], [126.93581926761587, 37.52197874684255]]]}, "properties": {"floor": 17, "z_bottom_m": 52.8, "z_top_m": 56.1, "height_m": 3.3, "area_m2": 747.13, "kind": "A"}}, {"type": "Feature", "geometry": {"type": "Polygon", "coordinates": [[[126.93581431543103, 37.521971698765256], [126.93580865131769, 37.521973031754165], [126.93580361336238, 37.52197548694962], [126.93579954489331, 37.52197889703422], [126.93579672316996, 37.521983029616436], [126.93579534048821, 37.521987603067714], [126.93573633459191, 37.52243183955508], [126.9358072068521, 37.522437811354976], [126.9357976859035, 37.522509491534585], [126.93584605908575, 37.52251356750446], [126.93585196340007, 37.52251344756151], [126.93585762755352, 37.522512114570674], [126.93586266554314, 37.52250965937317], [126.93586673403821, 37.52250624928672], [126.93586955577744, 37.522502116703215], [126.9358709384642, 37.52249754325148], [126.93592994361485, 37.52205330670112], [126.9358590717084, 37.52204733497483], [126.93586859253892, 37.52197565478454], [126.93582021970266, 37.52197157882383], [126.93581431543103, 37.521971698765256]]]}, "properties": {"floor": 18, "z_bottom_m": 56.1, "z_top_m": 59.4, "height_m": 3.3, "area_m2": 648.12, "kind": "sky"}}, {"type": "Feature", "geometry": {"type": "Polygon", "coordinates": [[[126.9358211717893, 37.521964410805104], [126.93581526751822, 37.52196453074657], [126.93580960340543, 37.521965863735524], [126.93580456545062, 37.52196831893102], [126.935800496982, 37.52197172901566], [126.93579767525897, 37.5219758615979], [126.93579629257741, 37.521980435049194], [126.93573014593383, 37.52247843166831], [126.9357302965183, 37.522483134315245], [126.93573197012026, 37.52248764568138], [126.93573505268672, 37.52249165832448], [126.93573933414604, 37.522494898789475], [126.93574452272377, 37.522497146243914], [126.93575026482681, 37.5224982475274], [126.93584701117686, 37.52250639948618], [126.93585291549061, 37.52250627954318], [126.9358585796435, 37.52250494655231], [126.93586361763262, 37.52250249135475], [126.93586768612722, 37.52249908126827], [126.93587050786618, 37.52249494868473], [126.93587189055275, 37.52249037523298], [126.93593803626497, 37.521992378534634], [126.93593788566841, 37.52198767588756], [126.93593621206517, 37.52198316452397], [126.9359331295088, 37.52197915188577], [126.93592884807056, 37.52197591142754], [126.93592365952334, 37.52197366398103], [126.93591791745793, 37.52197256270591], [126.9358211717893, 37.521964410805104]]]}, "properties": {"floor": 19, "z_bottom_m": 59.4, "z_top_m": 62.7, "height_m": 3.3, "area_m2": 747.13, "kind": "B"}}, {"type": "Feature", "geometry": {"type": "Polygon", "coordinates": [[[126.9358211717893, 37.521964410805104], [126.93581526751822, 37.52196453074657], [126.93580960340543, 37.521965863735524], [126.93580456545062, 37.52196831893102], [126.935800496982, 37.52197172901566], [126.93579767525897, 37.5219758615979], [126.93579629257741, 37.521980435049194], [126.93573014593383, 37.52247843166831], [126.9357302965183, 37.522483134315245], [126.93573197012026, 37.52248764568138], [126.93573505268672, 37.52249165832448], [126.93573933414604, 37.522494898789475], [126.93574452272377, 37.522497146243914], [126.93575026482681, 37.5224982475274], [126.93584701117686, 37.52250639948618], [126.93585291549061, 37.52250627954318], [126.9358585796435, 37.52250494655231], [126.93586361763262, 37.52250249135475], [126.93586768612722, 37.52249908126827], [126.93587050786618, 37.52249494868473], [126.93587189055275, 37.52249037523298], [126.93593803626497, 37.521992378534634], [126.93593788566841, 37.52198767588756], [126.93593621206517, 37.52198316452397], [126.9359331295088, 37.52197915188577], [126.93592884807056, 37.52197591142754], [126.93592365952334, 37.52197366398103], [126.93591791745793, 37.52197256270591], [126.9358211717893, 37.521964410805104]]]}, "properties": {"floor": 20, "z_bottom_m": 62.7, "z_top_m": 66.0, "height_m": 3.3, "area_m2": 747.13, "kind": "B"}}, {"type": "Feature", "geometry": {"type": "Polygon", "coordinates": [[[126.9358211717893, 37.521964410805104], [126.93581526751822, 37.52196453074657], [126.93580960340543, 37.521965863735524], [126.93580456545062, 37.52196831893102], [126.935800496982, 37.52197172901566], [126.93579767525897, 37.5219758615979], [126.93579629257741, 37.521980435049194], [126.93573014593383, 37.52247843166831], [126.9357302965183, 37.522483134315245], [126.93573197012026, 37.52248764568138], [126.93573505268672, 37.52249165832448], [126.93573933414604, 37.522494898789475], [126.93574452272377, 37.522497146243914], [126.93575026482681, 37.5224982475274], [126.93584701117686, 37.52250639948618], [126.93585291549061, 37.52250627954318], [126.9358585796435, 37.52250494655231], [126.93586361763262, 37.52250249135475], [126.93586768612722, 37.52249908126827], [126.93587050786618, 37.52249494868473], [126.93587189055275, 37.52249037523298], [126.93593803626497, 37.521992378534634], [126.93593788566841, 37.52198767588756], [126.93593621206517, 37.52198316452397], [126.9359331295088, 37.52197915188577], [126.93592884807056, 37.52197591142754], [126.93592365952334, 37.52197366398103], [126.93591791745793, 37.52197256270591], [126.9358211717893, 37.521964410805104]]]}, "properties": {"floor": 21, "z_bottom_m": 66.0, "z_top_m": 69.3, "height_m": 3.3, "area_m2": 747.13, "kind": "B"}}, {"type": "Feature", "geometry": {"type": "Polygon", "coordinates": [[[126.9358211717893, 37.521964410805104], [126.93581526751822, 37.52196453074657], [126.93580960340543, 37.521965863735524], [126.93580456545062, 37.52196831893102], [126.935800496982, 37.52197172901566], [126.93579767525897, 37.5219758615979], [126.93579629257741, 37.521980435049194], [126.93573014593383, 37.52247843166831], [126.9357302965183, 37.522483134315245], [126.93573197012026, 37.52248764568138], [126.93573505268672, 37.52249165832448], [126.93573933414604, 37.522494898789475], [126.93574452272377, 37.522497146243914], [126.93575026482681, 37.5224982475274], [126.93584701117686, 37.52250639948618], [126.93585291549061, 37.52250627954318], [126.9358585796435, 37.52250494655231], [126.93586361763262, 37.52250249135475], [126.93586768612722, 37.52249908126827], [126.93587050786618, 37.52249494868473], [126.93587189055275, 37.52249037523298], [126.93593803626497, 37.521992378534634], [126.93593788566841, 37.52198767588756], [126.93593621206517, 37.52198316452397], [126.9359331295088, 37.52197915188577], [126.93592884807056, 37.52197591142754], [126.93592365952334, 37.52197366398103], [126.93591791745793, 37.52197256270591], [126.9358211717893, 37.521964410805104]]]}, "properties": {"floor": 22, "z_bottom_m": 69.3, "z_top_m": 72.6, "height_m": 3.3, "area_m2": 747.13, "kind": "B"}}, {"type": "Feature", "geometry": {"type": "Polygon", "coordinates": [[[126.9358211717893, 37.521964410805104], [126.93581526751822, 37.52196453074657], [126.93580960340543, 37.521965863735524], [126.93580456545062, 37.52196831893102], [126.935800496982, 37.52197172901566], [126.93579767525897, 37.5219758615979], [126.93579629257741, 37.521980435049194], [126.93573014593383, 37.52247843166831], [126.9357302965183, 37.522483134315245], [126.93573197012026, 37.52248764568138], [126.93573505268672, 37.52249165832448], [126.93573933414604, 37.522494898789475], [126.93574452272377, 37.522497146243914], [126.93575026482681, 37.5224982475274], [126.93584701117686, 37.52250639948618], [126.93585291549061, 37.52250627954318], [126.9358585796435, 37.52250494655231], [126.93586361763262, 37.52250249135475], [126.93586768612722, 37.52249908126827], [126.93587050786618, 37.52249494868473], [126.93587189055275, 37.52249037523298], [126.93593803626497, 37.521992378534634], [126.93593788566841, 37.52198767588756], [126.93593621206517, 37.52198316452397], [126.9359331295088, 37.52197915188577], [126.93592884807056, 37.52197591142754], [126.93592365952334, 37.52197366398103], [126.93591791745793, 37.52197256270591], [126.9358211717893, 37.521964410805104]]]}, "properties": {"floor": 23, "z_bottom_m": 72.6, "z_top_m": 75.9, "height_m": 3.3, "area_m2": 747.13, "kind": "B"}}, {"type": "Feature", "geometry": {"type": "Polygon", "coordinates": [[[126.9358211717893, 37.521964410805104], [126.93581526751822, 37.52196453074657], [126.93580960340543, 37.521965863735524], [126.93580456545062, 37.52196831893102], [126.935800496982, 37.52197172901566], [126.93579767525897, 37.5219758615979], [126.93579629257741, 37.521980435049194], [126.93573014593383, 37.52247843166831], [126.9357302965183, 37.522483134315245], [126.93573197012026, 37.52248764568138], [126.93573505268672, 37.52249165832448], [126.93573933414604, 37.522494898789475], [126.93574452272377, 37.522497146243914], [126.93575026482681, 37.5224982475274], [126.93584701117686, 37.52250639948618], [126.93585291549061, 37.52250627954318], [126.9358585796435, 37.52250494655231], [126.93586361763262, 37.52250249135475], [126.93586768612722, 37.52249908126827], [126.93587050786618, 37.52249494868473], [126.93587189055275, 37.52249037523298], [126.93593803626497, 37.521992378534634], [126.93593788566841, 37.52198767588756], [126.93593621206517, 37.52198316452397], [126.9359331295088, 37.52197915188577], [126.93592884807056, 37.52197591142754], [126.93592365952334, 37.52197366398103], [126.93591791745793, 37.52197256270591], [126.9358211717893, 37.521964410805104]]]}, "properties": {"floor": 24, "z_bottom_m": 75.9, "z_top_m": 79.2, "height_m": 3.3, "area_m2": 747.13, "kind": "B"}}, {"type": "Feature", "geometry": {"type": "Polygon", "coordinates": [[[126.9358211717893, 37.521964410805104], [126.93581526751822, 37.52196453074657], [126.93580960340543, 37.521965863735524], [126.93580456545062, 37.52196831893102], [126.935800496982, 37.52197172901566], [126.93579767525897, 37.5219758615979], [126.93579629257741, 37.521980435049194], [126.93573014593383, 37.52247843166831], [126.9357302965183, 37.522483134315245], [126.93573197012026, 37.52248764568138], [126.93573505268672, 37.52249165832448], [126.93573933414604, 37.522494898789475], [126.93574452272377, 37.522497146243914], [126.93575026482681, 37.5224982475274], [126.93584701117686, 37.52250639948618], [126.93585291549061, 37.52250627954318], [126.9358585796435, 37.52250494655231], [126.93586361763262, 37.52250249135475], [126.93586768612722, 37.52249908126827], [126.93587050786618, 37.52249494868473], [126.93587189055275, 37.52249037523298], [126.93593803626497, 37.521992378534634], [126.93593788566841, 37.52198767588756], [126.93593621206517, 37.52198316452397], [126.9359331295088, 37.52197915188577], [126.93592884807056, 37.52197591142754], [126.93592365952334, 37.52197366398103], [126.93591791745793, 37.52197256270591], [126.9358211717893, 37.521964410805104]]]}, "properties": {"floor": 25, "z_bottom_m": 79.2, "z_top_m": 82.5, "height_m": 3.3, "area_m2": 747.13, "kind": "B"}}, {"type": "Feature", "geometry": {"type": "Polygon", "coordinates": [[[126.9358211717893, 37.521964410805104], [126.93581526751822, 37.52196453074657], [126.93580960340543, 37.521965863735524], [126.93580456545062, 37.52196831893102], [126.935800496982, 37.52197172901566], [126.93579767525897, 37.5219758615979], [126.93579629257741, 37.521980435049194], [126.93573014593383, 37.52247843166831], [126.9357302965183, 37.522483134315245], [126.93573197012026, 37.52248764568138], [126.93573505268672, 37.52249165832448], [126.93573933414604, 37.522494898789475], [126.93574452272377, 37.522497146243914], [126.93575026482681, 37.5224982475274], [126.93584701117686, 37.52250639948618], [126.93585291549061, 37.52250627954318], [126.9358585796435, 37.52250494655231], [126.93586361763262, 37.52250249135475], [126.93586768612722, 37.52249908126827], [126.93587050786618, 37.52249494868473], [126.93587189055275, 37.52249037523298], [126.93593803626497, 37.521992378534634], [126.93593788566841, 37.52198767588756], [126.93593621206517, 37.52198316452397], [126.9359331295088, 37.52197915188577], [126.93592884807056, 37.52197591142754], [126.93592365952334, 37.52197366398103], [126.93591791745793, 37.52197256270591], [126.9358211717893, 37.521964410805104]]]}, "properties": {"floor": 26, "z_bottom_m": 82.5, "z_top_m": 85.8, "height_m": 3.3, "area_m2": 747.13, "kind": "B"}}, {"type": "Feature", "geometry": {"type": "Polygon", "coordinates": [[[126.9358211717893, 37.521964410805104], [126.93581526751822, 37.52196453074657], [126.93580960340543, 37.521965863735524], [126.93580456545062, 37.52196831893102], [126.935800496982, 37.52197172901566], [126.93579767525897, 37.5219758615979], [126.93579629257741, 37.521980435049194], [126.93573014593383, 37.52247843166831], [126.9357302965183, 37.522483134315245], [126.93573197012026, 37.52248764568138], [126.93573505268672, 37.52249165832448], [126.93573933414604, 37.522494898789475], [126.93574452272377, 37.522497146243914], [126.93575026482681, 37.5224982475274], [126.93584701117686, 37.52250639948618], [126.93585291549061, 37.52250627954318], [126.9358585796435, 37.52250494655231], [126.93586361763262, 37.52250249135475], [126.93586768612722, 37.52249908126827], [126.93587050786618, 37.52249494868473], [126.93587189055275, 37.52249037523298], [126.93593803626497, 37.521992378534634], [126.93593788566841, 37.52198767588756], [126.93593621206517, 37.52198316452397], [126.9359331295088, 37.52197915188577], [126.93592884807056, 37.52197591142754], [126.93592365952334, 37.52197366398103], [126.93591791745793, 37.52197256270591], [126.9358211717893, 37.521964410805104]]]}, "properties": {"floor": 27, "z_bottom_m": 85.8, "z_top_m": 89.1, "height_m": 3.3, "area_m2": 747.13, "kind": "B"}}, {"type": "Feature", "geometry": {"type": "Polygon", "coordinates": [[[126.9358211717893, 37.521964410805104], [126.93581526751822, 37.52196453074657], [126.93580960340543, 37.521965863735524], [126.93580456545062, 37.52196831893102], [126.935800496982, 37.52197172901566], [126.93579767525897, 37.5219758615979], [126.93579629257741, 37.521980435049194], [126.93573014593383, 37.52247843166831], [126.9357302965183, 37.522483134315245], [126.93573197012026, 37.52248764568138], [126.93573505268672, 37.52249165832448], [126.93573933414604, 37.522494898789475], [126.93574452272377, 37.522497146243914], [126.93575026482681, 37.5224982475274], [126.93584701117686, 37.52250639948618], [126.93585291549061, 37.52250627954318], [126.9358585796435, 37.52250494655231], [126.93586361763262, 37.52250249135475], [126.93586768612722, 37.52249908126827], [126.93587050786618, 37.52249494868473], [126.93587189055275, 37.52249037523298], [126.93593803626497, 37.521992378534634], [126.93593788566841, 37.52198767588756], [126.93593621206517, 37.52198316452397], [126.9359331295088, 37.52197915188577], [126.93592884807056, 37.52197591142754], [126.93592365952334, 37.52197366398103], [126.93591791745793, 37.52197256270591], [126.9358211717893, 37.521964410805104]]]}, "properties": {"floor": 28, "z_bottom_m": 89.1, "z_top_m": 92.4, "height_m": 3.3, "area_m2": 747.13, "kind": "B"}}, {"type": "Feature", "geometry": {"type": "Polygon", "coordinates": [[[126.9358211717893, 37.521964410805104], [126.93581526751822, 37.52196453074657], [126.93580960340543, 37.521965863735524], [126.93580456545062, 37.52196831893102], [126.935800496982, 37.52197172901566], [126.93579767525897, 37.5219758615979], [126.93579629257741, 37.521980435049194], [126.93573014593383, 37.52247843166831], [126.9357302965183, 37.522483134315245], [126.93573197012026, 37.52248764568138], [126.93573505268672, 37.52249165832448], [126.93573933414604, 37.522494898789475], [126.93574452272377, 37.522497146243914], [126.93575026482681, 37.5224982475274], [126.93584701117686, 37.52250639948618], [126.93585291549061, 37.52250627954318], [126.9358585796435, 37.52250494655231], [126.93586361763262, 37.52250249135475], [126.93586768612722, 37.52249908126827], [126.93587050786618, 37.52249494868473], [126.93587189055275, 37.52249037523298], [126.93593803626497, 37.521992378534634], [126.93593788566841, 37.52198767588756], [126.93593621206517, 37.52198316452397], [126.9359331295088, 37.52197915188577], [126.93592884807056, 37.52197591142754], [126.93592365952334, 37.52197366398103], [126.93591791745793, 37.52197256270591], [126.9358211717893, 37.521964410805104]]]}, "properties": {"floor": 29, "z_bottom_m": 92.4, "z_top_m": 95.7, "height_m": 3.3, "area_m2": 747.13, "kind": "B"}}, {"type": "Feature", "geometry": {"type": "Polygon", "coordinates": [[[126.9358211717893, 37.521964410805104], [126.93581526751822, 37.52196453074657], [126.93580960340543, 37.521965863735524], [126.93580456545062, 37.52196831893102], [126.935800496982, 37.52197172901566], [126.93579767525897, 37.5219758615979], [126.93579629257741, 37.521980435049194], [126.93573014593383, 37.52247843166831], [126.9357302965183, 37.522483134315245], [126.93573197012026, 37.52248764568138], [126.93573505268672, 37.52249165832448], [126.93573933414604, 37.522494898789475], [126.93574452272377, 37.522497146243914], [126.93575026482681, 37.5224982475274], [126.93584701117686, 37.52250639948618], [126.93585291549061, 37.52250627954318], [126.9358585796435, 37.52250494655231], [126.93586361763262, 37.52250249135475], [126.93586768612722, 37.52249908126827], [126.93587050786618, 37.52249494868473], [126.93587189055275, 37.52249037523298], [126.93593803626497, 37.521992378534634], [126.93593788566841, 37.52198767588756], [126.93593621206517, 37.52198316452397], [126.9359331295088, 37.52197915188577], [126.93592884807056, 37.52197591142754], [126.93592365952334, 37.52197366398103], [126.93591791745793, 37.52197256270591], [126.9358211717893, 37.521964410805104]]]}, "properties": {"floor": 30, "z_bottom_m": 95.7, "z_top_m": 99.0, "height_m": 3.3, "area_m2": 747.13, "kind": "B"}}, {"type": "Feature", "geometry": {"type": "Polygon", "coordinates": [[[126.9358211717893, 37.521964410805104], [126.93581526751822, 37.52196453074657], [126.93580960340543, 37.521965863735524], [126.93580456545062, 37.52196831893102], [126.935800496982, 37.52197172901566], [126.93579767525897, 37.5219758615979], [126.93579629257741, 37.521980435049194], [126.93573014593383, 37.52247843166831], [126.9357302965183, 37.522483134315245], [126.93573197012026, 37.52248764568138], [126.93573505268672, 37.52249165832448], [126.93573933414604, 37.522494898789475], [126.93574452272377, 37.522497146243914], [126.93575026482681, 37.5224982475274], [126.93584701117686, 37.52250639948618], [126.93585291549061, 37.52250627954318], [126.9358585796435, 37.52250494655231], [126.93586361763262, 37.52250249135475], [126.93586768612722, 37.52249908126827], [126.93587050786618, 37.52249494868473], [126.93587189055275, 37.52249037523298], [126.93593803626497, 37.521992378534634], [126.93593788566841, 37.52198767588756], [126.93593621206517, 37.52198316452397], [126.9359331295088, 37.52197915188577], [126.93592884807056, 37.52197591142754], [126.93592365952334, 37.52197366398103], [126.93591791745793, 37.52197256270591], [126.9358211717893, 37.521964410805104]]]}, "properties": {"floor": 31, "z_bottom_m": 99.0, "z_top_m": 102.3, "height_m": 3.3, "area_m2": 747.13, "kind": "B"}}, {"type": "Feature", "geometry": {"type": "Polygon", "coordinates": [[[126.9358211717893, 37.521964410805104], [126.93581526751822, 37.52196453074657], [126.93580960340543, 37.521965863735524], [126.93580456545062, 37.52196831893102], [126.935800496982, 37.52197172901566], [126.93579767525897, 37.5219758615979], [126.93579629257741, 37.521980435049194], [126.93573014593383, 37.52247843166831], [126.9357302965183, 37.522483134315245], [126.93573197012026, 37.52248764568138], [126.93573505268672, 37.52249165832448], [126.93573933414604, 37.522494898789475], [126.93574452272377, 37.522497146243914], [126.93575026482681, 37.5224982475274], [126.93584701117686, 37.52250639948618], [126.93585291549061, 37.52250627954318], [126.9358585796435, 37.52250494655231], [126.93586361763262, 37.52250249135475], [126.93586768612722, 37.52249908126827], [126.93587050786618, 37.52249494868473], [126.93587189055275, 37.52249037523298], [126.93593803626497, 37.521992378534634], [126.93593788566841, 37.52198767588756], [126.93593621206517, 37.52198316452397], [126.9359331295088, 37.52197915188577], [126.93592884807056, 37.52197591142754], [126.93592365952334, 37.52197366398103], [126.93591791745793, 37.52197256270591], [126.9358211717893, 37.521964410805104]]]}, "properties": {"floor": 32, "z_bottom_m": 102.3, "z_top_m": 105.6, "height_m": 3.3, "area_m2": 747.13, "kind": "B"}}, {"type": "Feature", "geometry": {"type": "Polygon", "coordinates": [[[126.9358211717893, 37.521964410805104], [126.93581526751822, 37.52196453074657], [126.93580960340543, 37.521965863735524], [126.93580456545062, 37.52196831893102], [126.935800496982, 37.52197172901566], [126.93579767525897, 37.5219758615979], [126.93579629257741, 37.521980435049194], [126.93573014593383, 37.52247843166831], [126.9357302965183, 37.522483134315245], [126.93573197012026, 37.52248764568138], [126.93573505268672, 37.52249165832448], [126.93573933414604, 37.522494898789475], [126.93574452272377, 37.522497146243914], [126.93575026482681, 37.5224982475274], [126.93584701117686, 37.52250639948618], [126.93585291549061, 37.52250627954318], [126.9358585796435, 37.52250494655231], [126.93586361763262, 37.52250249135475], [126.93586768612722, 37.52249908126827], [126.93587050786618, 37.52249494868473], [126.93587189055275, 37.52249037523298], [126.93593803626497, 37.521992378534634], [126.93593788566841, 37.52198767588756], [126.93593621206517, 37.52198316452397], [126.9359331295088, 37.52197915188577], [126.93592884807056, 37.52197591142754], [126.93592365952334, 37.52197366398103], [126.93591791745793, 37.52197256270591], [126.9358211717893, 37.521964410805104]]]}, "properties": {"floor": 33, "z_bottom_m": 105.6, "z_top_m": 108.9, "height_m": 3.3, "area_m2": 747.13, "kind": "B"}}, {"type": "Feature", "geometry": {"type": "Polygon", "coordinates": [[[126.9358211717893, 37.521964410805104], [126.93581526751822, 37.52196453074657], [126.93580960340543, 37.521965863735524], [126.93580456545062, 37.52196831893102], [126.935800496982, 37.52197172901566], [126.93579767525897, 37.5219758615979], [126.93579629257741, 37.521980435049194], [126.93573014593383, 37.52247843166831], [126.9357302965183, 37.522483134315245], [126.93573197012026, 37.52248764568138], [126.93573505268672, 37.52249165832448], [126.93573933414604, 37.522494898789475], [126.93574452272377, 37.522497146243914], [126.93575026482681, 37.5224982475274], [126.93584701117686, 37.52250639948618], [126.93585291549061, 37.52250627954318], [126.9358585796435, 37.52250494655231], [126.93586361763262, 37.52250249135475], [126.93586768612722, 37.52249908126827], [126.93587050786618, 37.52249494868473], [126.93587189055275, 37.52249037523298], [126.93593803626497, 37.521992378534634], [126.93593788566841, 37.52198767588756], [126.93593621206517, 37.52198316452397], [126.9359331295088, 37.52197915188577], [126.93592884807056, 37.52197591142754], [126.93592365952334, 37.52197366398103], [126.93591791745793, 37.52197256270591], [126.9358211717893, 37.521964410805104]]]}, "properties": {"floor": 34, "z_bottom_m": 108.9, "z_top_m": 112.2, "height_m": 3.3, "area_m2": 747.13, "kind": "B"}}, {"type": "Feature", "geometry": {"type": "Polygon", "coordinates": [[[126.9357291938319, 37.52248559968568], [126.93572934441633, 37.522490302332606], [126.93573101801839, 37.52249481369874], [126.93573410058508, 37.52249882634187], [126.93573838204478, 37.522502066806894], [126.93574357062299, 37.52250431426137], [126.93574931272654, 37.5225054155449], [126.9357976859035, 37.522509491534585], [126.9358072068521, 37.522437811354976], [126.93587807912368, 37.52244378311234], [126.93593708418919, 37.521999546554284], [126.93593693359264, 37.521994843907216], [126.93593525998932, 37.52199033254361], [126.9359321774327, 37.521986319905395], [126.93592789599408, 37.52198307944714], [126.9359227074464, 37.52198083200058], [126.93591696538046, 37.52197973072541], [126.93586859253892, 37.52197565478454], [126.9358590717084, 37.52204733497483], [126.93578819981335, 37.52204136320601], [126.9357291938319, 37.52248559968568]]]}, "properties": {"floor": 35, "z_bottom_m": 112.2, "z_top_m": 115.5, "height_m": 3.3, "area_m2": 648.12, "kind": "sky"}}, {"type": "Feature", "geometry": {"type": "Polygon", "coordinates": [[[126.93581926761587, 37.52197874684255], [126.93581336334367, 37.52197886678391], [126.93580769922976, 37.52198019977278], [126.93580266127394, 37.52198265496819], [126.93579859280445, 37.52198606505276], [126.93579577108076, 37.52199019763495], [126.93579438839883, 37.521994771086206], [126.93572824172979, 37.522492767703014], [126.93572839231416, 37.52249747034995], [126.93573006591633, 37.52250198171608], [126.9357331484833, 37.52250599435923], [126.93573742994332, 37.52250923482429], [126.93574261852201, 37.52251148227881], [126.93574836062609, 37.52251258356239], [126.93584510699446, 37.52252073552272], [126.93585101130934, 37.522520615579815], [126.93585667546334, 37.52251928258904], [126.93586171345349, 37.52251682739157], [126.93586578194899, 37.52251341730516], [126.93586860368856, 37.52250928472168], [126.9358699863755, 37.52250471126995], [126.9359361321132, 37.52200671457392], [126.93593598151674, 37.52200201192685], [126.93593430791329, 37.521997500563245], [126.93593122535643, 37.521993487925016], [126.93592694391742, 37.52199024746672], [126.9359217553693, 37.521988000020116], [126.93591601330282, 37.52198689874492], [126.93581926761587, 37.52197874684255]]]}, "properties": {"floor": 36, "z_bottom_m": 115.5, "z_top_m": 118.8, "height_m": 3.3, "area_m2": 747.13, "kind": "C"}}, {"type": "Feature", "geometry": {"type": "Polygon", "coordinates": [[[126.93581926761587, 37.52197874684255], [126.93581336334367, 37.52197886678391], [126.93580769922976, 37.52198019977278], [126.93580266127394, 37.52198265496819], [126.93579859280445, 37.52198606505276], [126.93579577108076, 37.52199019763495], [126.93579438839883, 37.521994771086206], [126.93572824172979, 37.522492767703014], [126.93572839231416, 37.52249747034995], [126.93573006591633, 37.52250198171608], [126.9357331484833, 37.52250599435923], [126.93573742994332, 37.52250923482429], [126.93574261852201, 37.52251148227881], [126.93574836062609, 37.52251258356239], [126.93584510699446, 37.52252073552272], [126.93585101130934, 37.522520615579815], [126.93585667546334, 37.52251928258904], [126.93586171345349, 37.52251682739157], [126.93586578194899, 37.52251341730516], [126.93586860368856, 37.52250928472168], [126.9358699863755, 37.52250471126995], [126.9359361321132, 37.52200671457392], [126.93593598151674, 37.52200201192685], [126.93593430791329, 37.521997500563245], [126.93593122535643, 37.521993487925016], [126.93592694391742, 37.52199024746672], [126.9359217553693, 37.521988000020116], [126.93591601330282, 37.52198689874492], [126.93581926761587, 37.52197874684255]]]}, "properties": {"floor": 37, "z_bottom_m": 118.8, "z_top_m": 122.1, "height_m": 3.3, "area_m2": 747.13, "kind": "C"}}, {"type": "Feature", "geometry": {"type": "Polygon", "coordinates": [[[126.93581926761587, 37.52197874684255], [126.93581336334367, 37.52197886678391], [126.93580769922976, 37.52198019977278], [126.93580266127394, 37.52198265496819], [126.93579859280445, 37.52198606505276], [126.93579577108076, 37.52199019763495], [126.93579438839883, 37.521994771086206], [126.93572824172979, 37.522492767703014], [126.93572839231416, 37.52249747034995], [126.93573006591633, 37.52250198171608], [126.9357331484833, 37.52250599435923], [126.93573742994332, 37.52250923482429], [126.93574261852201, 37.52251148227881], [126.93574836062609, 37.52251258356239], [126.93584510699446, 37.52252073552272], [126.93585101130934, 37.522520615579815], [126.93585667546334, 37.52251928258904], [126.93586171345349, 37.52251682739157], [126.93586578194899, 37.52251341730516], [126.93586860368856, 37.52250928472168], [126.9358699863755, 37.52250471126995], [126.9359361321132, 37.52200671457392], [126.93593598151674, 37.52200201192685], [126.93593430791329, 37.521997500563245], [126.93593122535643, 37.521993487925016], [126.93592694391742, 37.52199024746672], [126.9359217553693, 37.521988000020116], [126.93591601330282, 37.52198689874492], [126.93581926761587, 37.52197874684255]]]}, "properties": {"floor": 38, "z_bottom_m": 122.1, "z_top_m": 125.4, "height_m": 3.3, "area_m2": 747.13, "kind": "C"}}, {"type": "Feature", "geometry": {"type": "Polygon", "coordinates": [[[126.93581926761587, 37.52197874684255], [126.93581336334367, 37.52197886678391], [126.93580769922976, 37.52198019977278], [126.93580266127394, 37.52198265496819], [126.93579859280445, 37.52198606505276], [126.93579577108076, 37.52199019763495], [126.93579438839883, 37.521994771086206], [126.93572824172979, 37.522492767703014], [126.93572839231416, 37.52249747034995], [126.93573006591633, 37.52250198171608], [126.9357331484833, 37.52250599435923], [126.93573742994332, 37.52250923482429], [126.93574261852201, 37.52251148227881], [126.93574836062609, 37.52251258356239], [126.93584510699446, 37.52252073552272], [126.93585101130934, 37.522520615579815], [126.93585667546334, 37.52251928258904], [126.93586171345349, 37.52251682739157], [126.93586578194899, 37.52251341730516], [126.93586860368856, 37.52250928472168], [126.9358699863755, 37.52250471126995], [126.9359361321132, 37.52200671457392], [126.93593598151674, 37.52200201192685], [126.93593430791329, 37.521997500563245], [126.93593122535643, 37.521993487925016], [126.93592694391742, 37.52199024746672], [126.9359217553693, 37.521988000020116], [126.93591601330282, 37.52198689874492], [126.93581926761587, 37.52197874684255]]]}, "properties": {"floor": 39, "z_bottom_m": 125.4, "z_top_m": 128.7, "height_m": 3.3, "area_m2": 747.13, "kind": "C"}}, {"type": "Feature", "geometry": {"type": "Polygon", "coordinates": [[[126.93581926761587, 37.52197874684255], [126.93581336334367, 37.52197886678391], [126.93580769922976, 37.52198019977278], [126.93580266127394, 37.52198265496819], [126.93579859280445, 37.52198606505276], [126.93579577108076, 37.52199019763495], [126.93579438839883, 37.521994771086206], [126.93572824172979, 37.522492767703014], [126.93572839231416, 37.52249747034995], [126.93573006591633, 37.52250198171608], [126.9357331484833, 37.52250599435923], [126.93573742994332, 37.52250923482429], [126.93574261852201, 37.52251148227881], [126.93574836062609, 37.52251258356239], [126.93584510699446, 37.52252073552272], [126.93585101130934, 37.522520615579815], [126.93585667546334, 37.52251928258904], [126.93586171345349, 37.52251682739157], [126.93586578194899, 37.52251341730516], [126.93586860368856, 37.52250928472168], [126.9358699863755, 37.52250471126995], [126.9359361321132, 37.52200671457392], [126.93593598151674, 37.52200201192685], [126.93593430791329, 37.521997500563245], [126.93593122535643, 37.521993487925016], [126.93592694391742, 37.52199024746672], [126.9359217553693, 37.521988000020116], [126.93591601330282, 37.52198689874492], [126.93581926761587, 37.52197874684255]]]}, "properties": {"floor": 40, "z_bottom_m": 128.7, "z_top_m": 132.0, "height_m": 3.3, "area_m2": 747.13, "kind": "C"}}, {"type": "Feature", "geometry": {"type": "Polygon", "coordinates": [[[126.93581926761587, 37.52197874684255], [126.93581336334367, 37.52197886678391], [126.93580769922976, 37.52198019977278], [126.93580266127394, 37.52198265496819], [126.93579859280445, 37.52198606505276], [126.93579577108076, 37.52199019763495], [126.93579438839883, 37.521994771086206], [126.93572824172979, 37.522492767703014], [126.93572839231416, 37.52249747034995], [126.93573006591633, 37.52250198171608], [126.9357331484833, 37.52250599435923], [126.93573742994332, 37.52250923482429], [126.93574261852201, 37.52251148227881], [126.93574836062609, 37.52251258356239], [126.93584510699446, 37.52252073552272], [126.93585101130934, 37.522520615579815], [126.93585667546334, 37.52251928258904], [126.93586171345349, 37.52251682739157], [126.93586578194899, 37.52251341730516], [126.93586860368856, 37.52250928472168], [126.9358699863755, 37.52250471126995], [126.9359361321132, 37.52200671457392], [126.93593598151674, 37.52200201192685], [126.93593430791329, 37.521997500563245], [126.93593122535643, 37.521993487925016], [126.93592694391742, 37.52199024746672], [126.9359217553693, 37.521988000020116], [126.93591601330282, 37.52198689874492], [126.93581926761587, 37.52197874684255]]]}, "properties": {"floor": 41, "z_bottom_m": 132.0, "z_top_m": 135.3, "height_m": 3.3, "area_m2": 747.13, "kind": "C"}}, {"type": "Feature", "geometry": {"type": "Polygon", "coordinates": [[[126.93581926761587, 37.52197874684255], [126.93581336334367, 37.52197886678391], [126.93580769922976, 37.52198019977278], [126.93580266127394, 37.52198265496819], [126.93579859280445, 37.52198606505276], [126.93579577108076, 37.52199019763495], [126.93579438839883, 37.521994771086206], [126.93572824172979, 37.522492767703014], [126.93572839231416, 37.52249747034995], [126.93573006591633, 37.52250198171608], [126.9357331484833, 37.52250599435923], [126.93573742994332, 37.52250923482429], [126.93574261852201, 37.52251148227881], [126.93574836062609, 37.52251258356239], [126.93584510699446, 37.52252073552272], [126.93585101130934, 37.522520615579815], [126.93585667546334, 37.52251928258904], [126.93586171345349, 37.52251682739157], [126.93586578194899, 37.52251341730516], [126.93586860368856, 37.52250928472168], [126.9358699863755, 37.52250471126995], [126.9359361321132, 37.52200671457392], [126.93593598151674, 37.52200201192685], [126.93593430791329, 37.521997500563245], [126.93593122535643, 37.521993487925016], [126.93592694391742, 37.52199024746672], [126.9359217553693, 37.521988000020116], [126.93591601330282, 37.52198689874492], [126.93581926761587, 37.52197874684255]]]}, "properties": {"floor": 42, "z_bottom_m": 135.3, "z_top_m": 138.6, "height_m": 3.3, "area_m2": 747.13, "kind": "C"}}, {"type": "Feature", "geometry": {"type": "Polygon", "coordinates": [[[126.93581926761587, 37.52197874684255], [126.93581336334367, 37.52197886678391], [126.93580769922976, 37.52198019977278], [126.93580266127394, 37.52198265496819], [126.93579859280445, 37.52198606505276], [126.93579577108076, 37.52199019763495], [126.93579438839883, 37.521994771086206], [126.93572824172979, 37.522492767703014], [126.93572839231416, 37.52249747034995], [126.93573006591633, 37.52250198171608], [126.9357331484833, 37.52250599435923], [126.93573742994332, 37.52250923482429], [126.93574261852201, 37.52251148227881], [126.93574836062609, 37.52251258356239], [126.93584510699446, 37.52252073552272], [126.93585101130934, 37.522520615579815], [126.93585667546334, 37.52251928258904], [126.93586171345349, 37.52251682739157], [126.93586578194899, 37.52251341730516], [126.93586860368856, 37.52250928472168], [126.9358699863755, 37.52250471126995], [126.9359361321132, 37.52200671457392], [126.93593598151674, 37.52200201192685], [126.93593430791329, 37.521997500563245], [126.93593122535643, 37.521993487925016], [126.93592694391742, 37.52199024746672], [126.9359217553693, 37.521988000020116], [126.93591601330282, 37.52198689874492], [126.93581926761587, 37.52197874684255]]]}, "properties": {"floor": 43, "z_bottom_m": 138.6, "z_top_m": 141.9, "height_m": 3.3, "area_m2": 747.13, "kind": "C"}}, {"type": "Feature", "geometry": {"type": "Polygon", "coordinates": [[[126.93581926761587, 37.52197874684255], [126.93581336334367, 37.52197886678391], [126.93580769922976, 37.52198019977278], [126.93580266127394, 37.52198265496819], [126.93579859280445, 37.52198606505276], [126.93579577108076, 37.52199019763495], [126.93579438839883, 37.521994771086206], [126.93572824172979, 37.522492767703014], [126.93572839231416, 37.52249747034995], [126.93573006591633, 37.52250198171608], [126.9357331484833, 37.52250599435923], [126.93573742994332, 37.52250923482429], [126.93574261852201, 37.52251148227881], [126.93574836062609, 37.52251258356239], [126.93584510699446, 37.52252073552272], [126.93585101130934, 37.522520615579815], [126.93585667546334, 37.52251928258904], [126.93586171345349, 37.52251682739157], [126.93586578194899, 37.52251341730516], [126.93586860368856, 37.52250928472168], [126.9358699863755, 37.52250471126995], [126.9359361321132, 37.52200671457392], [126.93593598151674, 37.52200201192685], [126.93593430791329, 37.521997500563245], [126.93593122535643, 37.521993487925016], [126.93592694391742, 37.52199024746672], [126.9359217553693, 37.521988000020116], [126.93591601330282, 37.52198689874492], [126.93581926761587, 37.52197874684255]]]}, "properties": {"floor": 44, "z_bottom_m": 141.9, "z_top_m": 145.2, "height_m": 3.3, "area_m2": 747.13, "kind": "C"}}, {"type": "Feature", "geometry": {"type": "Polygon", "coordinates": [[[126.93581926761587, 37.52197874684255], [126.93581336334367, 37.52197886678391], [126.93580769922976, 37.52198019977278], [126.93580266127394, 37.52198265496819], [126.93579859280445, 37.52198606505276], [126.93579577108076, 37.52199019763495], [126.93579438839883, 37.521994771086206], [126.93572824172979, 37.522492767703014], [126.93572839231416, 37.52249747034995], [126.93573006591633, 37.52250198171608], [126.9357331484833, 37.52250599435923], [126.93573742994332, 37.52250923482429], [126.93574261852201, 37.52251148227881], [126.93574836062609, 37.52251258356239], [126.93584510699446, 37.52252073552272], [126.93585101130934, 37.522520615579815], [126.93585667546334, 37.52251928258904], [126.93586171345349, 37.52251682739157], [126.93586578194899, 37.52251341730516], [126.93586860368856, 37.52250928472168], [126.9358699863755, 37.52250471126995], [126.9359361321132, 37.52200671457392], [126.93593598151674, 37.52200201192685], [126.93593430791329, 37.521997500563245], [126.93593122535643, 37.521993487925016], [126.93592694391742, 37.52199024746672], [126.9359217553693, 37.521988000020116], [126.93591601330282, 37.52198689874492], [126.93581926761587, 37.52197874684255]]]}, "properties": {"floor": 45, "z_bottom_m": 145.2, "z_top_m": 148.5, "height_m": 3.3, "area_m2": 747.13, "kind": "C"}}, {"type": "Feature", "geometry": {"type": "Polygon", "coordinates": [[[126.93581926761587, 37.52197874684255], [126.93581336334367, 37.52197886678391], [126.93580769922976, 37.52198019977278], [126.93580266127394, 37.52198265496819], [126.93579859280445, 37.52198606505276], [126.93579577108076, 37.52199019763495], [126.93579438839883, 37.521994771086206], [126.93572824172979, 37.522492767703014], [126.93572839231416, 37.52249747034995], [126.93573006591633, 37.52250198171608], [126.9357331484833, 37.52250599435923], [126.93573742994332, 37.52250923482429], [126.93574261852201, 37.52251148227881], [126.93574836062609, 37.52251258356239], [126.93584510699446, 37.52252073552272], [126.93585101130934, 37.522520615579815], [126.93585667546334, 37.52251928258904], [126.93586171345349, 37.52251682739157], [126.93586578194899, 37.52251341730516], [126.93586860368856, 37.52250928472168], [126.9358699863755, 37.52250471126995], [126.9359361321132, 37.52200671457392], [126.93593598151674, 37.52200201192685], [126.93593430791329, 37.521997500563245], [126.93593122535643, 37.521993487925016], [126.93592694391742, 37.52199024746672], [126.9359217553693, 37.521988000020116], [126.93591601330282, 37.52198689874492], [126.93581926761587, 37.52197874684255]]]}, "properties": {"floor": 46, "z_bottom_m": 148.5, "z_top_m": 151.8, "height_m": 3.3, "area_m2": 747.13, "kind": "C"}}, {"type": "Feature", "geometry": {"type": "Polygon", "coordinates": [[[126.93581926761587, 37.52197874684255], [126.93581336334367, 37.52197886678391], [126.93580769922976, 37.52198019977278], [126.93580266127394, 37.52198265496819], [126.93579859280445, 37.52198606505276], [126.93579577108076, 37.52199019763495], [126.93579438839883, 37.521994771086206], [126.93572824172979, 37.522492767703014], [126.93572839231416, 37.52249747034995], [126.93573006591633, 37.52250198171608], [126.9357331484833, 37.52250599435923], [126.93573742994332, 37.52250923482429], [126.93574261852201, 37.52251148227881], [126.93574836062609, 37.52251258356239], [126.93584510699446, 37.52252073552272], [126.93585101130934, 37.522520615579815], [126.93585667546334, 37.52251928258904], [126.93586171345349, 37.52251682739157], [126.93586578194899, 37.52251341730516], [126.93586860368856, 37.52250928472168], [126.9358699863755, 37.52250471126995], [126.9359361321132, 37.52200671457392], [126.93593598151674, 37.52200201192685], [126.93593430791329, 37.521997500563245], [126.93593122535643, 37.521993487925016], [126.93592694391742, 37.52199024746672], [126.9359217553693, 37.521988000020116], [126.93591601330282, 37.52198689874492], [126.93581926761587, 37.52197874684255]]]}, "properties": {"floor": 47, "z_bottom_m": 151.8, "z_top_m": 155.1, "height_m": 3.3, "area_m2": 747.13, "kind": "C"}}, {"type": "Feature", "geometry": {"type": "Polygon", "coordinates": [[[126.93581926761587, 37.52197874684255], [126.93581336334367, 37.52197886678391], [126.93580769922976, 37.52198019977278], [126.93580266127394, 37.52198265496819], [126.93579859280445, 37.52198606505276], [126.93579577108076, 37.52199019763495], [126.93579438839883, 37.521994771086206], [126.93572824172979, 37.522492767703014], [126.93572839231416, 37.52249747034995], [126.93573006591633, 37.52250198171608], [126.9357331484833, 37.52250599435923], [126.93573742994332, 37.52250923482429], [126.93574261852201, 37.52251148227881], [126.93574836062609, 37.52251258356239], [126.93584510699446, 37.52252073552272], [126.93585101130934, 37.522520615579815], [126.93585667546334, 37.52251928258904], [126.93586171345349, 37.52251682739157], [126.93586578194899, 37.52251341730516], [126.93586860368856, 37.52250928472168], [126.9358699863755, 37.52250471126995], [126.9359361321132, 37.52200671457392], [126.93593598151674, 37.52200201192685], [126.93593430791329, 37.521997500563245], [126.93593122535643, 37.521993487925016], [126.93592694391742, 37.52199024746672], [126.9359217553693, 37.521988000020116], [126.93591601330282, 37.52198689874492], [126.93581926761587, 37.52197874684255]]]}, "properties": {"floor": 48, "z_bottom_m": 155.1, "z_top_m": 158.4, "height_m": 3.3, "area_m2": 747.13, "kind": "C"}}, {"type": "Feature", "geometry": {"type": "Polygon", "coordinates": [[[126.93581926761587, 37.52197874684255], [126.93581336334367, 37.52197886678391], [126.93580769922976, 37.52198019977278], [126.93580266127394, 37.52198265496819], [126.93579859280445, 37.52198606505276], [126.93579577108076, 37.52199019763495], [126.93579438839883, 37.521994771086206], [126.93572824172979, 37.522492767703014], [126.93572839231416, 37.52249747034995], [126.93573006591633, 37.52250198171608], [126.9357331484833, 37.52250599435923], [126.93573742994332, 37.52250923482429], [126.93574261852201, 37.52251148227881], [126.93574836062609, 37.52251258356239], [126.93584510699446, 37.52252073552272], [126.93585101130934, 37.522520615579815], [126.93585667546334, 37.52251928258904], [126.93586171345349, 37.52251682739157], [126.93586578194899, 37.52251341730516], [126.93586860368856, 37.52250928472168], [126.9358699863755, 37.52250471126995], [126.9359361321132, 37.52200671457392], [126.93593598151674, 37.52200201192685], [126.93593430791329, 37.521997500563245], [126.93593122535643, 37.521993487925016], [126.93592694391742, 37.52199024746672], [126.9359217553693, 37.521988000020116], [126.93591601330282, 37.52198689874492], [126.93581926761587, 37.52197874684255]]]}, "properties": {"floor": 49, "z_bottom_m": 158.4, "z_top_m": 161.7, "height_m": 3.3, "area_m2": 747.13, "kind": "C"}}, {"type": "Feature", "geometry": {"type": "Polygon", "coordinates": [[[126.93581431543103, 37.521971698765256], [126.93580865131769, 37.521973031754165], [126.93580361336238, 37.52197548694962], [126.93579954489331, 37.52197889703422], [126.93579672316996, 37.521983029616436], [126.93579534048821, 37.521987603067714], [126.93573395433972, 37.522449759598715], [126.93580482661669, 37.52245573140003], [126.9357976859035, 37.522509491534585], [126.93584605908575, 37.52251356750446], [126.93585196340007, 37.52251344756151], [126.93585762755352, 37.522512114570674], [126.93586266554314, 37.52250965937317], [126.93586673403821, 37.52250624928672], [126.93586955577744, 37.522502116703215], [126.9358709384642, 37.52249754325148], [126.93593232380742, 37.52203538665228], [126.93586145191775, 37.52202941492741], [126.93586859253892, 37.52197565478454], [126.93582021970266, 37.52197157882383], [126.93581431543103, 37.521971698765256]]]}, "properties": {"floor": 50, "z_bottom_m": 161.7, "z_top_m": 165.0, "height_m": 3.3, "area_m2": 673.32, "kind": "crown1"}}, {"type": "Feature", "geometry": {"type": "Polygon", "coordinates": [[[126.93581545926683, 37.52200741891725], [126.93580955499235, 37.52200753885842], [126.93580389087623, 37.522008871847085], [126.93579885291835, 37.522011327042314], [126.93579478444713, 37.522014737126725], [126.93579196272213, 37.52201886970881], [126.93579058003945, 37.52202344316001], [126.93573395433972, 37.522449759598715], [126.93573410492438, 37.52245446224567], [126.93573577852592, 37.522458973611755], [126.93573886109142, 37.52246298625479], [126.93574314254926, 37.52246622671967], [126.93574833112513, 37.52246847417395], [126.93575407322601, 37.522469575457244], [126.93585081953947, 37.52247772741291], [126.93585672385096, 37.52247760746972], [126.93586238800161, 37.52247627447865], [126.93586742598868, 37.522473819280926], [126.93587149448155, 37.522470409194305], [126.93587431621921, 37.52246627661064], [126.935875698905, 37.52246170315882], [126.93593232380742, 37.52203538665228], [126.93593217321114, 37.52203068400524], [126.93593049960728, 37.52202617264159], [126.93592741704946, 37.522022160003274], [126.935923135609, 37.522018919544855], [126.93591794705898, 37.52201667209811], [126.93591220499037, 37.522015570822724], [126.93581545926683, 37.52200741891725]]]}, "properties": {"floor": 51, "z_bottom_m": 165.0, "z_top_m": 168.3, "height_m": 3.3, "area_m2": 646.33, "kind": "crown2"}}]}