{"type": "FeatureCollection", "features": [{"type": "Feature", "geometry": {"type": "Polygon", "coordinates": [[[194330.4753785517, 547004.4791142284], [194330.46282771011, 547004.4912344812], [194330.4492682786, 547004.5022147348], [194330.4348034527, 547004.5119714229], [194329.98963647353, 547004.7847712587], [194329.97437633923, 547004.7932301271], [194329.95843703538, 547004.8003267985], [194329.94193986975, 547004.8060072631], [194329.4413357946, 547004.9542939774], [194329.42440632053, 547004.9585150034], [194329.40717338157, 547004.9612444662], [194329.3897681308, 547004.9624615931], [194328.86784230007, 547004.9761296913], [194328.8417012158, 547004.975102655], [194324.56525621426, 547004.5256383643], [194324.54586083675, 547004.5226315059], [194324.52685357694, 547004.5177380468], [194324.50841748517, 547004.5110051138], [194324.49073011102, 547004.5024975488], [194324.4739617936, 547004.4922972843], [194324.458274021, 547004.4805025542], [194324.44381787503, 547004.4672269485], [194324.43073257623, 547004.4525983182], [194324.41914414326, 547004.4367575452], [194324.40916417903, 547004.4198571849], [194324.40088879602, 547004.4020599968], [194324.39439769075, 547004.3835373778], [194324.38975337605, 547004.3644677106], [194324.38700057924, 547004.3450346466], [194324.38616581127, 547004.3254253368], [194324.38725711143, 547004.3058286296], [194325.20256442955, 546996.5485563013], [194319.33488407856, 546995.9318494837], [194318.64637886235, 547002.4826584157], [194318.65901448825, 547002.9651585711], [194318.79234457505, 547003.4152702695], [194319.03762902928, 547003.8155364179], [194319.3781521207, 547004.1386795398], [194319.79070776343, 547004.3626779655], [194320.26003746537, 547004.4753531176], [194328.78685369974, 547005.3715412855], [194329.26935385517, 547005.3589056596], [194329.71946555353, 547005.2255755728], [194330.11973170194, 547004.9802911186], [194330.44287482384, 547004.6397680271], [194330.60328431005, 547004.3443291709], [194330.4753785517, 547004.4791142284]], [[194320.39580626623, 547003.68521627], [194320.0798745703, 547003.6093684136], [194319.8524366665, 547003.4858802652], [194319.66470960595, 547003.3077346125], [194319.5294866776, 547003.087071787], [194319.4559831006, 547002.8389295959], [194319.4474773642, 547002.5141321416], [194320.04688048988, 546996.8110884218], [194324.32332549145, 546997.2605527126], [194323.61254475257, 547004.0233029476], [194320.39580626623, 547003.68521627]]]}, "properties": {"type": "18층 테라스 식재", "z_m": 56.45}}, {"type": "Feature", "geometry": {"type": "Polygon", "coordinates": [[[194336.573742985, 546948.0260767784], [194336.4404128982, 546947.5759650801], [194336.19512844397, 546947.1756989317], [194335.85460535254, 546946.8525558098], [194335.44204970982, 546946.628557384], [194334.97272000788, 546946.515882232], [194330.90821630936, 546946.0886934638], [194330.19743557047, 546952.8514436989], [194336.06511592146, 546953.4681505164], [194336.5863786109, 546948.5085769339], [194336.573742985, 546948.0260767784]], [[194335.35311951014, 546952.5889115783], [194331.07667450857, 546952.1394472875], [194331.62021272068, 546946.9679324019], [194334.836951207, 546947.3060190795], [194335.1528829029, 546947.381866936], [194335.38032080673, 546947.5053550843], [194335.56804786727, 546947.6835007371], [194335.7032707956, 546947.9041635626], [194335.77677437264, 546948.1523057537], [194335.785280109, 546948.477103208], [194335.35311951014, 546952.5889115783]]]}, "properties": {"type": "18층 테라스 식재", "z_m": 56.45}}, {"type": "Feature", "geometry": {"type": "Polygon", "coordinates": [[[194336.60765542497, 546945.9847297306], [194336.36237097075, 546945.5844635823], [194336.0218478793, 546945.2613204604], [194335.6092922366, 546945.0373220346], [194335.13996253465, 546944.9246468826], [194326.61314630028, 546944.0284587146], [194326.13064614485, 546944.0410943405], [194325.6805344465, 546944.1744244273], [194325.28026829808, 546944.4197088815], [194324.95712517618, 546944.760231973], [194324.73312675048, 546945.1727876157], [194324.6204515984, 546945.6421173176], [194323.93194638216, 546952.1929262496], [194329.79962673312, 546952.8096330671], [194330.61493405123, 546945.0523607387], [194330.61794090967, 546945.0329653613], [194330.62283436867, 546945.0139581014], [194330.6295673016, 546944.9955220097], [194330.6380748666, 546944.9778346355], [194330.64827513119, 546944.9610663181], [194330.66006986125, 546944.9453785456], [194330.67334546705, 546944.9309223995], [194330.68797409727, 546944.9178371007], [194330.7038148702, 546944.9062486677], [194330.72071523056, 546944.8962687035], [194330.7385124186, 546944.8879933205], [194330.7570350377, 546944.8815022153], [194330.7761047049, 546944.8768579005], [194330.7955377689, 546944.8741051038], [194330.81514707865, 546944.8732703358], [194330.83474378576, 546944.8743616359], [194335.11118878733, 546945.3238259266], [194335.13697217585, 546945.3282562728], [194335.6446513793, 546945.4501382489], [194335.6614232469, 546945.4549474701], [194335.67771214125, 546945.4612001554], [194335.693394094, 546945.468848718], [194336.15222917145, 546945.7179747131], [194336.1671848335, 546945.7269609428], [194336.18130038318, 546945.7372164491], [194336.19446839267, 546945.7486631813], [194336.57319049185, 546946.1080556706], [194336.58531074465, 546946.1206065122], [194336.59629099828, 546946.1341659437], [194336.60604768645, 546946.1486307696], [194336.70313560817, 546946.3070631848], [194336.60765542497, 546945.9847297306]], [[194326.25687512013, 546944.8380629529], [194326.58167257436, 546944.8295572165], [194329.79841106068, 546945.167643894], [194329.08763032182, 546951.930394129], [194324.81118532026, 546951.4809298383], [194325.41058844593, 546945.7778861185], [194325.48643630245, 546945.4619544225], [194325.60992445075, 546945.2345165188], [194325.78807010356, 546945.0467894583], [194326.00873292898, 546944.9115665299], [194326.25687512013, 546944.8380629529]]]}, "properties": {"type": "35층 테라스 식재", "z_m": 112.55}}, {"type": "Feature", "geometry": {"type": "Polygon", "coordinates": [[[194329.43659638194, 547003.7676703102], [194329.8867080803, 547003.6343402234], [194330.28697422871, 547003.3890557692], [194330.61011735065, 547003.0485326778], [194330.83411577632, 547002.635977035], [194330.94679092843, 547002.1666473331], [194331.46805361786, 546997.2070737506], [194325.6003732669, 546996.590366933], [194324.88959252802, 547003.3531171681], [194328.95409622655, 547003.7803059361], [194329.43659638194, 547003.7676703102]], [[194325.76883146612, 547002.6411207567], [194326.3123696782, 546997.4696058711], [194330.58881467977, 546997.9190701619], [194330.1566540809, 547002.0308785322], [194330.08080622437, 547002.3468102282], [194329.95731807605, 547002.574248132], [194329.77917242327, 547002.7619751925], [194329.55850959785, 547002.8971981208], [194329.3103674067, 547002.9707016979], [194328.98556995246, 547002.9792074342], [194325.76883146612, 547002.6411207567]]]}, "properties": {"type": "35층 테라스 식재", "z_m": 112.55}}, {"type": "Feature", "geometry": {"type": "Polygon", "coordinates": [[[194330.4753785517, 547004.4791142284], [194330.46282771011, 547004.4912344812], [194330.4492682786, 547004.5022147348], [194330.4348034527, 547004.5119714229], [194329.98963647353, 547004.7847712587], [194329.97437633923, 547004.7932301271], [194329.95843703538, 547004.8003267985], [194329.94193986975, 547004.8060072631], [194329.4413357946, 547004.9542939774], [194329.42440632053, 547004.9585150034], [194329.40717338157, 547004.9612444662], [194329.3897681308, 547004.9624615931], [194328.86784230007, 547004.9761296913], [194328.8417012158, 547004.975102655], [194324.56525621426, 547004.5256383643], [194324.54586083675, 547004.5226315059], [194324.52685357694, 547004.5177380468], [194324.50841748517, 547004.5110051138], [194324.49073011102, 547004.5024975488], [194324.4739617936, 547004.4922972843], [194324.458274021, 547004.4805025542], [194324.44381787503, 547004.4672269485], [194324.43073257623, 547004.4525983182], [194324.41914414326, 547004.4367575452], [194324.40916417903, 547004.4198571849], [194324.40088879602, 547004.4020599968], [194324.39439769075, 547004.3835373778], [194324.38975337605, 547004.3644677106], [194324.38700057924, 547004.3450346466], [194324.38616581127, 547004.3254253368], [194324.38725711143, 547004.3058286296], [194324.99351127105, 546998.537600488], [194319.1258309201, 546997.9208936705], [194318.64637886235, 547002.4826584157], [194318.65901448825, 547002.9651585711], [194318.79234457505, 547003.4152702695], [194319.03762902928, 547003.8155364179], [194319.3781521207, 547004.1386795398], [194319.79070776343, 547004.3626779655], [194320.26003746537, 547004.4753531176], [194328.78685369974, 547005.3715412855], [194329.26935385517, 547005.3589056596], [194329.71946555353, 547005.2255755728], [194330.11973170194, 547004.9802911186], [194330.44287482384, 547004.6397680271], [194330.60328431005, 547004.3443291709], [194330.4753785517, 547004.4791142284]], [[194320.39580626623, 547003.68521627], [194320.0798745703, 547003.6093684136], [194319.8524366665, 547003.4858802652], [194319.66470960595, 547003.3077346125], [194319.5294866776, 547003.087071787], [194319.4559831006, 547002.8389295959], [194319.4474773642, 547002.5141321416], [194319.8378273314, 546998.8001326086], [194324.11427233295, 546999.2495968994], [194323.61254475257, 547004.0233029476], [194320.39580626623, 547003.68521627]]]}, "properties": {"type": "50층 테라스 식재", "z_m": 162.05}}, {"type": "Feature", "geometry": {"type": "Polygon", "coordinates": [[[194336.573742985, 546948.0260767784], [194336.4404128982, 546947.5759650801], [194336.19512844397, 546947.1756989317], [194335.85460535254, 546946.8525558098], [194335.44204970982, 546946.628557384], [194334.97272000788, 546946.515882232], [194330.90821630936, 546946.0886934638], [194330.40648872897, 546950.8623995121], [194336.27416907993, 546951.4791063296], [194336.5863786109, 546948.5085769339], [194336.573742985, 546948.0260767784]], [[194335.56217266864, 546950.5998673915], [194331.28572766707, 546950.1504031008], [194331.62021272068, 546946.9679324019], [194334.836951207, 546947.3060190795], [194335.1528829029, 546947.381866936], [194335.38032080673, 546947.5053550843], [194335.56804786727, 546947.6835007371], [194335.7032707956, 546947.9041635626], [194335.77677437264, 546948.1523057537], [194335.785280109, 546948.477103208], [194335.56217266864, 546950.5998673915]]]}, "properties": {"type": "50층 테라스 식재", "z_m": 162.05}}, {"type": "Feature", "geometry": {"type": "Polygon", "coordinates": [[[194324.50651513133, 546948.8989741453], [194324.51906597294, 546948.8868538925], [194324.53262540442, 546948.8758736389], [194324.54709023036, 546948.8661169508], [194324.99225720952, 546948.593317115], [194325.0075173438, 546948.5848582466], [194325.02345664764, 546948.5777615751], [194325.03995381328, 546948.5720811106], [194325.54055788845, 546948.4237943963], [194325.5574873625, 546948.4195733703], [194325.57472030146, 546948.4168439074], [194325.59212555224, 546948.4156267806], [194326.11405138296, 546948.4019586823], [194326.14019246722, 546948.4029857187], [194330.2177330501, 546948.8315446936], [194330.5940287354, 546945.2512651575], [194326.5295250369, 546944.8240763893], [194326.04702488147, 546944.8367120152], [194325.5969131831, 546944.970042102], [194325.1966470347, 546945.2153265562], [194324.87350391276, 546945.5558496476], [194324.6495054871, 546945.9684052904], [194324.53683033498, 546946.4377349924], [194324.24970538676, 546949.1695961768], [194324.50651513133, 546948.8989741453]], [[194325.32696718254, 546946.5735037932], [194325.40281503904, 546946.2575720972], [194325.52630318736, 546946.0301341935], [194325.70444884014, 546945.842407133], [194325.92511166557, 546945.7071842046], [194326.17325385674, 546945.6336806276], [194326.49805131098, 546945.6251748912], [194329.7147897973, 546945.9632615687], [194329.5057366388, 546947.9523057555], [194326.22381373064, 546947.607368044], [194326.09310830932, 546947.602232862], [194325.5711824786, 546947.6159009603], [194325.48415622467, 546947.6219865944], [194325.39799152987, 546947.6356339087], [194325.31334415957, 546947.6567390389], [194325.2098959996, 546947.687381993], [194325.32696718254, 546946.5735037932]]]}, "properties": {"type": "51층 테라스 식재", "z_m": 165.35}}, {"type": "Feature", "geometry": {"type": "Polygon", "coordinates": [[[194328.87047496313, 547004.5759236108], [194329.35297511856, 547004.5632879849], [194329.80308681692, 547004.4299578981], [194330.20335296533, 547004.1846734439], [194330.52649608726, 547003.8441503525], [194330.75049451293, 547003.4315947097], [194330.86316966504, 547002.9622650078], [194331.15029461327, 547000.2304038233], [194330.8934848687, 547000.5010258548], [194330.88093402708, 547000.5131461077], [194330.8673745956, 547000.5241263612], [194330.85290976966, 547000.5338830494], [194330.4077427905, 547000.8066828852], [194330.39248265623, 547000.8151417535], [194330.37654335238, 547000.822238425], [194330.36004618675, 547000.8279188896], [194329.85944211157, 547000.9762056038], [194329.84251263752, 547000.9804266299], [194329.82527969856, 547000.9831560927], [194329.80787444778, 547000.9843732195], [194329.28594861706, 547000.9980413178], [194329.2598075328, 547000.9970142815], [194325.1822669499, 547000.5684553066], [194324.80597126464, 547004.1487348427], [194328.87047496313, 547004.5759236108]], [[194325.89426336123, 547001.4476942447], [194329.17618626938, 547001.7926319562], [194329.3068916907, 547001.7977671381], [194329.82881752143, 547001.7840990399], [194329.91584377535, 547001.7780134057], [194330.00200847015, 547001.7643660915], [194330.08665584045, 547001.7432609613], [194330.19010400042, 547001.7126180071], [194330.07303281748, 547002.8264962069], [194329.997184961, 547003.1424279029], [194329.87369681266, 547003.3698658067], [194329.69555115988, 547003.5575928672], [194329.47488833446, 547003.6928157955], [194329.22674614328, 547003.7663193726], [194328.90194868905, 547003.7748251089], [194325.68521020273, 547003.4367384315], [194325.89426336123, 547001.4476942447]]]}, "properties": {"type": "51층 테라스 식재", "z_m": 165.35}}, {"type": "Feature", "geometry": {"type": "Polygon", "coordinates": [[[194326.69605646053, 546950.2050339058], [194326.44575442295, 546950.2791772629], [194326.22317093337, 546950.4155771808], [194326.04347468878, 546950.6049382304], [194325.91891169126, 546950.8343557691], [194325.85797070328, 546951.0881953709], [194320.98913929364, 546997.4128760478], [194320.9959733428, 546997.6738389632], [194321.0701166999, 546997.9241410007], [194321.20651661776, 546998.1467244903], [194321.39587766732, 546998.3264207349], [194321.62529520606, 546998.4509837325], [194321.8791348078, 546998.5119247204], [194328.44298062412, 546999.2018001435], [194328.7039435395, 546999.1949660943], [194328.95424557707, 546999.1208227372], [194329.17682906665, 546998.9844228193], [194329.35652531125, 546998.7950617698], [194329.48108830876, 546998.565644231], [194329.54202929675, 546998.3118046293], [194334.41086070638, 546951.9871239524], [194334.40402665723, 546951.726161037], [194334.32988330012, 546951.4758589994], [194334.19348338226, 546951.2532755098], [194334.0041223327, 546951.0735792653], [194333.77470479396, 546950.9490162677], [194333.52086519223, 546950.8880752798], [194326.9570193759, 546950.1981998567], [194326.69605646053, 546950.2050339058]], [[194331.31072575564, 546969.0464471775], [194330.05640680468, 546980.9807122981], [194324.08927424438, 546980.3535528226], [194325.34359319534, 546968.4192877021], [194331.31072575564, 546969.0464471775]]]}, "properties": {"type": "옥상정원", "z_m": 168.65}}, {"type": "Feature", "geometry": {"type": "Polygon", "coordinates": [[[194295.0446651418, 546998.3920790985], [194302.0454003683, 546931.7833188872], [194322.2324147431, 546933.9050209307], [194322.4881155739, 546933.8687896447], [194323.3705077943, 546933.8311901777], [194324.2523365848, 546933.8802588516], [194325.59467337697, 546934.0212805137], [194278.6606265614, 546897.4044500488], [194235.8834069244, 546952.235391261], [194295.0446651418, 546998.3920790985]]]}, "properties": {"type": "지상 잔디·식재", "z_m": 0.02}}, {"type": "Feature", "geometry": {"type": "Polygon", "coordinates": [[[194333.3466227812, 547015.4696105176], [194332.91188442608, 547015.5312103553], [194332.0294922057, 547015.5688098223], [194331.1476634152, 547015.5197411485], [194315.84166341522, 547013.9117411484], [194314.96884062025, 547013.7764666957], [194314.66250980465, 547013.6976145018], [194327.13641265238, 547023.4295582976], [194333.3466227812, 547015.4696105176]]]}, "properties": {"type": "지상 잔디·식재", "z_m": 0.02}}, {"type": "Feature", "geometry": {"type": "Polygon", "coordinates": [[[194347.00674549027, 546950.7264714715], [194341.26941761866, 547005.3145542683], [194369.91455386207, 546968.5986003925], [194347.00674549027, 546950.7264714715]]]}, "properties": {"type": "지상 잔디·식재", "z_m": 0.02}}, {"type": "Feature", "geometry": {"type": "Point", "coordinates": [194322.08076457737, 547000.4435818278]}, "properties": {"type": "수목", "z_m": 57.35, "height_m": 3.2}}, {"type": "Feature", "geometry": {"type": "Point", "coordinates": [194333.23561415926, 546949.752035847]}, "properties": {"type": "수목", "z_m": 57.35, "height_m": 3.2}}, {"type": "Feature", "geometry": {"type": "Point", "coordinates": [194327.55585014663, 546948.3506730092]}, "properties": {"type": "수목", "z_m": 113.45, "height_m": 3.2}}, {"type": "Feature", "geometry": {"type": "Point", "coordinates": [194327.92777111678, 547000.2537093163]}, "properties": {"type": "수목", "z_m": 113.45, "height_m": 3.2}}, {"type": "Feature", "geometry": {"type": "Point", "coordinates": [194321.97623799814, 547001.4381039211]}, "properties": {"type": "수목", "z_m": 162.95, "height_m": 3.2}}, {"type": "Feature", "geometry": {"type": "Point", "coordinates": [194333.3401407385, 546948.7575137537]}, "properties": {"type": "수목", "z_m": 162.95, "height_m": 3.2}}, {"type": "Feature", "geometry": {"type": "Point", "coordinates": [194327.72309267343, 546946.7594376598]}, "properties": {"type": "수목", "z_m": 166.25, "height_m": 3.2}}, {"type": "Feature", "geometry": {"type": "Point", "coordinates": [194327.6769073266, 547002.6405623404]}, "properties": {"type": "수목", "z_m": 166.25, "height_m": 3.2}}, {"type": "Feature", "geometry": {"type": "Point", "coordinates": [194326.23662789055, 546988.6233093075]}, "properties": {"type": "수목", "z_m": 169.25, "height_m": 2.4}}, {"type": "Feature", "geometry": {"type": "Point", "coordinates": [194326.96831394528, 546981.6616546537]}, "properties": {"type": "수목", "z_m": 169.25, "height_m": 2.4}}, {"type": "Feature", "geometry": {"type": "Point", "coordinates": [194328.43168605474, 546967.7383453464]}, "properties": {"type": "수목", "z_m": 169.25, "height_m": 2.4}}, {"type": "Feature", "geometry": {"type": "Point", "coordinates": [194329.16337210947, 546960.7766906926]}, "properties": {"type": "수목", "z_m": 169.25, "height_m": 2.4}}, {"type": "Feature", "geometry": {"type": "Point", "coordinates": [194246.44237705212, 546944.8664607687]}, "properties": {"type": "수목", "z_m": 0.25, "height_m": 7.2}}, {"type": "Feature", "geometry": {"type": "Point", "coordinates": [194247.38644054433, 546954.7521316019]}, "properties": {"type": "수목", "z_m": 0.25, "height_m": 5.5}}, {"type": "Feature", "geometry": {"type": "Point", "coordinates": [194256.9985886557, 546935.6554486942]}, "properties": {"type": "수목", "z_m": 0.25, "height_m": 7.5}}, {"type": "Feature", "geometry": {"type": "Point", "coordinates": [194258.57338982835, 546965.2867012679]}, "properties": {"type": "수목", "z_m": 0.25, "height_m": 5.9}}, {"type": "Feature", "geometry": {"type": "Point", "coordinates": [194265.04148600344, 546921.1298216532]}, "properties": {"type": "수목", "z_m": 0.25, "height_m": 7.9}}, {"type": "Feature", "geometry": {"type": "Point", "coordinates": [194277.14003152368, 546908.0304344029]}, "properties": {"type": "수목", "z_m": 0.25, "height_m": 6.4}}, {"type": "Feature", "geometry": {"type": "Point", "coordinates": [194277.2096438408, 546975.4503466188]}, "properties": {"type": "수목", "z_m": 0.25, "height_m": 5.9}}, {"type": "Feature", "geometry": {"type": "Point", "coordinates": [194278.05050388596, 546979.930344378]}, "properties": {"type": "수목", "z_m": 0.25, "height_m": 7.4}}, {"type": "Feature", "geometry": {"type": "Point", "coordinates": [194287.2853806788, 546982.4820633944]}, "properties": {"type": "수목", "z_m": 0.25, "height_m": 6.8}}, {"type": "Feature", "geometry": {"type": "Point", "coordinates": [194295.99720480526, 546917.2480268094]}, "properties": {"type": "수목", "z_m": 0.25, "height_m": 6.6}}, {"type": "Feature", "geometry": {"type": "Point", "coordinates": [194294.7657629244, 546947.4898795703]}, "properties": {"type": "수목", "z_m": 0.25, "height_m": 7.1}}, {"type": "Feature", "geometry": {"type": "Point", "coordinates": [194296.24121046672, 546954.5678573449]}, "properties": {"type": "수목", "z_m": 0.25, "height_m": 6.5}}, {"type": "Feature", "geometry": {"type": "Point", "coordinates": [194292.39796568546, 546962.1579703252]}, "properties": {"type": "수목", "z_m": 0.25, "height_m": 6.0}}, {"type": "Feature", "geometry": {"type": "Point", "coordinates": [194291.94543563187, 546982.9233451755]}, "properties": {"type": "수목", "z_m": 0.25, "height_m": 6.7}}, {"type": "Feature", "geometry": {"type": "Point", "coordinates": [194300.6927340152, 546927.9620341663]}, "properties": {"type": "수목", "z_m": 0.25, "height_m": 7.4}}, {"type": "Feature", "geometry": {"type": "Point", "coordinates": [194346.08164872674, 546992.3792341328]}, "properties": {"type": "수목", "z_m": 0.25, "height_m": 6.4}}, {"type": "Feature", "geometry": {"type": "Point", "coordinates": [194353.4186790351, 546963.5135999621]}, "properties": {"type": "수목", "z_m": 0.25, "height_m": 5.7}}, {"type": "Feature", "geometry": {"type": "Point", "coordinates": [194353.2678869831, 546979.6142043333]}, "properties": {"type": "수목", "z_m": 0.25, "height_m": 7.4}}, {"type": "Feature", "geometry": {"type": "Point", "coordinates": [194363.86903491724, 546971.1621884041]}, "properties": {"type": "수목", "z_m": 0.25, "height_m": 6.6}}, {"type": "Feature", "geometry": {"type": "Point", "coordinates": [194278.43530812432, 546895.579825745]}, "properties": {"type": "수목", "z_m": 0.02, "height_m": 7.0}}, {"type": "Feature", "geometry": {"type": "Point", "coordinates": [194273.4493798217, 546901.9706838692]}, "properties": {"type": "수목", "z_m": 0.02, "height_m": 7.0}}, {"type": "Feature", "geometry": {"type": "Point", "coordinates": [194268.46345151906, 546908.3615419935]}, "properties": {"type": "수목", "z_m": 0.02, "height_m": 7.0}}, {"type": "Feature", "geometry": {"type": "Point", "coordinates": [194263.47752321645, 546914.7524001177]}, "properties": {"type": "수목", "z_m": 0.02, "height_m": 7.0}}, {"type": "Feature", "geometry": {"type": "Point", "coordinates": [194258.49159491382, 546921.1432582419]}, "properties": {"type": "수목", "z_m": 0.02, "height_m": 7.0}}, {"type": "Feature", "geometry": {"type": "Point", "coordinates": [194253.5056666112, 546927.5341163662]}, "properties": {"type": "수목", "z_m": 0.02, "height_m": 7.0}}, {"type": "Feature", "geometry": {"type": "Point", "coordinates": [194248.5197383086, 546933.9249744903]}, "properties": {"type": "수목", "z_m": 0.02, "height_m": 7.0}}, {"type": "Feature", "geometry": {"type": "Point", "coordinates": [194243.53381000596, 546940.3158326145]}, "properties": {"type": "수목", "z_m": 0.02, "height_m": 7.0}}, {"type": "Feature", "geometry": {"type": "Point", "coordinates": [194238.54788170333, 546946.7066907388]}, "properties": {"type": "수목", "z_m": 0.02, "height_m": 7.0}}, {"type": "Feature", "geometry": {"type": "Point", "coordinates": [194234.69563866252, 546952.9575556993]}, "properties": {"type": "수목", "z_m": 0.02, "height_m": 7.0}}, {"type": "Feature", "geometry": {"type": "Point", "coordinates": [194241.08643898007, 546957.9435580964]}, "properties": {"type": "수목", "z_m": 0.02, "height_m": 7.0}}, {"type": "Feature", "geometry": {"type": "Point", "coordinates": [194247.47723929762, 546962.9295604936]}, "properties": {"type": "수목", "z_m": 0.02, "height_m": 7.0}}, {"type": "Feature", "geometry": {"type": "Point", "coordinates": [194253.86803961516, 546967.9155628907]}, "properties": {"type": "수목", "z_m": 0.02, "height_m": 7.0}}, {"type": "Feature", "geometry": {"type": "Point", "coordinates": [194260.2588399327, 546972.9015652878]}, "properties": {"type": "수목", "z_m": 0.02, "height_m": 7.0}}, {"type": "Feature", "geometry": {"type": "Point", "coordinates": [194266.64964025025, 546977.8875676849]}, "properties": {"type": "수목", "z_m": 0.02, "height_m": 7.0}}, {"type": "Feature", "geometry": {"type": "Point", "coordinates": [194273.0404405678, 546982.873570082]}, "properties": {"type": "수목", "z_m": 0.02, "height_m": 7.0}}, {"type": "Feature", "geometry": {"type": "Point", "coordinates": [194279.43124088534, 546987.8595724792]}, "properties": {"type": "수목", "z_m": 0.02, "height_m": 7.0}}, {"type": "Feature", "geometry": {"type": "Point", "coordinates": [194285.8220412029, 546992.8455748763]}, "properties": {"type": "수목", "z_m": 0.02, "height_m": 7.0}}, {"type": "Feature", "geometry": {"type": "Point", "coordinates": [194292.21284152044, 546997.8315772734]}, "properties": {"type": "수목", "z_m": 0.02, "height_m": 7.0}}, {"type": "Feature", "geometry": {"type": "Point", "coordinates": [194298.60364183798, 547002.8175796706]}, "properties": {"type": "수목", "z_m": 0.02, "height_m": 7.0}}, {"type": "Feature", "geometry": {"type": "Point", "coordinates": [194324.16684310816, 547022.761589259]}, "properties": {"type": "수목", "z_m": 0.02, "height_m": 7.0}}, {"type": "Feature", "geometry": {"type": "Point", "coordinates": [194329.8551245455, 547022.0582493749]}, "properties": {"type": "수목", "z_m": 0.02, "height_m": 7.0}}, {"type": "Feature", "geometry": {"type": "Point", "coordinates": [194349.79910106925, 546996.4950223081]}, "properties": {"type": "수목", "z_m": 0.02, "height_m": 7.0}}, {"type": "Feature", "geometry": {"type": "Point", "coordinates": [194354.7850952002, 546990.1042155414]}, "properties": {"type": "수목", "z_m": 0.02, "height_m": 7.0}}, {"type": "Feature", "geometry": {"type": "Point", "coordinates": [194359.77108933116, 546983.7134087747]}, "properties": {"type": "수목", "z_m": 0.02, "height_m": 7.0}}, {"type": "Feature", "geometry": {"type": "Point", "coordinates": [194364.75708346211, 546977.322602008]}, "properties": {"type": "수목", "z_m": 0.02, "height_m": 7.0}}, {"type": "Feature", "geometry": {"type": "Point", "coordinates": [194369.74307759304, 546970.9317952414]}, "properties": {"type": "수목", "z_m": 0.02, "height_m": 7.0}}, {"type": "Feature", "geometry": {"type": "Point", "coordinates": [194367.90686239602, 546965.3834109135]}, "properties": {"type": "수목", "z_m": 0.02, "height_m": 7.0}}, {"type": "Feature", "geometry": {"type": "Point", "coordinates": [194361.51603709089, 546960.3974405443]}, "properties": {"type": "수목", "z_m": 0.02, "height_m": 7.0}}, {"type": "Feature", "geometry": {"type": "Point", "coordinates": [194355.12521178575, 546955.4114701751]}, "properties": {"type": "수목", "z_m": 0.02, "height_m": 7.0}}, {"type": "Feature", "geometry": {"type": "Point", "coordinates": [194316.78025995503, 546925.4956479601]}, "properties": {"type": "수목", "z_m": 0.02, "height_m": 7.0}}, {"type": "Feature", "geometry": {"type": "Point", "coordinates": [194310.38943464993, 546920.5096775909]}, "properties": {"type": "수목", "z_m": 0.02, "height_m": 7.0}}, {"type": "Feature", "geometry": {"type": "Point", "coordinates": [194303.9986093448, 546915.5237072217]}, "properties": {"type": "수목", "z_m": 0.02, "height_m": 7.0}}, {"type": "Feature", "geometry": {"type": "Point", "coordinates": [194297.6077840397, 546910.5377368525]}, "properties": {"type": "수목", "z_m": 0.02, "height_m": 7.0}}, {"type": "Feature", "geometry": {"type": "Point", "coordinates": [194291.21695873456, 546905.5517664833]}, "properties": {"type": "수목", "z_m": 0.02, "height_m": 7.0}}, {"type": "Feature", "geometry": {"type": "Point", "coordinates": [194284.82613342942, 546900.5657961142]}, "properties": {"type": "수목", "z_m": 0.02, "height_m": 7.0}}], "crs": {"type": "name", "properties": {"name": "urn:ogc:def:crs:EPSG::5186"}}}