{"type": "FeatureCollection", "features": [{"type": "Feature", "geometry": {"type": "Polygon", "coordinates": [[[126.9358643056223, 37.52251090067975], [126.93586416354928, 37.52251100980637], [126.93586401007553, 37.52251110865541], [126.93586384636907, 37.52251119647452], [126.93585880837936, 37.52251365167208], [126.93585863568612, 37.52251372779291], [126.93585845532034, 37.52251379163615], [126.93585826865478, 37.52251384271591], [126.93585260450124, 37.522515175706765], [126.9358524129565, 37.52251521363427], [126.93585221799036, 37.52251523812091], [126.93585202108665, 37.52251524898031], [126.93584611677218, 37.52251536892328], [126.93584582106294, 37.52251535950903], [126.93579744787957, 37.52251128353906], [126.93579722849545, 37.52251125632793], [126.9357970135164, 37.52251121212088], [126.93579680501283, 37.52251115134365], [126.9357966049927, 37.52251107458153], [126.93579641538236, 37.52251098257382], [126.93579623800781, 37.52251087620658], [126.9357960745773, 37.5225107565042], [126.93579592666474, 37.52251062461946], [126.93579579569462, 37.5225104818225], [126.93579568292824, 37.522510329488526], [126.9357955894516, 37.52251016908459], [126.93579551616494, 37.522510002155485], [126.93579546377406, 37.52250983030882], [126.93579543278351, 37.52250965519957], [126.9357954234917, 37.52250947851414], [126.93579543598818, 37.52250930195411], [126.93580471891536, 37.52243941377919], [126.93573834647964, 37.522433821141064], [126.93573050724548, 37.522492839830605], [126.935730646455, 37.52249718724501], [126.93573215125292, 37.52250124358166], [126.93573492290331, 37.522504851497956], [126.93573877252288, 37.52250776512027], [126.9357434377664, 37.52250978588998], [126.93574874611846, 37.522510803983835], [126.93584519755002, 37.522518931092456], [126.93585065585962, 37.5225188202099], [126.93585574871055, 37.52251762166846], [126.93586027855439, 37.522515414109364], [126.93586393668963, 37.52251234797421], [126.93586575357676, 37.52250968704923], [126.9358643056223, 37.52251090067975]], [[126.93575028808776, 37.52250368566962], [126.93574671474363, 37.522503000334595], [126.9357441428405, 37.52250188630405], [126.93574202058277, 37.52250028005258], [126.93574049259881, 37.5224982910436], [126.93573966301817, 37.5224960548248], [126.93573956930818, 37.52249312834051], [126.93574639403164, 37.52244174748461], [126.93579476716735, 37.52244582347549], [126.93578667435119, 37.52250675162733], [126.93575028808776, 37.52250368566962]]]}, "properties": {"type": "18층 테라스 식재", "z_m": 56.45}}, {"type": "Feature", "geometry": {"type": "Polygon", "coordinates": [[[126.93593372739154, 37.52200229503574], [126.93593222259271, 37.521998238701315], [126.93592945095153, 37.52199463078934], [126.93592560135087, 37.52199171717301], [126.93592093613464, 37.52198969641036], [126.93591562781714, 37.52198867832417], [126.93586965233588, 37.521984804387515], [126.93586155963095, 37.52204573254935], [126.93592793173224, 37.522051325118284], [126.935933866612, 37.522006642450286], [126.93593372739154, 37.52200229503574]], [[126.93591988420289, 37.52204339878659], [126.93587151132009, 37.522039322846915], [126.9358776998536, 37.521992730722694], [126.93591408587423, 37.521995796641185], [126.93591765919571, 37.52199648197118], [126.93592023108408, 37.52199759599803], [126.9359223533314, 37.52199920224644], [126.93592388131005, 37.522001191253224], [126.93592471089075, 37.52200342747091], [126.93592480460734, 37.522006353955305], [126.93591988420289, 37.52204339878659]]]}, "properties": {"type": "18층 테라스 식재", "z_m": 56.45}}, {"type": "Feature", "geometry": {"type": "Polygon", "coordinates": [[[126.93593412674502, 37.52198390266207], [126.93593135510429, 37.52198029475014], [126.93592750550428, 37.52197738113385], [126.93592284028891, 37.521975360371265], [126.93591753197238, 37.52197434228519], [126.93582108123384, 37.52196621523552], [126.93581562296444, 37.52196632611675], [126.93581053015039, 37.5219675246566], [126.93580600033823, 37.521969732214025], [126.93580234222713, 37.521972798347704], [126.93579980511133, 37.52197651410578], [126.93579852687606, 37.521980742083855], [126.9357906877372, 37.52203976078201], [126.93585705982784, 37.52204535339078], [126.93586634263946, 37.521975465205394], [126.93586637680342, 37.52197529047108], [126.93586643230614, 37.52197511924532], [126.93586650861309, 37.52197495317708], [126.93586660498937, 37.521974793865716], [126.93586672050687, 37.521974642845464], [126.93586685405303, 37.52197450157074], [126.93586700434177, 37.521974371402095], [126.9358671699257, 37.52197425359312], [126.93586734921018, 37.521974149278385], [126.93586754046862, 37.5219740594625], [126.93586774185904, 37.52197398501044], [126.93586795144198, 37.52197392663921], [126.93586816719905, 37.52197388491097], [126.93586838705235, 37.52197386022759], [126.93586860888462, 37.52197385282674], [126.93586883055946, 37.52197386277975], [126.93591720339987, 37.521977938720546], [126.93591749503442, 37.52197797879631], [126.9359232371002, 37.521979080071446], [126.93592342679108, 37.521979123505574], [126.93592361100731, 37.52197917994237], [126.93592378834687, 37.521979248952334], [126.93592897689447, 37.52198149639883], [126.93592914600777, 37.521981577456735], [126.93592930560767, 37.5219816699457], [126.93592945447959, 37.52198177316181], [126.93593373591821, 37.52198501362002], [126.93593387292913, 37.52198512677776], [126.93593399703627, 37.521985249015906], [126.93593410729514, 37.521985379404185], [126.93593520435965, 37.52198680747946], [126.93593412674502, 37.52198390266207]], [[126.93581704474956, 37.52197350759745], [126.93582071901194, 37.52197343295717], [126.93585710502084, 37.521976498893224], [126.93584901230665, 37.522037427054265], [126.93580063943159, 37.52203335108556], [126.93580746407085, 37.52198197022203], [126.93580832452113, 37.52197912413683], [126.9358097232082, 37.521977075675544], [126.93581173988917, 37.52197538534584], [126.93581423713059, 37.52197416834086], [126.93581704474956, 37.52197350759745]]]}, "properties": {"type": "35층 테라스 식재", "z_m": 112.55}}, {"type": "Feature", "geometry": {"type": "Polygon", "coordinates": [[[126.93585256004093, 37.52250448417328], [126.93585765289085, 37.52250328563174], [126.93586218273374, 37.52250107807258], [126.93586584086823, 37.52249801193734], [126.93586837799846, 37.522494296178195], [126.9358696562386, 37.52249006819973], [126.93587559118824, 37.52244538553805], [126.9358092187419, 37.52243979293974], [126.93580112593817, 37.522500721092634], [126.93584710173236, 37.52250459505591], [126.93585256004093, 37.52250448417328]], [[126.93581107769296, 37.522494311395846], [126.93581726630204, 37.52244771927847], [126.93586563944548, 37.52245179524032], [126.93586071898221, 37.52248884006631], [126.93585985852799, 37.52249168615163], [126.93585845983266, 37.52249373461332], [126.93585644313879, 37.522495424943685], [126.93585394588068, 37.52249664194943], [126.9358511382424, 37.52249730269363], [126.93584746395436, 37.52249737733483], [126.93581107769296, 37.522494311395846]]]}, "properties": {"type": "35층 테라스 식재", "z_m": 112.55}}, {"type": "Feature", "geometry": {"type": "Polygon", "coordinates": [[[126.9358643056223, 37.52251090067975], [126.93586416354928, 37.52251100980637], [126.93586401007553, 37.52251110865541], [126.93586384636907, 37.52251119647452], [126.93585880837936, 37.52251365167208], [126.93585863568612, 37.52251372779291], [126.93585845532034, 37.52251379163615], [126.93585826865478, 37.52251384271591], [126.93585260450124, 37.522515175706765], [126.9358524129565, 37.52251521363427], [126.93585221799036, 37.52251523812091], [126.93585202108665, 37.52251524898031], [126.93584611677218, 37.52251536892328], [126.93584582106294, 37.52251535950903], [126.93579744787957, 37.52251128353906], [126.93579722849545, 37.52251125632793], [126.9357970135164, 37.52251121212088], [126.93579680501283, 37.52251115134365], [126.9357966049927, 37.52251107458153], [126.93579641538236, 37.52251098257382], [126.93579623800781, 37.52251087620658], [126.9357960745773, 37.5225107565042], [126.93579592666474, 37.52251062461946], [126.93579579569462, 37.5225104818225], [126.93579568292824, 37.522510329488526], [126.9357955894516, 37.52251016908459], [126.93579551616494, 37.522510002155485], [126.93579546377406, 37.52250983030882], [126.93579543278351, 37.52250965519957], [126.9357954234917, 37.52250947851414], [126.93579543598818, 37.52250930195411], [126.93580233867928, 37.52245733382419], [126.93573596622788, 37.52245174118474], [126.93573050724548, 37.522492839830605], [126.935730646455, 37.52249718724501], [126.93573215125292, 37.52250124358166], [126.93573492290331, 37.522504851497956], [126.93573877252288, 37.52250776512027], [126.9357434377664, 37.52250978588998], [126.93574874611846, 37.522510803983835], [126.93584519755002, 37.522518931092456], [126.93585065585962, 37.5225188202099], [126.93585574871055, 37.52251762166846], [126.93586027855439, 37.522515414109364], [126.93586393668963, 37.52251234797421], [126.93586575357676, 37.52250968704923], [126.9358643056223, 37.52251090067975]], [[126.93575028808776, 37.52250368566962], [126.93574671474363, 37.522503000334595], [126.9357441428405, 37.52250188630405], [126.93574202058277, 37.52250028005258], [126.93574049259881, 37.5224982910436], [126.93573966301817, 37.5224960548248], [126.93573956930818, 37.52249312834051], [126.93574401378153, 37.52245966752842], [126.93579238692867, 37.52246374352028], [126.93578667435119, 37.52250675162733], [126.93575028808776, 37.52250368566962]]]}, "properties": {"type": "50층 테라스 식재", "z_m": 162.05}}, {"type": "Feature", "geometry": {"type": "Polygon", "coordinates": [[[126.93593372739154, 37.52200229503574], [126.93593222259271, 37.521998238701315], [126.93592945095153, 37.52199463078934], [126.93592560135087, 37.52199171717301], [126.93592093613464, 37.52198969641036], [126.93591562781714, 37.52198867832417], [126.93586965233588, 37.521984804387515], [126.93586393983965, 37.522027812501875], [126.93593031192525, 37.52203340506948], [126.935933866612, 37.522006642450286], [126.93593372739154, 37.52200229503574]], [[126.93592226439758, 37.522025478737945], [126.9358738915262, 37.52202140279921], [126.9358776998536, 37.521992730722694], [126.93591408587423, 37.521995796641185], [126.93591765919571, 37.52199648197118], [126.93592023108408, 37.52199759599803], [126.9359223533314, 37.52199920224644], [126.93592388131005, 37.522001191253224], [126.93592471089075, 37.52200342747091], [126.93592480460734, 37.522006353955305], [126.93592226439758, 37.522025478737945]]]}, "properties": {"type": "50층 테라스 식재", "z_m": 162.05}}, {"type": "Feature", "geometry": {"type": "Polygon", "coordinates": [[[126.93579721285121, 37.52201008573474], [126.93579735492335, 37.52200997660819], [126.93579750839616, 37.52200987775923], [126.9357976721016, 37.522009789940206], [126.9358027100594, 37.52200733474502], [126.93580288275156, 37.522007258624264], [126.93580306311614, 37.52200719478109], [126.93580324978048, 37.52200714370143], [126.9358089138965, 37.522005810712784], [126.93580910543996, 37.52200577278534], [126.93580930040477, 37.522005748298774], [126.93580949730716, 37.522005737439436], [126.93581540158152, 37.52200561749826], [126.93581569728873, 37.52200562691258], [126.93586182024623, 37.522009513295906], [126.93586610461885, 37.52197725721017], [126.93582012914719, 37.52197338325425], [126.93581467087728, 37.52197349413543], [126.93580957806269, 37.52197469267525], [126.9358050482501, 37.52197690023264], [126.93580139013862, 37.52197996636626], [126.93579885302249, 37.521983682124315], [126.93579757478706, 37.521987910102375], [126.93579430565899, 37.522012522465964], [126.93579721285121, 37.52201008573474]], [[126.93580651198266, 37.521989138240635], [126.9358073724331, 37.521986292155454], [126.93580877112032, 37.52198424369418], [126.93581078780153, 37.521982553364474], [126.93581328504317, 37.52198133635952], [126.93581609266242, 37.52198067561615], [126.93581976692516, 37.52198060097588], [126.9358561529375, 37.52198366691223], [126.93585377272836, 37.52200158695968], [126.93581664937622, 37.521998458893925], [126.93581517084024, 37.521998411822324], [126.93580926656647, 37.52199853176349], [126.93580828205462, 37.52199858606013], [126.93580730723059, 37.52199870849297], [126.93580634951338, 37.52199889813022], [126.93580517904286, 37.521999173587865], [126.93580651198266, 37.521989138240635]]]}, "properties": {"type": "51층 테라스 식재", "z_m": 165.35}}, {"type": "Feature", "geometry": {"type": "Polygon", "coordinates": [[[126.9358461496413, 37.522511763074185], [126.93585160795038, 37.5225116521916], [126.93585670080078, 37.52251045365012], [126.93586123064415, 37.52250824609097], [126.93586488877901, 37.52250517995578], [126.93586742590956, 37.52250146419666], [126.93586870414985, 37.52249723621821], [126.93587197327487, 37.52247262385458], [126.93586906606711, 37.52247506058744], [126.93586892399418, 37.52247516971408], [126.9358687705205, 37.52247526856311], [126.93586860681415, 37.52247535638222], [126.935863568827, 37.52247781158001], [126.93586339613383, 37.52247788770085], [126.93586321576817, 37.5224779515441], [126.93586302910268, 37.52247800262387], [126.93585736495193, 37.52247933561495], [126.93585717340727, 37.52247937354249], [126.93585697844124, 37.52247939802912], [126.93585678153762, 37.522479408888536], [126.935850877226, 37.52247952883174], [126.93585058151689, 37.52247951941751], [126.9358044582707, 37.52247563302983], [126.93580017384274, 37.52250788911055], [126.9358461496413, 37.522511763074185]], [[126.93581250583419, 37.522483559368816], [126.93584962942647, 37.52248668743585], [126.9358511079721, 37.52248673450702], [126.93585701228429, 37.52248661456381], [126.93585799680253, 37.522486560266756], [126.93585897163281, 37.52248643783353], [126.93585992935613, 37.522486248195875], [126.93586109983409, 37.52248597273771], [126.93585976689263, 37.52249600808472], [126.93585890643828, 37.52249885417003], [126.93585750774281, 37.52250090263171], [126.93585549104873, 37.52250259296205], [126.93585299379036, 37.52250380996778], [126.93585018615181, 37.52250447071195], [126.93584651186342, 37.52250454535312], [126.93581012559854, 37.52250147941386], [126.93581250583419, 37.522483559368816]]]}, "properties": {"type": "51층 테라스 식재", "z_m": 165.35}}, {"type": "Feature", "geometry": {"type": "Polygon", "coordinates": [[[126.93582197146807, 37.522021866823245], [126.93581913940959, 37.522022533317916], [126.93581662043049, 37.522023760915886], [126.93581458619498, 37.5220254659584], [126.93581317533287, 37.522027532249695], [126.9358124839921, 37.52202981897541], [126.93575704853586, 37.52244717540226], [126.9357571238289, 37.52244952672572], [126.9357579606303, 37.5224517824086], [126.93575950191345, 37.52245378872984], [126.93576164264249, 37.52245540896193], [126.9357642369303, 37.52245653268869], [126.93576710798038, 37.522457083329996], [126.93584135513802, 37.52246333948091], [126.93584430729321, 37.52246327950957], [126.93584713936812, 37.52246261301437], [126.93584965836148, 37.52246138541586], [126.93585169260804, 37.52245968037286], [126.93585310347724, 37.52245761408128], [126.93585379482073, 37.522455327355495], [126.93590922974424, 37.522037970883325], [126.93590915444682, 37.52203561955979], [126.9359083176455, 37.5220333638778], [126.93590677636699, 37.522031357558376], [126.9359046356469, 37.52202973732881], [126.93590204137176, 37.52202861360506], [126.93589917033708, 37.52202806296702], [126.93582492360585, 37.52202180685239], [126.93582197146807, 37.522021866823245]], [[126.93587402859868, 37.522191656721716], [126.93585974731222, 37.52229917700322], [126.93579225004213, 37.522293489605715], [126.93580653142435, 37.52218596933237], [126.93587402859868, 37.522191656721716]]]}, "properties": {"type": "옥상정원", "z_m": 168.65}}, {"type": "Feature", "geometry": {"type": "Polygon", "coordinates": [[[126.93516978190374, 37.52219251842992], [126.9354690703024, 37.52240022167303], [126.93528247648827, 37.52207645591762], [126.93528298564388, 37.522075936850925], [126.93528267687866, 37.52207554329001], [126.935279768524, 37.522071449007015], [126.93527797640212, 37.52206864761505], [126.93527649764367, 37.52206573247828], [126.9352753435028, 37.52206272578249], [126.93527386469246, 37.522058171468764], [126.9352730439529, 37.52205509609654], [126.9352725628607, 37.52205197545312], [126.93527242507724, 37.52204883328832], [126.93527247658815, 37.52204412931039], [126.93527268316195, 37.522040989537764], [126.93527323252084, 37.52203787605269], [126.93527412048384, 37.52203481255046], [126.93527569880477, 37.52203027947395], [126.93527691861385, 37.52202728926944], [126.93527846098564, 37.52202439511973], [126.93528031418191, 37.522021619050854], [126.9352833117531, 37.52201756579471], [126.93528664287, 37.52201366902351], [126.93545378963191, 37.52184326795322], [126.93545773086329, 37.521839750792864], [126.93546194342919, 37.52183645354731], [126.93546487695814, 37.521834349707916], [126.93546802953884, 37.52183245751517], [126.93547137717803, 37.521830791369936], [126.93547651765333, 37.52182847487913], [126.93548003487308, 37.5218270474617], [126.93548369490524, 37.521825869635784], [126.93548746989455, 37.52182495036543], [126.93549318796188, 37.52182377249544], [126.93549704917807, 37.52182311877672], [126.93550096723489, 37.52182273558505], [126.93550491231333, 37.52182262583675], [126.93551081829334, 37.52182266685795], [126.93551476036879, 37.52182283138809], [126.93551866943949, 37.52182326894469], [126.93552251575483, 37.521823976197645], [126.93552820716224, 37.52182523331451], [126.93552876064346, 37.52182537654912], [126.93553094303523, 37.52182315165577], [126.93553173961855, 37.5218231708451], [126.93554906203693, 37.52183395017292], [126.93554906203693, 37.521833950172926], [126.93567386103639, 37.52191160944656], [126.93567386103639, 37.52191160944656], [126.93577022414507, 37.52197157358075], [126.9357724975304, 37.521954457905125], [126.93577266834478, 37.52195358425845], [126.93577294584682, 37.5219527281533], [126.93577332736413, 37.52195189783396], [126.93577380922275, 37.5219511012964], [126.93577438678231, 37.52195034621128], [126.93577505448097, 37.52194963985007], [126.93577580588874, 37.521948989015016], [126.93577663376962, 37.52194839997365], [126.9357775301511, 37.521947878398464], [126.93577848640102, 37.52194742931218], [126.93577949331069, 37.52194705703953], [126.93578054118362, 37.5219467651655], [126.93578161992873, 37.521946556500815], [126.93578271915777, 37.52194643305493], [126.93578382828515, 37.52194639601662], [126.93578493662999, 37.521946445742564], [126.93595497612851, 37.52196076730731], [126.93527801740395, 37.52153951229567], [126.93482960035448, 37.52199665774424], [126.93516857315649, 37.52219175374167], [126.93516978190374, 37.52219251842992]], [[126.93498787732649, 37.52187920504517], [126.9349870371247, 37.521878627144744], [126.93498627208619, 37.52187798643361], [126.93498558957867, 37.52187728908209], [126.934984996175, 37.521876541806], [126.93498449758992, 37.52187575180201], [126.93498409862504, 37.521874926678166], [126.93498380312255, 37.52187407438082], [126.93498361392832, 37.521873203118005], [126.93498353286435, 37.52187232128037], [126.93498356071133, 37.52187143736044], [126.93498369720108, 37.52187055987077], [126.93498394101911, 37.521869697261984], [126.93498428981734, 37.52186885784142], [126.9349847402367, 37.52186804969307], [126.93498528793944, 37.5218672805998], [126.9349859276509, 37.52186655796831], [126.93512869919361, 37.52172100742934], [126.93512942475684, 37.52172033821268], [126.93513022918178, 37.52171972886284], [126.93513110472139, 37.521719185248266], [126.93513204294365, 37.5217187126043], [126.93513303481288, 37.52171831548279], [126.93513407077677, 37.52171799770828], [126.9351351408583, 37.52171776234112], [126.93513623475201, 37.52171761164804], [126.93513734192294, 37.52171754708033], [126.93513845170835, 37.52171756925981], [126.93513955342037, 37.52171767797287], [126.93514063644878, 37.52171787217254], [126.93514169036332, 37.521718149988544], [126.93514270501419, 37.521718508745366], [126.93514367062964, 37.521718944987924], [126.9351445779102, 37.52171945451496], [126.93537634655296, 37.52186367957017], [126.93537718675759, 37.521864257467826], [126.93537795179931, 37.521864898176446], [126.93537863431037, 37.5218655955257], [126.93537922771789, 37.521866342799804], [126.93537972630708, 37.52186713280215], [126.93538012527627, 37.52186795792467], [126.93538042078323, 37.521868810221015], [126.93538060998206, 37.52186968148321], [126.93538069105068, 37.52187056332056], [126.93538066320842, 37.52187144724059], [126.9353805267233, 37.52187232473072], [126.93538028290985, 37.52187318734035], [126.93537993411603, 37.521874026762084], [126.93537948370088, 37.521874834911934], [126.93537893600214, 37.52187560400704], [126.93537829629437, 37.52187632664065], [126.93523552493969, 37.52202187747768], [126.93523479937448, 37.52202254669496], [126.93523399494711, 37.522023156045485], [126.93523311940471, 37.522023699660785], [126.93523218117927, 37.52202417230553], [126.93523118930653, 37.522024569427835], [126.93523015333881, 37.522024887203195], [126.93522908325316, 37.5220251225712], [126.93522798935517, 37.522025273265115], [126.93522688217976, 37.52202533783366], [126.93522577238976, 37.52202531565502], [126.9352246706731, 37.522025206942764], [126.93522358764002, 37.522025012743875], [126.93522253372085, 37.52202473492859], [126.93522151906545, 37.52202437617249], [126.93522055344562, 37.52202393993058], [126.93521964616087, 37.52202343040416], [126.93519290388025, 37.52200678924075], [126.93519455980464, 37.5220079664148], [126.93520076934446, 37.522012999273294], [126.93520175985833, 37.52201387546262], [126.93520265072561, 37.522014817076965], [126.93520343516637, 37.52201581695013], [126.93520779768899, 37.52202195837745], [126.9352084697333, 37.52202300889984], [126.93520902426638, 37.52202410207647], [126.93520945706797, 37.52202522958763], [126.93521167527668, 37.52203206105946], [126.93521198305298, 37.52203321432421], [126.93521216346154, 37.522034384565586], [126.9352122151294, 37.52203556287741], [126.93521213785736, 37.52204261884428], [126.93521206039124, 37.52204379625898], [126.93521185438068, 37.52204496381577], [126.93521152139358, 37.52204611262893], [126.93520915390575, 37.52205291224236], [126.93520869647621, 37.522054033568786], [126.93520811808555, 37.52205511887459], [126.93520742313565, 37.52205615989999], [126.93520292677027, 37.52206223978125], [126.93520167759903, 37.52206370106955], [126.93514596174111, 37.522120501331834], [126.93514448376837, 37.52212182026302], [126.93513816487436, 37.52212676611402], [126.9351370647933, 37.5221275550507], [126.93513588256776, 37.52212826461964], [126.9351346271953, 37.52212888942051], [126.93512691643546, 37.522132364134066], [126.93512559747018, 37.52213289941165], [126.9351242249504, 37.522133341092186], [126.93512280932192, 37.522133685814204], [126.93511423217669, 37.52213545259207], [126.93511278421335, 37.52213569773189], [126.93511131493517, 37.52213584142394], [126.93510983552436, 37.52213588257463], [126.93510097651769, 37.52213582101261], [126.93509949823355, 37.52213575930865], [126.93509803232685, 37.52213559521974], [126.9350965899541, 37.52213532999471], [126.93508805281867, 37.52213344428821], [126.93508664495735, 37.52213307994552], [126.93508528232223, 37.522132619258144], [126.93508397528385, 37.522132065732244], [126.93507634181695, 37.522128484390294], [126.93507450712902, 37.522127489429764], [126.93501210799243, 37.52208865965874], [126.93500862574368, 37.522092209670305], [126.93493731222085, 37.52204783255866], [126.93494079447096, 37.52204428254917], [126.93489622329889, 37.522016546669384], [126.93489456737898, 37.52201536949116], [126.93488835785956, 37.52201033661659], [126.93488736734942, 37.522009460424634], [126.93488647648614, 37.522008518807915], [126.93488569204972, 37.52200751893264], [126.93488132955434, 37.52200137749343], [126.93488065751482, 37.522000326969184], [126.9348801029867, 37.521999233791014], [126.93487967019023, 37.52199810627864], [126.93487745201278, 37.52199127480058], [126.93487714424181, 37.52199012153495], [126.93487696383859, 37.52198895129306], [126.93487691217605, 37.52198777298108], [126.93487698947958, 37.521980717014394], [126.93487706695092, 37.5219795395999], [126.93487727296649, 37.521978372043705], [126.93487760595843, 37.52197722323147], [126.93487997347393, 37.52197042362461], [126.93488043090788, 37.521969302299446], [126.93488100930261, 37.52196821699525], [126.93488170425623, 37.52196717597175], [126.93488620064193, 37.52196109610264], [126.93488744981761, 37.521959634817655], [126.9349431657515, 37.52190283467585], [126.93494464372348, 37.52190151574713], [126.93495096261124, 37.5218965699063], [126.93495206269085, 37.521895780971306], [126.93495324491445, 37.52189507140419], [126.93495450028449, 37.52189444660521], [126.93496221102781, 37.52189097190275], [126.93496352999, 37.52189043662697], [126.93496490250628, 37.52188999494829], [126.93496631813088, 37.52188965022813], [126.93497489525143, 37.52188788346092], [126.93497634321045, 37.521887638322774], [126.934977812484, 37.52188749463238], [126.93497929188997, 37.52188745348336], [126.93498815086717, 37.521887515054466], [126.93498962914632, 37.52188757675983], [126.9349910950479, 37.52188774085008], [126.93499253741551, 37.521888006076395], [126.93500107452063, 37.521889891789854], [126.93500248237692, 37.52189025613358], [126.93500384500713, 37.52189071682192], [126.9350051520407, 37.52189127034873], [126.93501278548005, 37.5218948516954], [126.93501462016147, 37.52189584665691], [126.93498787732649, 37.52187920504517]]]}, "properties": {"type": "지상 잔디·식재", "z_m": 0.02}}, {"type": "Feature", "geometry": {"type": "Polygon", "coordinates": [[[126.93604971856786, 37.52211097325004], [126.9360490360483, 37.52211027590469], [126.93604844263216, 37.52210952863396], [126.93604794403431, 37.522108738634465], [126.93604754505647, 37.52210791351424], [126.93604724954102, 37.522107061219586], [126.9360470603338, 37.52210618995849], [126.9360469792571, 37.52210530812162], [126.9360470070916, 37.52210442420145], [126.93604714356931, 37.522103546710575], [126.93604738737587, 37.52210268409962], [126.93604773616329, 37.52210184467592], [126.93604818657259, 37.522101036523544], [126.93604873426612, 37.52210026742538], [126.93604937396933, 37.522099544788155], [126.93609812473724, 37.522049844186476], [126.93609812478597, 37.52204984414154], [126.93596810451459, 37.52196893669846], [126.9359681457257, 37.52196916954446], [126.93596819219245, 37.521970052996686], [126.93596812971246, 37.521970935822296], [126.93595294303985, 37.52208527408445], [126.93608953418327, 37.522170270256815], [126.93608645451297, 37.52219345690072], [126.93591541310364, 37.52236783002412], [126.93589378163081, 37.52253068839216], [126.9358936108165, 37.52253156203892], [126.9358933333137, 37.52253241814429], [126.93589295179474, 37.52253324846392], [126.93589246993365, 37.522534045001876], [126.93589189237078, 37.5225348000875], [126.935891224668, 37.522535506449316], [126.93589047325531, 37.52253615728503], [126.93588964536885, 37.52253674632713], [126.9358887489811, 37.52253726790311], [126.93588779272432, 37.52253771699023], [126.93588678580721, 37.522538089263755], [126.93588573792645, 37.522538381138695], [126.93588465917308, 37.5225385898043], [126.93588355993553, 37.522538713251116], [126.93588245079943, 37.522538750290344], [126.93588134244575, 37.52253870056533], [126.93575799669361, 37.52252831180549], [126.93571974441156, 37.5225673088383], [126.93586210479494, 37.522652529831866], [126.93626295380952, 37.52224388173545], [126.93605132383044, 37.52211219184712], [126.93605048361782, 37.52211161395429], [126.93604971856786, 37.52211097325004]]]}, "properties": {"type": "지상 잔디·식재", "z_m": 0.02}}, {"type": "Feature", "geometry": {"type": "Polygon", "coordinates": [[[126.93562674468482, 37.52254544989796], [126.9356257925388, 37.52254483584677], [126.93514807008812, 37.52221330195389], [126.93480869215027, 37.52201797274618], [126.93478671829425, 37.52204037411646], [126.93582736268382, 37.522687947624085], [126.93584120745223, 37.52267383360131], [126.93562674468482, 37.52254544989796]]]}, "properties": {"type": "지상 잔디·식재", "z_m": 0.02}}, {"type": "Feature", "geometry": {"type": "Polygon", "coordinates": [[[126.93552120410094, 37.52186235024463], [126.93551611512727, 37.52185996270212], [126.93551042371742, 37.5218587055847], [126.93550451773456, 37.52185866456347], [126.93549879966476, 37.52185984243401], [126.93549365918798, 37.521862158925764], [126.93548944662203, 37.52186545617241], [126.93532229989157, 37.522035857292565], [126.93531930232176, 37.52203991054969], [126.93531772400326, 37.522044443626775], [126.93531767249519, 37.522049147604726], [126.93531915130798, 37.522053701917926], [126.93532205966412, 37.522057796199945], [126.9353261993657, 37.52206115143448], [126.9354509985119, 37.522138810940746], [126.93545608750242, 37.522141198485976], [126.93546177893279, 37.52214245560597], [126.93546768493798, 37.52214249662935], [126.93547340302987, 37.52214131876039], [126.93547854352641, 37.52213900226966], [126.93548275610824, 37.52213570502356], [126.93564990269721, 37.52196530367908], [126.93565290024615, 37.5219612504135], [126.93565447854263, 37.52195671733185], [126.9356545300295, 37.52195201335365], [126.93565305119829, 37.52194745904456], [126.93565014282832, 37.52194336477061], [126.93564600311872, 37.52194000954733], [126.93552120410094, 37.52186235024463]]]}, "properties": {"type": "성큰광장(B1 −5.0m)", "z_m": -5.0}}, {"type": "Feature", "geometry": {"type": "Polygon", "coordinates": [[[126.9350009832175, 37.521910228420374], [126.93499431081266, 37.521907097957765], [126.93498720883473, 37.5219055292415], [126.9349798390927, 37.52190547802077], [126.93497270382605, 37.52190694778621], [126.93496628929508, 37.52190983837498], [126.93496076594315, 37.52191416154464], [126.93490550649135, 37.521970496334944], [126.93490157619283, 37.521975810760914], [126.9348996066696, 37.521981467321474], [126.93489954236294, 37.52198733714621], [126.93490138765563, 37.52199302021958], [126.93490501679544, 37.521998129252694], [126.93491044454838, 37.52200252849734], [126.93508814409847, 37.522113107658384], [126.93509481652559, 37.52211623811561], [126.93510191852576, 37.522117806825364], [126.93510928828877, 37.522117858038484], [126.93511642357284, 37.52211638826487], [126.93512283811572, 37.52211349766805], [126.93512836147303, 37.52210917449096], [126.93518362085985, 37.52205283959764], [126.9351875511424, 37.52204752516235], [126.93518952064566, 37.52204186859704], [126.93518958492966, 37.522035998772175], [126.93518773961407, 37.52203031570332], [126.93518411045342, 37.52202520667892], [126.93517868268272, 37.52202080744685], [126.9350009832175, 37.521910228420374]]]}, "properties": {"type": "어린이집 지붕정원", "z_m": 7.6}}, {"type": "Feature", "geometry": {"type": "Polygon", "coordinates": [[[126.93513761340053, 37.521726554509776], [126.93499484186452, 37.521872105059394], [126.9352266106904, 37.522016330404874], [126.93536938205182, 37.5218707795785], [126.93513761340053, 37.521726554509776]]]}, "properties": {"type": "어린이집 놀이마당", "z_m": 0.02}}, {"type": "Feature", "geometry": {"type": "Point", "coordinates": [126.93576937396556, 37.52247448884197]}, "properties": {"type": "수목", "z_m": 57.35, "height_m": 3.2}}, {"type": "Feature", "geometry": {"type": "Point", "coordinates": [126.93589595225514, 37.52201782547548]}, "properties": {"type": "수목", "z_m": 57.35, "height_m": 3.2}}, {"type": "Feature", "geometry": {"type": "Point", "coordinates": [126.93583171200223, 37.52200516427555]}, "properties": {"type": "수목", "z_m": 113.45, "height_m": 3.2}}, {"type": "Feature", "geometry": {"type": "Point", "coordinates": [126.9358355187939, 37.522472814038736]}, "properties": {"type": "수목", "z_m": 113.45, "height_m": 3.2}}, {"type": "Feature", "geometry": {"type": "Point", "coordinates": [126.93576818384288, 37.52248344886408]}, "properties": {"type": "수목", "z_m": 162.95, "height_m": 3.2}}, {"type": "Feature", "geometry": {"type": "Point", "coordinates": [126.93589714235506, 37.52200886545137]}, "properties": {"type": "수목", "z_m": 162.95, "height_m": 3.2}}, {"type": "Feature", "geometry": {"type": "Point", "coordinates": [126.93583361617395, 37.52199082823797]}, "properties": {"type": "수목", "z_m": 166.25, "height_m": 3.2}}, {"type": "Feature", "geometry": {"type": "Point", "coordinates": [126.93583266251804, 37.52249431809335]}, "properties": {"type": "수목", "z_m": 166.25, "height_m": 3.2}}, {"type": "Feature", "geometry": {"type": "Point", "coordinates": [126.93581647776342, 37.522368013492176]}, "properties": {"type": "수목", "z_m": 169.25, "height_m": 2.4}}, {"type": "Feature", "geometry": {"type": "Point", "coordinates": [126.93582480856281, 37.522305293332245]}, "properties": {"type": "수목", "z_m": 169.25, "height_m": 2.4}}, {"type": "Feature", "geometry": {"type": "Point", "coordinates": [126.93584147011956, 37.52217985300857]}, "properties": {"type": "수목", "z_m": 169.25, "height_m": 2.4}}, {"type": "Feature", "geometry": {"type": "Point", "coordinates": [126.9358498008769, 37.52211713284484]}, "properties": {"type": "수목", "z_m": 169.25, "height_m": 2.4}}, {"type": "Feature", "geometry": {"type": "Point", "coordinates": [126.9352760676753, 37.52152686513959]}, "properties": {"type": "수목", "z_m": 0.02, "height_m": 7.0}}, {"type": "Feature", "geometry": {"type": "Point", "coordinates": [126.93521937897054, 37.521584657696884]}, "properties": {"type": "수목", "z_m": 0.02, "height_m": 7.0}}, {"type": "Feature", "geometry": {"type": "Point", "coordinates": [126.9351626901783, 37.52164245022631]}, "properties": {"type": "수목", "z_m": 0.02, "height_m": 7.0}}, {"type": "Feature", "geometry": {"type": "Point", "coordinates": [126.9351060012986, 37.521700242727896]}, "properties": {"type": "수목", "z_m": 0.02, "height_m": 7.0}}, {"type": "Feature", "geometry": {"type": "Point", "coordinates": [126.93504931233142, 37.52175803520162]}, "properties": {"type": "수목", "z_m": 0.02, "height_m": 7.0}}, {"type": "Feature", "geometry": {"type": "Point", "coordinates": [126.93499262327677, 37.52181582764748]}, "properties": {"type": "수목", "z_m": 0.02, "height_m": 7.0}}, {"type": "Feature", "geometry": {"type": "Point", "coordinates": [126.93493593413466, 37.52187362006549]}, "properties": {"type": "수목", "z_m": 0.02, "height_m": 7.0}}, {"type": "Feature", "geometry": {"type": "Point", "coordinates": [126.93487924490502, 37.521931412455636]}, "properties": {"type": "수목", "z_m": 0.02, "height_m": 7.0}}, {"type": "Feature", "geometry": {"type": "Point", "coordinates": [126.93477720535195, 37.52204588826236]}, "properties": {"type": "수목", "z_m": 0.02, "height_m": 7.0}}, {"type": "Feature", "geometry": {"type": "Point", "coordinates": [126.93484976428144, 37.52209104099316]}, "properties": {"type": "수목", "z_m": 0.02, "height_m": 7.0}}, {"type": "Feature", "geometry": {"type": "Point", "coordinates": [126.93492232329841, 37.5221361936791]}, "properties": {"type": "수목", "z_m": 0.02, "height_m": 7.0}}, {"type": "Feature", "geometry": {"type": "Point", "coordinates": [126.93499488240288, 37.522181346320224]}, "properties": {"type": "수목", "z_m": 0.02, "height_m": 7.0}}, {"type": "Feature", "geometry": {"type": "Point", "coordinates": [126.93506744159481, 37.52222649891649]}, "properties": {"type": "수목", "z_m": 0.02, "height_m": 7.0}}, {"type": "Feature", "geometry": {"type": "Point", "coordinates": [126.9351400008742, 37.52227165146793]}, "properties": {"type": "수목", "z_m": 0.02, "height_m": 7.0}}, {"type": "Feature", "geometry": {"type": "Point", "coordinates": [126.93521256024108, 37.522316803974526]}, "properties": {"type": "수목", "z_m": 0.02, "height_m": 7.0}}, {"type": "Feature", "geometry": {"type": "Point", "coordinates": [126.93528511969544, 37.522361956436264]}, "properties": {"type": "수목", "z_m": 0.02, "height_m": 7.0}}, {"type": "Feature", "geometry": {"type": "Point", "coordinates": [126.9353576792373, 37.52240710885318]}, "properties": {"type": "수목", "z_m": 0.02, "height_m": 7.0}}, {"type": "Feature", "geometry": {"type": "Point", "coordinates": [126.93543023886662, 37.52245226122524]}, "properties": {"type": "수목", "z_m": 0.02, "height_m": 7.0}}, {"type": "Feature", "geometry": {"type": "Point", "coordinates": [126.93550279858341, 37.52249741355248]}, "properties": {"type": "수목", "z_m": 0.02, "height_m": 7.0}}, {"type": "Feature", "geometry": {"type": "Point", "coordinates": [126.9355753583877, 37.52254256583487]}, "properties": {"type": "수목", "z_m": 0.02, "height_m": 7.0}}, {"type": "Feature", "geometry": {"type": "Point", "coordinates": [126.9357204782587, 37.522632870265106]}, "properties": {"type": "수목", "z_m": 0.02, "height_m": 7.0}}, {"type": "Feature", "geometry": {"type": "Point", "coordinates": [126.93579303832543, 37.52267802241296]}, "properties": {"type": "수목", "z_m": 0.02, "height_m": 7.0}}, {"type": "Feature", "geometry": {"type": "Point", "coordinates": [126.93602773109724, 37.522498316552216]}, "properties": {"type": "수목", "z_m": 0.02, "height_m": 7.0}}, {"type": "Feature", "geometry": {"type": "Point", "coordinates": [126.93608442061874, 37.52244052408104]}, "properties": {"type": "수목", "z_m": 0.02, "height_m": 7.0}}, {"type": "Feature", "geometry": {"type": "Point", "coordinates": [126.93614111005279, 37.522382731582006]}, "properties": {"type": "수목", "z_m": 0.02, "height_m": 7.0}}, {"type": "Feature", "geometry": {"type": "Point", "coordinates": [126.93619779939937, 37.52232493905512]}, "properties": {"type": "수목", "z_m": 0.02, "height_m": 7.0}}, {"type": "Feature", "geometry": {"type": "Point", "coordinates": [126.93625448865842, 37.522267146500376]}, "properties": {"type": "수목", "z_m": 0.02, "height_m": 7.0}}, {"type": "Feature", "geometry": {"type": "Point", "coordinates": [126.9360742216241, 37.52202353619665]}, "properties": {"type": "수목", "z_m": 0.02, "height_m": 7.0}}, {"type": "Feature", "geometry": {"type": "Point", "coordinates": [126.93578398259986, 37.52184292916732]}, "properties": {"type": "수목", "z_m": 0.02, "height_m": 7.0}}, {"type": "Feature", "geometry": {"type": "Point", "coordinates": [126.9357114230625, 37.52179777729787]}, "properties": {"type": "수목", "z_m": 0.02, "height_m": 7.0}}, {"type": "Feature", "geometry": {"type": "Point", "coordinates": [126.93563886361262, 37.5217526253836]}, "properties": {"type": "수목", "z_m": 0.02, "height_m": 7.0}}, {"type": "Feature", "geometry": {"type": "Point", "coordinates": [126.9355663042502, 37.52170747342447]}, "properties": {"type": "수목", "z_m": 0.02, "height_m": 7.0}}, {"type": "Feature", "geometry": {"type": "Point", "coordinates": [126.93549374497525, 37.521662321420514]}, "properties": {"type": "수목", "z_m": 0.02, "height_m": 7.0}}, {"type": "Feature", "geometry": {"type": "Point", "coordinates": [126.9354211857878, 37.521617169371716]}, "properties": {"type": "수목", "z_m": 0.02, "height_m": 7.0}}, {"type": "Feature", "geometry": {"type": "Point", "coordinates": [126.93534862668781, 37.521572017278075]}, "properties": {"type": "수목", "z_m": 0.02, "height_m": 7.0}}, {"type": "Feature", "geometry": {"type": "Point", "coordinates": [126.93523362202191, 37.52166906200093]}, "properties": {"type": "수목", "z_m": 0.25, "height_m": 6.7}}, {"type": "Feature", "geometry": {"type": "Point", "coordinates": [126.9352623997167, 37.521720702730086]}, "properties": {"type": "수목", "z_m": 0.25, "height_m": 7.4}}, {"type": "Feature", "geometry": {"type": "Point", "coordinates": [126.93526440129442, 37.52219650173355]}, "properties": {"type": "수목", "z_m": 0.25, "height_m": 6.4}}, {"type": "Feature", "geometry": {"type": "Point", "coordinates": [126.93537021517494, 37.52166617739188]}, "properties": {"type": "수목", "z_m": 0.25, "height_m": 5.8}}, {"type": "Feature", "geometry": {"type": "Point", "coordinates": [126.93534635282882, 37.52225456399202]}, "properties": {"type": "수목", "z_m": 0.25, "height_m": 7.9}}, {"type": "Feature", "geometry": {"type": "Point", "coordinates": [126.93545657113164, 37.52172551611605]}, "properties": {"type": "수목", "z_m": 0.25, "height_m": 7.7}}, {"type": "Feature", "geometry": {"type": "Point", "coordinates": [126.93555344389402, 37.521812634049475]}, "properties": {"type": "수목", "z_m": 0.25, "height_m": 6.3}}, {"type": "Feature", "geometry": {"type": "Point", "coordinates": [126.93564799347914, 37.52186132671844]}, "properties": {"type": "수목", "z_m": 0.25, "height_m": 7.0}}, {"type": "Feature", "geometry": {"type": "Point", "coordinates": [126.93607712921103, 37.522298636332316]}, "properties": {"type": "수목", "z_m": 0.25, "height_m": 7.4}}, {"type": "Feature", "geometry": {"type": "Point", "coordinates": [126.93602915623516, 37.52238673776797]}, "properties": {"type": "수목", "z_m": 0.25, "height_m": 5.6}}, {"type": "Feature", "geometry": {"type": "Point", "coordinates": [126.93612348462105, 37.522234966908925]}, "properties": {"type": "수목", "z_m": 0.25, "height_m": 5.8}}, {"type": "Feature", "geometry": {"type": "Point", "coordinates": [126.93613150978736, 37.52232764563591]}, "properties": {"type": "수목", "z_m": 0.25, "height_m": 6.7}}, {"type": "Feature", "geometry": {"type": "Point", "coordinates": [126.93517368726638, 37.521777587342825]}, "properties": {"type": "수목", "z_m": 0.02, "height_m": 6.0}}, {"type": "Feature", "geometry": {"type": "Point", "coordinates": [126.93524500067241, 37.521821964313666]}, "properties": {"type": "수목", "z_m": 0.02, "height_m": 6.0}}, {"type": "Feature", "geometry": {"type": "Point", "coordinates": [126.93531631416295, 37.5218663412412]}, "properties": {"type": "수목", "z_m": 0.02, "height_m": 6.0}}]}