{
 "type": "FeatureCollection",
 "crs": {
  "type": "name",
  "properties": {
   "name": "urn:ogc:def:crs:EPSG::5186"
  }
 },
 "features": [
  {
   "type": "Feature",
   "geometry": {
    "type": "Polygon",
    "coordinates": [
     [
      [
       194312.86008728674,
       546945.2570951858
      ],
      [
       194333.41197787455,
       546950.7639576718
      ],
      [
       194325.53991271328,
       546980.1429048141
      ],
      [
       194304.98802212547,
       546974.6360423281
      ],
      [
       194312.86008728674,
       546945.2570951858
      ]
     ]
    ]
   },
   "properties": {
    "label": "화랑 1동",
    "floors": 75,
    "height_m": 225.25,
    "plate_m2": 501.1,
    "top_elev_m": 238.55
   }
  },
  {
   "type": "Feature",
   "geometry": {
    "type": "Polygon",
    "coordinates": [
     [
      [
       194278.05443044423,
       546892.4920860021
      ],
      [
       194230.97058833847,
       546952.8418800812
      ],
      [
       194327.74268022715,
       547028.3417548352
      ],
      [
       194374.8265223329,
       546967.9919607561
      ],
      [
       194278.05443044423,
       546892.4920860021
      ]
     ]
    ]
   },
   "properties": {
    "label": "화랑 대지",
    "area_m2": 9395.0
   }
  },
  {
   "type": "Feature",
   "geometry": {
    "type": "Polygon",
    "coordinates": [
     [
      [
       194278.57436472367,
       546896.7027472738
      ],
      [
       194235.1812496103,
       546952.3219458018
      ],
      [
       194327.2227459477,
       547024.1310935635
      ],
      [
       194370.6158610611,
       546968.5118950355
      ],
      [
       194278.57436472367,
       546896.7027472738
      ]
     ]
    ]
   },
   "properties": {
    "label": "이격선 3m"
   }
  }
 ]
}