{
 "type": "FeatureCollection",
 "crs": {
  "type": "name",
  "properties": {
   "name": "urn:ogc:def:crs:EPSG::5186"
  }
 },
 "features": [
  {
   "type": "Feature",
   "geometry": {
    "type": "Polygon",
    "coordinates": [
     [
      [
       194313.73545446308,
       546946.5464752724
      ],
      [
       194332.0091976189,
       546951.4429099937
      ],
      [
       194324.66454553694,
       546978.8535247275
      ],
      [
       194306.39080238112,
       546973.9570900062
      ],
      [
       194313.73545446308,
       546946.5464752724
      ]
     ]
    ]
   },
   "properties": {
    "label": "화랑 1동",
    "floors": 70,
    "height_m": 210.5,
    "plate_m2": 536.9,
    "top_elev_m": 223.8
   }
  },
  {
   "type": "Feature",
   "geometry": {
    "type": "Polygon",
    "coordinates": [
     [
      [
       194278.05443044423,
       546892.4920860021
      ],
      [
       194230.97058833847,
       546952.8418800812
      ],
      [
       194327.74268022715,
       547028.3417548352
      ],
      [
       194374.8265223329,
       546967.9919607561
      ],
      [
       194278.05443044423,
       546892.4920860021
      ]
     ]
    ]
   },
   "properties": {
    "label": "화랑 대지",
    "area_m2": 9395.0
   }
  },
  {
   "type": "Feature",
   "geometry": {
    "type": "Polygon",
    "coordinates": [
     [
      [
       194278.57436472367,
       546896.7027472738
      ],
      [
       194235.1812496103,
       546952.3219458018
      ],
      [
       194327.2227459477,
       547024.1310935635
      ],
      [
       194370.6158610611,
       546968.5118950355
      ],
      [
       194278.57436472367,
       546896.7027472738
      ]
     ]
    ]
   },
   "properties": {
    "label": "이격선 3m"
   }
  }
 ]
}