{
 "type": "FeatureCollection",
 "crs": {
  "type": "name",
  "properties": {
   "name": "urn:ogc:def:crs:EPSG::5186"
  }
 },
 "features": [
  {
   "type": "Feature",
   "geometry": {
    "type": "Polygon",
    "coordinates": [
     [
      [
       194323.3429425173,
       546982.9455299225
      ],
      [
       194305.48934157236,
       546978.1616719672
      ],
      [
       194315.0570574827,
       546942.4544700774
      ],
      [
       194332.91065842766,
       546947.2383280327
      ],
      [
       194323.3429425173,
       546982.9455299225
      ]
     ]
    ]
   },
   "properties": {
    "line": "연면적선(내부 골조)",
    "area_m2": 683.3,
    "floors": 55,
    "gfa_m2": 37580.0,
    "far_pct": 400.0,
    "height_m": 166.25,
    "top_elev_m": 179.55
   }
  },
  {
   "type": "Feature",
   "geometry": {
    "type": "Polygon",
    "coordinates": [
     [
      [
       194323.82590543045,
       546983.074939445
      ],
      [
       194305.00637865922,
       546978.0322624447
      ],
      [
       194314.57409456957,
       546942.3250605549
      ],
      [
       194333.3936213408,
       546947.3677375552
      ],
      [
       194323.82590543045,
       546983.074939445
      ]
     ]
    ]
   },
   "properties": {
    "line": "건축면적선(발코니 끝 -1m)",
    "area_m2": 720.2,
    "bcr_pct": 7.67
   }
  },
  {
   "type": "Feature",
   "geometry": {
    "type": "Polygon",
    "coordinates": [
     [
      [
       194324.79183125673,
       546983.3337584902
      ],
      [
       194304.04045283294,
       546977.7734433997
      ],
      [
       194313.6081687433,
       546942.0662415097
      ],
      [
       194334.35954716709,
       546947.6265566002
      ],
      [
       194324.79183125673,
       546983.3337584902
      ]
     ]
    ]
   },
   "properties": {
    "line": "외형선(발코니 끝)",
    "area_m2": 794.2,
    "service_m2": 6099.5
   }
  }
 ]
}