{
 "type": "FeatureCollection",
 "crs": {
  "type": "name",
  "properties": {
   "name": "urn:ogc:def:crs:EPSG::5186"
  }
 },
 "features": [
  {
   "type": "Feature",
   "geometry": {
    "type": "Polygon",
    "coordinates": [
     [
      [
       194324.79183125673,
       546983.3337584902
      ],
      [
       194304.04045283294,
       546977.7734433997
      ],
      [
       194313.6081687433,
       546942.0662415097
      ],
      [
       194334.35954716709,
       546947.6265566002
      ],
      [
       194324.79183125673,
       546983.3337584902
      ]
     ]
    ]
   },
   "properties": {
    "rank": 1,
    "code": "R016",
    "label": "직사각형 2:1 / 회전 105° / 발코니 장변2면",
    "aspect": 2.0,
    "balcony_mode": "long",
    "inner_m2": 683.3,
    "build_m2": 720.2,
    "outer_m2": 794.2,
    "pass_a_pct": 85.7,
    "delta_vs_now_pp": 3.1,
    "clearance_m": 8.8
   }
  },
  {
   "type": "Feature",
   "geometry": {
    "type": "Polygon",
    "coordinates": [
     [
      [
       194324.40360268907,
       546984.7826472296
      ],
      [
       194303.65222426527,
       546979.222332139
      ],
      [
       194313.99639731096,
       546940.6173527703
      ],
      [
       194334.74777573475,
       546946.1776678609
      ],
      [
       194324.40360268907,
       546984.7826472296
      ]
     ]
    ]
   },
   "properties": {
    "rank": 2,
    "code": "R015",
    "label": "직사각형 2:1 / 회전 105° / 발코니 4면",
    "aspect": 2.0,
    "balcony_mode": "all",
    "inner_m2": 683.3,
    "build_m2": 739.7,
    "outer_m2": 858.6,
    "pass_a_pct": 85.6,
    "delta_vs_now_pp": 2.9,
    "clearance_m": 7.5
   }
  },
  {
   "type": "Feature",
   "geometry": {
    "type": "Polygon",
    "coordinates": [
     [
      [
       194308.00052793295,
       546982.098054638
      ],
      [
       194309.62485240374,
       546982.7719301395
      ],
      [
       194311.39911574524,
       546983.030960523
      ],
      [
       194313.25856052092,
       546982.895295082
      ],
      [
       194315.1652300869,
       546982.3984829044
      ],
      [
       194317.0970651721,
       546981.5708012226
      ],
      [
       194319.03572426602,
       546980.4374512177
      ],
      [
       194320.9611375458,
       546979.0218982998
      ],
      [
       194322.85053104116,
       546977.3487705283
      ],
      [
       194324.67912048165,
       546975.4453479571
      ],
      [
       194326.42116621573,
       546973.3420328458
      ],
      [
       194328.0509652734,
       546971.0722343373
      ],
      [
       194329.54368693253,
       546968.6719304349
      ],
      [
       194330.8760502593,
       546966.179043606
      ],
      [
       194332.0268539003,
       546963.6326969648
      ],
      [
       194332.97735535173,
       546961.072383549
      ],
      [
       194333.71147293242,
       546958.5370673547
      ],
      [
       194334.21574733857,
       546956.0642407042
      ],
      [
       194334.47894548596,
       546953.6890074322
      ],
      [
       194334.49112583464,
       546951.4434044051
      ],
      [
       194334.2420016547,
       546949.3565453045
      ],
      [
       194333.7189188385,
       546947.4569149349
      ],
      [
       194332.90668616898,
       546945.7787558018
      ],
      [
       194331.79522760567,
       546944.3717138668
      ],
      [
       194330.39947206707,
       546943.3019453619
      ],
      [
       194328.7751475963,
       546942.6280698604
      ],
      [
       194327.00088425478,
       546942.3690394768
      ],
      [
       194325.1414394791,
       546942.5047049179
      ],
      [
       194323.23476991314,
       546943.0015170955
      ],
      [
       194321.30293482792,
       546943.8291987773
      ],
      [
       194319.364275734,
       546944.9625487822
      ],
      [
       194317.43886245423,
       546946.3781017001
      ],
      [
       194315.54946895887,
       546948.0512294716
      ],
      [
       194313.72087951837,
       546949.9546520428
      ],
      [
       194311.9788337843,
       546952.0579671541
      ],
      [
       194310.34903472662,
       546954.3277656626
      ],
      [
       194308.8563130675,
       546956.728069565
      ],
      [
       194307.52394974072,
       546959.2209563939
      ],
      [
       194306.37314609974,
       546961.7673030351
      ],
      [
       194305.4226446483,
       546964.327616451
      ],
      [
       194304.6885270676,
       546966.8629326453
      ],
      [
       194304.18425266145,
       546969.3357592957
      ],
      [
       194303.92105451407,
       546971.7109925677
      ],
      [
       194303.90887416538,
       546973.9565955948
      ],
      [
       194304.15799834533,
       546976.0434546954
      ],
      [
       194304.6810811615,
       546977.943085065
      ],
      [
       194305.49331383104,
       546979.6212441981
      ],
      [
       194306.60477239435,
       546981.0282861331
      ],
      [
       194308.00052793295,
       546982.098054638
      ]
     ]
    ]
   },
   "properties": {
    "rank": 3,
    "code": "X155",
    "label": "타원 2:1 / 회전 120° / 발코니 4면",
    "aspect": 1.88,
    "balcony_mode": "all",
    "inner_m2": 683.3,
    "build_m2": 734.6,
    "outer_m2": 842.0,
    "pass_a_pct": 85.3,
    "delta_vs_now_pp": 2.6,
    "clearance_m": 7.8
   }
  },
  {
   "type": "Feature",
   "geometry": {
    "type": "Polygon",
    "coordinates": [
     [
      [
       194319.2,
       546985.0989441341
      ],
      [
       194320.94364400642,
       546984.8703752019
      ],
      [
       194322.60971632495,
       546984.2075704237
      ],
      [
       194324.15221001714,
       546983.1603583175
      ],
      [
       194325.55502820903,
       546981.7767715678
      ],
      [
       194326.81420562786,
       546980.0940606626
      ],
      [
       194327.92645865,
       546978.1432212199
      ],
      [
       194328.88613900414,
       546975.9546097928
      ],
      [
       194329.68583788318,
       546973.5609418912
      ],
      [
       194330.31773150605,
       546970.99823487
      ],
      [
       194330.7747298107,
       546968.3056876846
      ],
      [
       194331.05127794348,
       546965.5250849859
      ],
      [
       194331.14386086984,
       546962.7
      ],
      [
       194331.05127794348,
       546959.874915014
      ],
      [
       194330.7747298107,
       546957.0943123153
      ],
      [
       194330.31773150605,
       546954.4017651299
      ],
      [
       194329.68583788318,
       546951.8390581087
      ],
      [
       194328.88613900414,
       546949.4453902071
      ],
      [
       194327.92645865,
       546947.25677878
      ],
      [
       194326.81420562786,
       546945.3059393374
      ],
      [
       194325.55502820903,
       546943.6232284321
      ],
      [
       194324.15221001714,
       546942.2396416824
      ],
      [
       194322.60971632495,
       546941.1924295762
      ],
      [
       194320.94364400642,
       546940.529624798
      ],
      [
       194319.2,
       546940.3010558658
      ],
      [
       194317.4563559936,
       546940.529624798
      ],
      [
       194315.79028367507,
       546941.1924295762
      ],
      [
       194314.24778998288,
       546942.2396416824
      ],
      [
       194312.844971791,
       546943.6232284321
      ],
      [
       194311.58579437216,
       546945.3059393374
      ],
      [
       194310.47354135002,
       546947.25677878
      ],
      [
       194309.51386099588,
       546949.4453902071
      ],
      [
       194308.71416211684,
       546951.8390581087
      ],
      [
       194308.08226849398,
       546954.4017651299
      ],
      [
       194307.6252701893,
       546957.0943123153
      ],
      [
       194307.34872205654,
       546959.874915014
      ],
      [
       194307.2561391302,
       546962.7
      ],
      [
       194307.34872205654,
       546965.5250849859
      ],
      [
       194307.6252701893,
       546968.3056876846
      ],
      [
       194308.08226849398,
       546970.99823487
      ],
      [
       194308.71416211684,
       546973.5609418912
      ],
      [
       194309.51386099588,
       546975.9546097928
      ],
      [
       194310.47354135002,
       546978.1432212199
      ],
      [
       194311.58579437216,
       546980.0940606626
      ],
      [
       194312.844971791,
       546981.7767715678
      ],
      [
       194314.24778998288,
       546983.1603583175
      ],
      [
       194315.79028367507,
       546984.2075704237
      ],
      [
       194317.4563559936,
       546984.8703752019
      ],
      [
       194319.2,
       546985.0989441341
      ]
     ]
    ]
   },
   "properties": {
    "rank": 4,
    "code": "X153",
    "label": "타원 2:1 / 회전 90° / 발코니 4면",
    "aspect": 1.88,
    "balcony_mode": "all",
    "inner_m2": 683.3,
    "build_m2": 734.6,
    "outer_m2": 842.0,
    "pass_a_pct": 85.6,
    "delta_vs_now_pp": 2.9,
    "clearance_m": 10.9
   }
  },
  {
   "type": "Feature",
   "geometry": {
    "type": "Polygon",
    "coordinates": [
     [
      [
       194313.4027266679,
       546984.3357186207
      ],
      [
       194315.1461154383,
       546984.5662262627
      ],
      [
       194316.92696421905,
       546984.3572172562
      ],
      [
       194318.68793715053,
       546983.7449147818
      ],
      [
       194320.40105407307,
       546982.7715486721
      ],
      [
       194322.0528436915,
       546981.4720738478
      ],
      [
       194323.63211201265,
       546979.8755799123
      ],
      [
       194325.12554637133,
       546978.009927164
      ],
      [
       194326.51752301242,
       546975.9047988185
      ],
      [
       194327.7911627663,
       546973.5929600256
      ],
      [
       194328.9294717228,
       546971.1104390256
      ],
      [
       194329.91626964175,
       546968.4961589898
      ],
      [
       194330.73688367978,
       546965.7912986651
      ],
      [
       194331.37864123852,
       546963.0385138912
      ],
      [
       194331.83118919012,
       546960.2810820083
      ],
      [
       194332.08664521656,
       546957.5620012784
      ],
      [
       194332.13956023083,
       546954.9230702774
      ],
      [
       194331.9866372709,
       546952.4039873315
      ],
      [
       194331.62611155154,
       546950.0415674774
      ],
      [
       194331.05667203377,
       546947.8693290118
      ],
      [
       194330.2759176747,
       546945.918055993
      ],
      [
       194329.27899795497,
       546944.2185377537
      ],
      [
       194328.06010189813,
       546942.8077817903
      ],
      [
       194326.622346117,
       546941.7363502906
      ],
      [
       194324.99727333212,
       546941.0642813792
      ],
      [
       194323.2538845617,
       546940.8337737372
      ],
      [
       194321.47303578097,
       546941.0427827437
      ],
      [
       194319.7120628495,
       546941.6550852181
      ],
      [
       194317.99894592696,
       546942.6284513278
      ],
      [
       194316.34715630853,
       546943.9279261521
      ],
      [
       194314.76788798737,
       546945.5244200876
      ],
      [
       194313.2744536287,
       546947.390072836
      ],
      [
       194311.8824769876,
       546949.4952011814
      ],
      [
       194310.6088372337,
       546951.8070399743
      ],
      [
       194309.47052827722,
       546954.2895609743
      ],
      [
       194308.48373035828,
       546956.9038410101
      ],
      [
       194307.66311632024,
       546959.6087013348
      ],
      [
       194307.0213587615,
       546962.3614861087
      ],
      [
       194306.5688108099,
       546965.1189179916
      ],
      [
       194306.31335478346,
       546967.8379987215
      ],
      [
       194306.2604397692,
       546970.4769297225
      ],
      [
       194306.41336272913,
       546972.9960126684
      ],
      [
       194306.7738884485,
       546975.3584325225
      ],
      [
       194307.34332796626,
       546977.5306709881
      ],
      [
       194308.12408232532,
       546979.4819440069
      ],
      [
       194309.12100204505,
       546981.1814622462
      ],
      [
       194310.3398981019,
       546982.5922182096
      ],
      [
       194311.77765388304,
       546983.6636497093
      ],
      [
       194313.4027266679,
       546984.3357186207
      ]
     ]
    ]
   },
   "properties": {
    "rank": 5,
    "code": "X154",
    "label": "타원 2:1 / 회전 105° / 발코니 4면",
    "aspect": 1.88,
    "balcony_mode": "all",
    "inner_m2": 683.3,
    "build_m2": 734.6,
    "outer_m2": 842.0,
    "pass_a_pct": 85.7,
    "delta_vs_now_pp": 3.1,
    "clearance_m": 8.9
   }
  },
  {
   "type": "Feature",
   "geometry": {
    "type": "Polygon",
    "coordinates": [
     [
      [
       194334.02603359305,
       546949.1535209669
      ],
      [
       194331.758080409,
       546945.225310823
      ],
      [
       194317.06172793158,
       546941.2874350449
      ],
      [
       194313.1335177876,
       546943.555388229
      ],
      [
       194304.37396640697,
       546976.246479033
      ],
      [
       194306.64191959103,
       546980.174689177
      ],
      [
       194321.33827206845,
       546984.112564955
      ],
      [
       194325.26648221244,
       546981.8446117709
      ],
      [
       194334.02603359305,
       546949.1535209669
      ]
     ]
    ]
   },
   "properties": {
    "rank": 6,
    "code": "X130",
    "label": "모서리컷 팔각형 2:1 / 회전 105° / 발코니 4면",
    "aspect": 1.86,
    "balcony_mode": "all",
    "inner_m2": 683.3,
    "build_m2": 737.3,
    "outer_m2": 850.2,
    "pass_a_pct": 85.7,
    "delta_vs_now_pp": 3.1,
    "clearance_m": 8.5
   }
  },
  {
   "type": "Feature",
   "geometry": {
    "type": "Polygon",
    "coordinates": [
     [
      [
       194322.89651745177,
       546986.6374563016
      ],
      [
       194304.02999383048,
       546981.5821865333
      ],
      [
       194315.50348254826,
       546938.7625436983
      ],
      [
       194334.37000616954,
       546943.8178134667
      ],
      [
       194322.89651745177,
       546986.6374563016
      ]
     ]
    ]
   },
   "properties": {
    "rank": 7,
    "code": "R089",
    "label": "직사각형 2.5:1 / 회전 105° / 발코니 4면",
    "aspect": 2.5,
    "balcony_mode": "all",
    "inner_m2": 683.3,
    "build_m2": 742.1,
    "outer_m2": 865.9,
    "pass_a_pct": 85.7,
    "delta_vs_now_pp": 3.1,
    "clearance_m": 5.8
   }
  },
  {
   "type": "Feature",
   "geometry": {
    "type": "Polygon",
    "coordinates": [
     [
      [
       194323.2847460194,
       546985.1885675621
      ],
      [
       194304.41822239812,
       546980.1332977938
      ],
      [
       194315.11525398062,
       546940.2114324378
      ],
      [
       194333.9817776019,
       546945.2667022061
      ],
      [
       194323.2847460194,
       546985.1885675621
      ]
     ]
    ]
   },
   "properties": {
    "rank": 8,
    "code": "R090",
    "label": "직사각형 2.5:1 / 회전 105° / 발코니 장변2면",
    "aspect": 2.5,
    "balcony_mode": "long",
    "inner_m2": 683.3,
    "build_m2": 724.6,
    "outer_m2": 807.3,
    "pass_a_pct": 85.7,
    "delta_vs_now_pp": 3.1,
    "clearance_m": 7.2
   }
  },
  {
   "type": "Feature",
   "geometry": {
    "type": "Polygon",
    "coordinates": [
     [
      [
       194321.69035674012,
       546988.3562253322
      ],
      [
       194304.21517513244,
       546983.6737645329
      ],
      [
       194316.7096432599,
       546937.0437746677
      ],
      [
       194334.18482486758,
       546941.726235467
      ],
      [
       194321.69035674012,
       546988.3562253322
      ]
     ]
    ]
   },
   "properties": {
    "rank": 9,
    "code": "R113",
    "label": "직사각형 3:1 / 회전 105° / 발코니 4면",
    "aspect": 3.0,
    "balcony_mode": "all",
    "inner_m2": 683.3,
    "build_m2": 744.6,
    "outer_m2": 873.4,
    "pass_a_pct": 85.7,
    "delta_vs_now_pp": 3.1,
    "clearance_m": 4.3
   }
  },
  {
   "type": "Feature",
   "geometry": {
    "type": "Polygon",
    "coordinates": [
     [
      [
       194322.07858530775,
       546986.9073365928
      ],
      [
       194304.6034037001,
       546982.2248757934
      ],
      [
       194316.32141469227,
       546938.4926634071
      ],
      [
       194333.79659629992,
       546943.1751242065
      ],
      [
       194322.07858530775,
       546986.9073365928
      ]
     ]
    ]
   },
   "properties": {
    "rank": 10,
    "code": "R114",
    "label": "직사각형 3:1 / 회전 105° / 발코니 장변2면",
    "aspect": 3.0,
    "balcony_mode": "long",
    "inner_m2": 683.3,
    "build_m2": 728.5,
    "outer_m2": 819.1,
    "pass_a_pct": 85.7,
    "delta_vs_now_pp": 3.1,
    "clearance_m": 5.7
   }
  }
 ]
}